name,category,address,lat,lng,benefitValue,discountPercent,benefit_source_url,benefit_note,address_enriched
편가네된장,음식점,인천광역시 강화군 화도면 가능포로89번길 11,37.64067737,126.4193839,,,,,인천광역시 강화군 화도면 가능포로89번길 11
카페힐로 서창,음식점,인천광역시 남동구 서창남로 69 (서창동),37.42534711,126.7486904,,,,,인천광역시 남동구 서창남로 69
장흥숯불장어,음식점,인천광역시 강화군 길상면 장흥로 11-8,37.61182413,126.5184229,,,,,인천광역시 강화군 길상면 장흥로 11-8
바다앞농장,음식점,인천광역시 중구 은하수로 10 (중산동),37.49212806,126.5812705,,,,,인천광역시 중구 은하수로 10
달다1078,음식점,인천광역시 부평구 경인로 1078 (부개동),37.48628153,126.739534,,,,,인천광역시 부평구 경인로 1078
동막돌솥촌,음식점,인천광역시 강화군 화도면 해안남로 1632,37.59636904,126.4421969,,,,,인천광역시 강화군 화도면 해안남로 1632
아이케이라이트하우스(일광전구라이트하우스),음식점,인천광역시 중구 참외전로174번길 8-1 (경동),37.47217577,126.6350772,,,,,인천광역시 중구 참외전로174번길 8-1
송도우리갈비,음식점,인천광역시 연수구 능허대로 208 (옥련동),37.41734352,126.6499718,,,,,인천광역시 연수구 능허대로 208
카츠오모이 청라점,음식점,인천광역시 서구 청라커낼로 270 (청라동),37.5325717,126.6449913,,,,,인천광역시 서구 청라커낼로 270
꽃피는산골,음식점,인천광역시 남동구 수골로 34 (논현동),37.410826,126.7165159,,,,,인천광역시 남동구 수골로 34
빠레뜨한남 송도센트럴파크점,음식점,"인천광역시 연수구 센트럴로 160 (송도동, 송도센트럴파크푸르지오)",37.39238242,126.643737,,,,,인천광역시 연수구 센트럴로 160 송도센트럴파크푸르지오
장수가든,음식점,인천광역시 남동구 수현로14번길 13-7 (장수동),37.46405098,126.750603,,,,,인천광역시 남동구 수현로14번길 13-7
안동국밥&봉평메밀촌,음식점,인천광역시 연수구 아트센터대로 107 (송도동),37.40100077,126.6386289,,,,,인천광역시 연수구 아트센터대로 107
육가대표 청라,음식점,인천광역시 서구 청라커낼로 229-12 (청라동),37.5290943,126.6436776,,,,,인천광역시 서구 청라커낼로 229-12
마니산산채,음식점,인천광역시 강화군 화도면 해안남로 1182,37.61095092,126.456348,,,,,인천광역시 강화군 화도면 해안남로 1182
한양 한옥마을점,음식점,인천광역시 연수구 테크노파크로 180 (송도동),37.3909075,126.6389152,,,,,인천광역시 연수구 테크노파크로 180
백합칼국수 송도점,음식점,인천광역시 연수구 센트럴로 263 (송도동),37.39810936,126.6339738,,,,,인천광역시 연수구 센트럴로 263
배터지는게장,음식점,인천광역시 남동구 수현로 27 (장수동),37.4632316,126.7491421,,,,,인천광역시 남동구 수현로 27
꽃게담다 by 블루베리팜,음식점,인천광역시 남동구 찬우물로 21 (수산동),37.43815622,126.7200732,,,,,인천광역시 남동구 찬우물로 21 (수산동)
커피상회,음식점,인천광역시 계양구 성안길 22 (갈현동),37.58090083,126.7251937,,,,,인천광역시 계양구 성안길 22
송돗골,음식점,인천광역시 연수구 앵고개로103번길 15 (동춘동),37.41371074,126.6576129,,,,,인천광역시 연수구 앵고개로103번길 15
진복호 신관,음식점,인천광역시 강화군 길상면 해안남로 488,37.5977284,126.5096407,,,,,인천광역시 강화군 길상면 해안남로 488
토담식당,음식점,인천광역시 중구 개항로96번길 13-22 (경동),37.47174247,126.633894,,,,,인천광역시 중구 개항로96번길 13-22
등대숯불장어,음식점,인천광역시 강화군 길상면 초지로 142,37.62843913,126.5332433,,,,,인천광역시 강화군 길상면 초지로 142
대하해물탕,음식점,"인천광역시 부평구 장제로91번길 24-5 (부평동, 삼성아파트)",37.4940971,126.7285875,,,,,인천광역시 부평구 장제로91번길 24-5
전동삼치,음식점,인천광역시 중구 홍예문로68번길 29 (전동),37.47604187,126.6286055,,,,,인천광역시 중구 홍예문로68번길 29
고려한방삼계탕,음식점,인천광역시 미추홀구 인주대로 404 (주안동),37.45103738,126.6814236,,,,,인천광역시 미추홀구 인주대로 404
고목정쌈밥,음식점,인천광역시 중구 용유서로172번길 10 (을왕동),37.44871585,126.3889725,,,,,인천광역시 중구 용유서로172번길 10
미들웨이,음식점,인천광역시 서구 청라커낼로329번길 9 (청라동),37.53792661,126.6436524,,,,,인천광역시 서구 청라커낼로329번길 9
양산박삼치,음식점,인천광역시 중구 홍예문로68번길 28 (전동),37.4758169,126.6286277,,,,,인천광역시 중구 홍예문로68번길 28
만정수산,음식점,인천광역시 중구 영종순환로339번길 85 (중산동),37.51159179,126.5431095,,,,,인천광역시 중구 영종순환로339번길 85 (중산동)
맘모스회센터,음식점,인천광역시 중구 연안부두로33번길 17 (항동7가),37.4549189,126.6043833,,,,,인천광역시 중구 연안부두로33번길 17
차이홍,음식점,인천광역시 연수구 센트럴로 123 (송도동),37.3881746,126.6455452,,,,,인천광역시 연수구 센트럴로 123
학운정,음식점,인천광역시 서구 열우물로208번길 12 (가좌동),37.482931,126.687561,,,,,인천광역시 서구 열우물로208번길 12
짱구네,음식점,인천광역시 중구 햇내로안길 18-7 (운서동),37.49542624,126.4994417,,,,,인천광역시 중구 햇내로안길 18-7
일미민물장어,음식점,인천광역시 강화군 선원면 더리미길 2,37.72386375,126.512698,,,,,인천광역시 강화군 선원면 더리미길 2
토담마을,음식점,인천광역시 강화군 삼산면 삼산남로 910,37.68886981,126.3089233,,,,,인천광역시 강화군 삼산면 삼산남로 910
장곶횟집,음식점,인천광역시 강화군 화도면 해안남로 2532,37.62866692,126.3775242,,,,,인천광역시 강화군 화도면 해안남로 2532
월미도회집,음식점,인천광역시 중구 월미문화로 49 (북성동1가),37.47388046,126.5973556,,,,,인천광역시 중구 월미문화로 49
본가물텀벙,음식점,,37.45572516,126.6493986,,,,,인천광역시 미추홀구 독배로 401
양반집,음식점,인천광역시 미추홀구 경인로7번길 6-13 (숭의동),37.46321614,126.6445658,,,,,인천 미추홀구 경인로7번길 6-13
송도갈매기 송림,음식점,인천광역시 서구 백범로 872 (가좌동),0,0,,,,,인천광역시 서구 백범로 872
마니곱창,음식점,"인천광역시 연수구 옥련로99번길 44 (옥련동, 아주아파트)",37.4272813,126.6525519,,,,,인천광역시 연수구 옥련로99번길 44
한라담 청라점,음식점,인천광역시 서구 경명대로 401 (경서동),37.55309445,126.6528789,,,,,인천광역시 서구 경명대로 401
꼬리별 베이커리 카페&풋스파,음식점,인천광역시 강화군 길상면 해안남로 138,37.61597116,126.5347185,,,,,인천광역시 강화군 해안남로 138 장어고을
강화도무스비,음식점,인천광역시 강화군 화도면 해안남로1170번길 10-2,37.61203134,126.4557203,,,,,인천광역시 강화군 해안남로1170번길 10-2
js가든 현대프리미엄아울렛송도점,음식점,인천광역시 연수구 송도국제대로 123 (송도동),37.38280322,126.6579998,,,,,인천광역시 연수구 송도국제대로 123 현대프리미엄 아울렛 송도점
드렁킨타이 송도점,음식점,인천광역시 연수구 송도과학로28번길 8 (송도동),37.38251442,126.6606774,,,,,인천광역시 연수구 송도과학로28번길 8 더샵 송도트리플타워 East
장모족발 글로벌캠퍼스점,음식점,"인천광역시 연수구 송도문화로28번길 28 (송도동, 송도글로벌캠퍼스푸르지오)",37.37687332,126.6556752,,,,,인천광역시 연수구 송도문화로28번길 28 송도글로벌캠퍼스푸르지오
텐메이,음식점,"인천광역시 연수구 센트럴로 160 (송도동, 송도센트럴파크푸르지오)",37.39238242,126.643737,,,,,인천광역시 연수구 센트럴로 160 송도센트럴파크푸르지오
선식당,음식점,인천광역시 서구 보석로11번길 13 (청라동),37.5202922,126.6237075,,,,,인천광역시 서구 보석로11번길 13
이태리공방,음식점,인천광역시 서구 청라루비로42번길 5-16 (청라동),37.52922759,126.6419028,,,,,인천광역시 서구 청라루비로42번길 5-16
참새초밥 부평점,음식점,인천광역시 부평구 신트리로 36 (부평동),37.50572346,126.7250903,,,,,인천광역시 부평구 신트리로 36
보릿골 정찬,음식점,인천광역시 부평구 장제로 350 (삼산동),37.51687508,126.7326476,,,,,인천광역시 부평구 장제로 350
별미칡냉면원조,음식점,인천광역시 부평구 주부토로145번길 28 (갈산동),37.50828148,126.7242431,,,,,인천광역시 부평구 주부토로145번길 28
린치핀,음식점,인천광역시 연수구 송도과학로28번길 8 (송도동),37.38251442,126.6606774,,,,,인천광역시 연수구 송도과학로28번길 8 더샵 송도트리플타워 East
스시애 2호점,음식점,인천광역시 부평구 부평대로87번길 4 (부평동),37.49936025,126.7216991,,,,,인천광역시 부평구 부평대로87번길 4
정밀,음식점,인천광역시 부평구 함봉로 25 (십정동),37.4812869,126.6960797,,,,,인천광역시 부평구 함봉로 25
나라니,음식점,인천광역시 강화군 길상면 해안남로 156-14,37.61558508,126.5339769,,,,,인천광역시 강화군 해안남로 156-14
대왕김밥,음식점,인천광역시 부평구 부평문화로 41 (부평동),37.49421917,126.7209271,,,,,인천광역시 부평구 부평문화로 41 청원빌딩
시골쌈밥,음식점,인천광역시 중구 우현로35번길 8 (신포동),37.47061747,126.6268613,,,,,인천광역시 중구 우현로35번길 8
꽃게와낙지,음식점,인천광역시 강화군 화도면 해안남로2029번길 7,37.60032912,126.4097887,,,,,인천광역시 강화군 화도면 해안남로2029번길 7
금산식당(학익점),음식점,인천광역시 미추홀구 매소홀로488번길 6-29 (학익동),37.43900256,126.6755244,,,,,인천광역시 미추홀구 매소홀로488번길 6-29
월매집,음식점,인천광역시 계양구 용마루1길 19 (용종동),37.54373327,126.7439153,,,,,인천광역시 계양구 용마루1길 19
황해냉면,음식점,인천광역시 남동구 장승남로47번길 33 (만수동),37.4450835,126.7373242,,,,,인천광역시 남동구 장승남로47번길 33
갯마을갯뻘낙지,음식점,인천광역시 연수구 벚꽃로158번길 38 (연수동),37.41403611,126.6809024,,,,,인천광역시 연수구 벚꽃로158번길 38
농원숯불왕갈비,음식점,인천광역시 미추홀구 미추홀대로697번길 36 (주안동),37.45980297,126.6781236,,,,,인천광역시 미추홀구 미추홀대로697번길 36
마시안생선구이정식,음식점,인천광역시 중구 마시란로 118 (덕교동),37.43266266,126.4175815,,,,,인천광역시 중구 마시란로 118
비스트로페르레이,음식점,인천광역시 서구 크리스탈로 100 (청라동),37.53393251,126.636942,,,,,인천광역시 서구 크리스탈로 100
대판1985,음식점,"인천광역시 연수구 인천타워대로180번길 11 (송도동, 더샵송도센트럴파크Ⅲ)",37.38878831,126.6392208,,,,,"인천광역시 연수구 인천타워대로180번길 11 (송도동, 더샵송도센트럴파크Ⅲ)"
미소로,음식점,인천광역시 남동구 백범로 109 (만수동),37.45386021,126.7343298,,,,,인천광역시 남동구 백범로 109
희와래 커피로스터스,음식점,인천광역시 강화군 불은면 덕진로178번길 25-29,37.65773251,126.5090058,,,,,인천광역시 강화군 불은면 덕진로178번길 25-29
충남서산집,음식점,인천광역시 강화군 내가면 중앙로 1200,37.70471385,126.391057,,,,,인천광역시 강화군 중앙로 1200 충남서산집
숭의가든,음식점,인천광역시 미추홀구 경인로88번길 10 (숭의동),37.46539353,126.6521258,,,,,인천광역시 미추홀구 경인로88번길 10
태림봉,음식점,인천광역시 중구 차이나타운로59번길 23 (선린동),37.47396418,126.6194619,,,,,인천광역시 중구 차이나타운로59번길 23
성진물텀벙,음식점,인천광역시 미추홀구 독배로403번길 10 (용현동),37.45600568,126.6491597,,,,,인천광역시 미추홀구 독배로403번길 10
스시어왕 인천검단점,음식점,인천광역시 서구 청마로7번길 15 (당하동),37.5932679,126.6722593,,,,,인천광역시 서구 청마로7번길 15
호천당 인천 송도점,음식점,인천광역시 연수구 센트럴로 123 (송도동),37.39002441,126.6466173,,,,,인천광역시 연수구 센트럴로 123 송도컨벤시아
구구가가 에스프레소바,음식점,인천광역시 연수구 송도과학로 56 (송도동),37.38116186,126.6640965,,,,,인천광역시 연수구 송도과학로 56 송도테크노파크 BT센터
미참치,음식점,인천광역시 연수구 송도과학로16번길 13-18 (송도동),37.38107292,126.6608274,,,,,인천광역시 연수구 송도과학로16번길 13-18 송도건원테크노큐브
한양정,음식점,인천광역시 연수구 청량로113번길 1 (옥련동),37.41761579,126.654838,,,,,인천광역시 연수구 청량로113번길 1
청강횟집,음식점,인천광역시 강화군 화도면 해안남로2845번길 19-1,37.6401936,126.3914226,,,,,인천광역시 강화군 화도면 해안남로2845번길 19-1
토끼정 인천송도,음식점,인천광역시 연수구 송도국제대로 157 (송도동),37.3809923,126.6566778,,,,,인천광역시 연수구 송도국제대로 157 오네스타
은행나무집,음식점,인천광역시 중구 마시란로 9 (덕교동),37.42425817,126.4226896,,,,,인천광역시 중구 마시란로 9
매일한캔,음식점,인천광역시 남동구 구월로46번길 1 (간석동),37.45717303,126.695511,,,,,인천광역시 남동구 구월로46번길 1
피올리앙,음식점,"인천광역시 연수구 송도과학로27번길 55 (송도동, 롯데캐슬 캠퍼스타운)",37.38713619,126.6655073,,,,,인천광역시 연수구 송도과학로27번길 55 롯데캐슬 캠퍼스타운
음식남녀,음식점,인천광역시 중구 우현로72번길 3-11 (인현동),37.47380328,126.6305526,,,,,인천광역시 중구 우현로72번길 3-11
서해안조개광장 신관,음식점,인천광역시 중구 마시란로 65 (덕교동),37.42809377,126.4187537,,,,,인천광역시 중구 마시란로 65
해장국집,음식점,인천광역시 동구 동산로87번길 6 (송림동),37.47508949,126.6449151,,,,,인천광역시 동구 동산로87번길 6
황토옛집,음식점,인천광역시 강화군 화도면 해안남로 1139,37.61450328,126.4559396,,,,,인천광역시 강화군 화도면 해안남로 1139
북경,음식점,인천광역시 연수구 청량로79번길 16 (동춘동),37.41486893,126.6572379,,,,,인천광역시 연수구 청량로79번길 16
서울깍두기,음식점,인천광역시 강화군 강화읍 강화대로 387,37.74497473,126.4873887,,,,,인천광역시 강화군 강화읍 강화대로 387
광성보한식전문식당,음식점,인천광역시 강화군 불은면 해안동로466번길 8-13,37.6633933,126.5284872,,,,,인천광역시 강화군 불은면 해안동로466번길 8-13
우만당,음식점,인천광역시 연수구 아트센터대로 222 (송도동),37.3940347,126.6267968,,,,,인천광역시 연수구 아트센터대로 222 아트센터 인천(콘서트홀)
애월몽,음식점,인천광역시 연수구 송도과학로16번길 13-18 (송도동),37.38107292,126.6608274,,,,,인천광역시 연수구 송도과학로16번길 13-18 송도건원테크노큐브
크로마이트커피,음식점,인천광역시 연수구 청량로155번길 39-5 (옥련동),37.42135139,126.6506105,,,,,인천광역시 연수구 청량로155번길 39-5
청원아구,음식점,인천광역시 연수구 대암로 38 (옥련동),37.41811293,126.6534187,,,,,인천광역시 연수구 대암로 38
초원에서,음식점,인천광역시 남동구 만의골로 204 (장수동),37.46099619,126.773526,,,,,인천광역시 남동구 만의골로 204
연백호,음식점,인천광역시 강화군 화도면 해안남로2903번길 56,37.64051579,126.3918448,,,,,인천광역시 강화군 화도면 해안남로2903번길 56
스시카츠,음식점,인천광역시 서구 청라커낼로233번길 15 (청라동),37.52925539,126.6431943,,,,,인천광역시 서구 청라커낼로233번길 15
서해꽃게전문,음식점,인천광역시 강화군 내가면 중앙로 1238,37.70445824,126.3865657,,,,,인천광역시 강화군 내가면 중앙로 1238
옥천관,음식점,인천광역시 부평구 안남로 447-2 (청천동),37.52287121,126.7102412,,,,,인천광역시 부평구 안남로 447-2
[백년가게]함흥냉면,음식점,인천광역시 부평구 시장로20번길 21 (부평동),37.49261667,126.7263266,,,,,인천광역시 부평구 시장로20번길 21
석빈가든,음식점,인천광역시 남동구 장승로 60 (만수동),37.44552238,126.7393073,,,,,인천광역시 남동구 장승로 60
그리다디저트,음식점,인천광역시 연수구 인천타워대로132번길 30 (송도동),37.38594983,126.6435288,,,,,인천광역시 연수구 인천타워대로132번길 30
해송쌈밥,음식점,인천광역시 중구 공항서로 177 (남북동),37.44276726,126.4304523,,,,,인천광역시 중구 공항서로 177
등나무가든,음식점,인천광역시 강화군 길상면 해안동로 76,37.63416898,126.5310433,,,,,인천광역시 강화군 길상면 해안동로 76
인하의집,음식점,인천광역시 중구 우현로67번길 57 (전동),37.47573913,126.6286721,,,,,인천광역시 중구 우현로67번길 57
오담,음식점,인천광역시 서구 장고개로 243-4 (가좌동),37.48696928,126.67942,,,,,인천광역시 서구 장고개로 243-4
희래등,음식점,인천광역시 서구 탁옥로86번길 6-1 (심곡동),37.5431183,126.678899,,,,,인천광역시 서구 탁옥로86번길 6-1
솟구쳐차기 큐브점,음식점,인천광역시 연수구 송도과학로16번길 13-18 (송도동),37.38107292,126.6608274,,,,,인천광역시 연수구 송도과학로16번길 13-18 송도건원테크노큐브
풍미,음식점,인천광역시 중구 차이나타운로 56 (선린동),37.47477518,126.6184786,,,,,인천광역시 중구 차이나타운로 56 (선린동)
중국성,음식점,인천광역시 중구 차이나타운로 53 (선린동),37.47481962,126.6187953,,,,,인천광역시 중구 차이나타운로 53
바네스타코 송도트리플스트리트점,음식점,인천광역시 연수구 송도과학로16번길 33-2 (송도동),37.38049798,126.6602441,,,,,인천광역시 연수구 송도과학로16번길 33-2 송도 트리플스트리트
장어마을,음식점,인천광역시 강화군 길상면 해안남로 298,37.60985772,126.5199783,,,,,인천광역시 강화군 길상면 해안남로 298
가보,음식점,인천광역시 부평구 평천로 394 (삼산동),37.51728061,126.7340586,,,,,인천광역시 부평구 평천로 394 (삼산동)
스테이블디 에스프레소바,음식점,인천광역시 연수구 송도과학로28번길 8 (송도동),37.38251442,126.6606774,,,,,인천광역시 연수구 송도과학로28번길 8 더샵 송도트리플타워 East
만리성,음식점,인천광역시 미추홀구 아암대로 5 (용현동),37.46029944,126.6386522,,,,,인천광역시 미추홀구 아암대로 5
옥련시장 식품위생우수업소,음식점,인천광역시 연수구 독배로40번길 35 (옥련동),37.424621,126.64683,,,,,인천 연수구 독배로40번길 35
작전시장 식품위생우수업소,음식점,인천광역시 계양구 봉오대로677번길 26 (작전동),37.53315082,126.7246396,,,,,인천광역시 계양구 봉오대로 677번길 26
해변가,음식점,인천광역시 연수구 앵고개로83번길 15 (동춘동),37.41279134,126.6543271,,,,,인천광역시 연수구 앵고개로83번길 15
정육식당 대박한우집,음식점,인천광역시 서구 청라에메랄드로163번길 3-3 (청라동),37.53970718,126.6562595,,,,,인천광역시 서구 청라에메랄드로163번길 3-3
토마레초밥,음식점,인천광역시 서구 청라에메랄드로41번길 30 (청라동),37.52914174,126.6559793,,,,,인천광역시 서구 청라에메랄드로41번길 30
소담한정식,음식점,인천광역시 계양구 경명대로1373번길 8 (박촌동),37.54159212,126.7593,,,,,인천광역시 계양구 경명대로1373번길 8
경희보궁 계양구청점,음식점,인천광역시 계양구 계산새로65번길 15 (계산동),37.53963359,126.7352967,,,,,인천광역시 계양구 계산새로65번길 15 서협빌딩
흐노니,음식점,인천광역시 강화군 길상면 해안남로 328-7,37.60864394,126.5178341,,,,,인천광역시 강화군 해안남로 328-7
칼국수 맛있는집,음식점,인천광역시 강화군 화도면 마니산로 569-1,37.63219526,126.4329301,,,,,인천광역시 강화군 마니산로 569-1 칼국수 맛있는 집
갤러리 더 네이처,음식점,인천광역시 계양구 아라로 455 (다남동),37.57425164,126.7271854,,,,,인천광역시 계양구 아라로 455
전주돌솥밥,음식점,인천광역시 계양구 오조산로45번길 11-1 (계산동),37.53465642,126.7371495,,,,,인천광역시 계양구 오조산로45번길 11-1
본토만다복,음식점,인천광역시 중구 차이나타운로59번길 25 (선린동),37.47399195,126.6195925,,,,,인천광역시 중구 차이나타운로59번길 25
가연식당,음식점,인천광역시 동구 어촌로 7 (만석동),37.48217714,126.6209366,,,,,인천광역시 동구 어촌로 7
[백년가게]알미골,음식점,인천광역시 강화군 강화읍 강화대로 334,37.74291118,126.4929216,,,,,인천광역시 강화군 강화읍 강화대로 334
황금쌈밥,음식점,인천광역시 서구 경명대로 401 (경서동),37.55309445,126.6528789,,,,,인천광역시 서구 경명대로 401
청주보쌈,음식점,인천광역시 미추홀구 주안중로50번길 27-7 (주안동),37.46310547,126.6842341,,,,,인천광역시 미추홀구 주안중로50번길 27-7
원갈비,음식점,인천광역시 서구 심곡로8번길 4 (심곡동),37.54182663,126.6702443,,,,,인천광역시 서구 심곡로8번길 4 원갈비
청라풍천장어마을,음식점,인천광역시 서구 로봇랜드로249번길 84 (청라동),37.52845756,126.6034841,,,,,인천광역시 서구 로봇랜드로249번길 84 대원식당
최고집 신포본점,음식점,인천광역시 중구 홍예문로 13 (중앙동3가),37.4719617,126.6235255,,,,,"인천광역시 중구 홍예문로 13 최고집,놀이터노래타운"
유진면옥,음식점,인천광역시 강화군 양도면 강화남로 606-1,37.65593129,126.4278994,,,,,인천광역시 강화군 강화남로 606-1
더꽃게,음식점,인천광역시 계양구 봉오대로 446 (효성동),37.52694276,126.6990448,,,,,인천광역시 계양구 봉오대로 446
금산식당(연수점),음식점,인천광역시 연수구 청능대로53번길 24-4 (청학동),37.41771333,126.6736363,,,,,인천광역시 연수구 청능대로53번길 24-4
빨간돼지 청라점,음식점,인천광역시 서구 청라커낼로319번길 3-13 (청라동),37.53652955,126.6437052,,,,,인천광역시 서구 청라커낼로319번길 3-13
삼미소문난냉면,음식점,인천광역시 동구 화평로 10 (화평동),37.47794446,126.6302053,,,,,인천광역시 동구 화평로 10
황제삼계탕,음식점,인천광역시 남동구 예술로 230 (구월동),37.45453734,126.7020744,,,,,인천광역시 남동구 예술로 230
청송오리,음식점,인천광역시 남동구 덕골로 96 (수산동),37.42817131,126.7220983,,,,,인천광역시 남동구 덕골로 96
선수미락횟집,음식점,인천광역시 강화군 화도면 해안남로2903번길 58,37.64012973,126.3919559,,,,,인천광역시 강화군 화도면 해안남로2903번길 58
육교추어탕,음식점,인천광역시 남동구 수인로 3548 (운연동),37.44353974,126.7656716,,,,,인천광역시 남동구 수인로 3548
기와집담,음식점,인천광역시 중구 용유로21번길 65-17 (덕교동),37.43150458,126.4242254,,,,,인천광역시 중구 용유로21번길 65-17 (덕교동)
낙조대,음식점,인천광역시 중구 을왕로 80 (을왕동),37.44955708,126.3693632,,,,,인천광역시 중구 을왕로 80
취홍,음식점,인천광역시 남동구 예술로192번길 25 (구월동),37.45132939,126.7029438,,,,,인천광역시 남동구 예술로192번길 25
유일8호,음식점,인천광역시 강화군 화도면 해안남로2903번길 56,37.64051579,126.3918448,,,,,인천광역시 강화군 화도면 해안남로2903번길 56
카페라르고빌,음식점,인천광역시 강화군 화도면 해안남로2845번길 27,37.64090184,126.3909948,,,,,인천광역시 강화군 해안남로2845번길 27 라르고빌리조트
아라베스크,음식점,인천광역시 중구 우현로 80 (인현동),37.47400325,126.6304526,,,,,인천광역시 중구 우현로 80 (인현동)
인천집,음식점,인천광역시 중구 우현로67번길 53 (전동),37.47553083,126.6287721,,,,,인천광역시 중구 우현로67번길 53
카페오라,음식점,인천광역시 중구 용유서로 380 (을왕동),37.45207908,126.37351,,,,,인천광역시 중구 용유서로 380
서울횟집,음식점,인천광역시 강화군 내가면 해안서로 917-2,37.70078348,126.3755446,,,,,인천광역시 강화군 내가면 해안서로 917-2
장기리추어탕,음식점,인천광역시 계양구 장기로2번길 5 (장기동),37.57701815,126.7366372,,,,,인천광역시 계양구 장기로2번길 5 (장기동)
모모아트,음식점,인천광역시 계양구 역골로43번길 33 (다남동),37.56614977,126.7249136,,,,,인천광역시 계양구 역골로43번길 33 (다남동)
하얀꽃메밀,음식점,인천광역시 강화군 화도면 해안남로 1833,37.60419003,126.4241734,,,,,인천광역시 강화군 화도면 해안남로 1833
그린홀리데이키친,음식점,인천광역시 강화군 길상면 해안남로 816,37.6095876,126.479657,,,,,인천광역시 강화군 길상면 해안남로 816
갯배생선구이 강화도점,음식점,인천광역시 강화군 양도면 중앙로 1124,37.70269478,126.3991229,,,,,인천광역시 강화군 양도면 중앙로 1124
진흥각,음식점,인천광역시 중구 신포로23번길 20 (중앙동4가),37.47175618,126.6239338,,,,,인천광역시 중구 신포로23번길 20
더더 수육튀김_송도타임스페이스본점,음식점,인천광역시 연수구 하모니로138번길 11 (송도동),37.38503604,126.6431539,,,,,인천광역시 연수구 하모니로138번길 11 (송도동)
늘솜당,음식점,인천광역시 남동구 논고개로 213-2 (도림동),37.41157602,126.7224876,,,,,인천광역시 남동구 논고개로 213-2
삼대인천게장,음식점,인천광역시 동구 금곡로81번길 22 (송림동),37.47424515,126.644929,,,,,인천광역시 동구 금곡로81번길 22
[백년가게]신동양,음식점,인천광역시 중구 서해대로449번길 52 (신흥동1가),37.46720407,126.6316499,,,,,인천광역시 중구 서해대로449번길 52 (신흥동1가)
시옌,음식점,인천광역시 남동구 인주대로 560 (구월동),37.44989338,126.6991109,,,,,인천광역시 남동구 인주대로 560
곤드레밥집,음식점,인천광역시 남동구 인주대로626번길 6 (구월동),37.44957688,126.7063686,,,,,인천광역시 남동구 인주대로626번길 6
서해안조개광장본관,음식점,인천광역시 중구 마시란로 65 (덕교동),37.42806877,126.4187259,,,,,인천광역시 중구 마시란로 65
만수본갈비,음식점,인천광역시 남동구 하촌로 57 (만수동),37.45300473,126.7329521,,,,,인천광역시 남동구 하촌로 57
브런치빈 청라점,음식점,인천광역시 서구 청라라임로 57 (청라동),37.53266627,126.6529239,,,,,인천광역시 서구 청라라임로 57 (청라동)
이가네찹쌀순대,음식점,인천광역시 남동구 예술로 220 (구월동),37.4534819,126.7019216,,,,,인천광역시 남동구 예술로 220
청정칼국수,음식점,인천광역시 서구 푸른로14번길 12 (청라동),37.52430016,126.6288819,,,,,인천광역시 서구 푸른로14번길 12
영흥도바지락해물칼국수,음식점,인천광역시 옹진군 영흥면 영흥북로 195,37.26799147,126.4950706,,,,,인천광역시 옹진군 영흥북로 195
현미네 조개구이,음식점,인천광역시 중구 용유로21번길 69 (덕교동),37.4311713,126.4253308,,,,,인천광역시 중구 용유로21번길 69
맛을담은강된장,음식점,인천광역시 강화군 화도면 해안남로 1164,37.61197857,126.4559314,,,,,인천광역시 강화군 해안남로 1164
원조할머니냉면,음식점,인천광역시 동구 화평로 24-2 (화평동),37.47896654,126.6289387,,,,,인천광역시 동구 화평로 24-2
가마솥손두부,음식점,인천광역시 미추홀구 소성로326번길 4 (문학동),37.43739733,126.683246,,,,,인천광역시 미추홀구 소성로326번길 4
충무칼국수보쌈 강화점,음식점,인천광역시 강화군 강화읍 고비고개로 169,37.74114694,126.4610773,,,,,인천광역시 강화군 고비고개로 169
학생분식,음식점,인천광역시 강화군 길상면 온수길 17-2,37.63853167,126.4921162,,,,,인천광역시 강화군 온수길 17-2 학생분식
아라짬뽕,음식점,인천광역시 중구 오작로 6-9 (중산동),37.49565791,126.564633,,,,,인천광역시 중구 오작로 6-9
[백년가게]더리미집,음식점,인천광역시 강화군 선원면 해안동로 1219,37.72320551,126.5131897,,,,,인천광역시 강화군 선원면 해안동로 1219
알베로테라,음식점,인천광역시 남동구 서창남순환로10번길 50 (서창동),37.42331406,126.7516624,,,,,인천광역시 남동구 서창남순환로10번길 50
스페인마을,음식점,인천광역시 강화군 화도면 해안남로 2677-21,37.63614932,126.3739326,,,,,인천광역시 강화군 화도면 내리 2181-14
플로레도커피,음식점,인천광역시 옹진군 영흥면 영흥로 301,37.25540935,126.4811472,,,,,인천광역시 옹진군 영흥면 영흥로 301
백송가든(백송 손두부),음식점,인천광역시 강화군 양도면 강화남로 727-11,37.66376079,126.4193194,,,,,인천광역시 강화군 강화남로 727-11
[백년가게]복화루,음식점,인천광역시 부평구 부평대로32번길 16 (부평동),37.49436365,126.7239657,,,,,인천광역시 부평구 부평대로32번길 16
하늘가든,음식점,인천광역시 옹진군 영흥면 영흥로251번길 24,37.25773137,126.4847913,,,,,인천광역시 옹진군 영흥면 영흥로251번길 24
장미횟집,음식점,인천광역시 강화군 하점면 창후로 308,37.76986675,126.3564333,,,,,인천광역시 강화군 하점면 창후로 308
유달산,음식점,인천광역시 남동구 인주대로 837 (만수동),37.44876073,126.7302747,,,,,인천광역시 남동구 인주대로 837
삼강옥(구 삼강설렁탕),음식점,인천광역시 중구 참외전로158번길 1 (경동),37.47306176,126.6340495,,,,,인천광역시 중구 참외전로158번길 1
동원물텀벙,음식점,인천광역시 미추홀구 독배로 403 (용현동),37.45590569,126.6495291,,,,,인천광역시 미추홀구 독배로 403
보광호횟집,음식점,인천광역시 강화군 길상면 해안남로619번길 21,37.59836143,126.496478,,,,,인천광역시 강화군 길상면 해안남로619번길 21
을왕리꾸덕집,음식점,인천광역시 중구 용유서로174번길 44 (을왕동),37.44622161,126.3841369,,,,,인천광역시 중구 용유서로174번길 44
신성루,음식점,인천광역시 중구 우현로 19-14 (신생동),37.46983422,126.6264419,,,,,인천광역시 중구 우현로 19-14
별미정,음식점,인천광역시 강화군 선원면 더리미길 10,37.72292219,126.5122426,,,,,인천광역시 강화군 선원면 더리미길 10
성진아구,음식점,인천광역시 연수구 청량로109번길 71 (옥련동),37.41559655,126.6529605,,,,,인천광역시 연수구 청량로109번길 71
장수촌,음식점,인천광역시 강화군 내가면 중앙로 1162,37.70310299,126.3949983,,,,,인천광역시 강화군 내가면 중앙로 1162
아우라지,음식점,인천광역시 부평구 장제로 346 (삼산동),37.5164529,126.7325921,,,,,인천광역시 부평구 장제로 346
밥상편지,음식점,인천광역시 연수구 하모니로 124 (송도동),37.38569988,126.6451509,,,,,인천광역시 연수구 하모니로 124
뉴욕베이글 송도,음식점,"인천광역시 연수구 컨벤시아대로 116 (송도동, 푸르지오월드마크)",37.39319349,126.6468311,,,,,인천광역시 연수구 컨벤시아대로 116 푸르지오월드마크
바베큐광장,음식점,인천광역시 부평구 경원대로 1439 (부평동),37.49153629,126.7288903,,,,,인천광역시 부평구 경원대로 1439
용화반점,음식점,인천광역시 중구 참외전로174번길 7 (경동),37.47205912,126.6354438,,,,,인천광역시 중구 참외전로174번길 7
금화왕돈까스,음식점,인천광역시 서구 가정로37번길 4 (가좌동),37.48882169,126.6709207,,,,,인천광역시 서구 가정로37번길 4
매화마름,음식점,인천광역시 강화군 길상면 길상로25번길 28,37.63526031,126.5194305,,,,,인천광역시 강화군 길상로25번길 28
경성한우불고기 송도컨벤시아 본점,음식점,인천광역시 연수구 센트럴로 123 (송도동),37.39002441,126.6466173,,,,,인천광역시 연수구 센트럴로 123 송도컨벤시아
해월토장,음식점,인천광역시 연수구 송도미래로 30 (송도동),37.36817975,126.6481178,,,,,인천광역시 연수구 송도미래로 30 송도 BRC 스마트밸리 지식산업센터
산동만두 공갈빵,음식점,인천광역시 중구 우현로49번길 33 (신포동),37.47145904,126.6264725,,,,,인천광역시 중구 우현로49번길 33
카페 히스토리(history),음식점,인천광역시 중구 송학로 13-1 (송학동2가),37.47439757,126.6257502,,,,,인천광역시 중구 송학로 13-1
소나무식당2호점,음식점,인천광역시 중구 용유로21번길 57 (덕교동),37.4304797,126.4246892,,,,,인천광역시 중구 용유로21번길 57
이조보쌈,음식점,인천광역시 남동구 인주대로850번길 31-17 (만수동),37.44786088,126.7327801,,,,,인천광역시 남동구 인주대로850번길 31-17
바다해물탕,음식점,인천광역시 남동구 하촌로 58 (만수동),37.45288809,126.7335188,,,,,인천광역시 남동구 하촌로 58
취리희,음식점,인천광역시 중구 영종진광장로 52 (중산동),37.49625809,126.5789817,,,,,인천광역시 중구 영종진광장로 52 블루오션프라자
누닝 펫푸드카페,음식점,,37.5325717,126.6449913,,,,,인천광역시 서구 청라커낼로 270
강만장,음식점,인천광역시 강화군 교동면 대룡안길54번길 24,37.78179181,126.2807594,,,,,인천광역시 강화군 교동면 대룡안길54번길 24
회나라식당,음식점,인천광역시 옹진군 덕적면 덕적북로 32,37.22776247,126.1545777,,,,,인천광역시 옹진군 덕적면 덕적북로 32
개성손만두,음식점,인천광역시 미추홀구 매소홀로 435 (학익동),37.44006624,126.6704165,,,,,인천광역시 미추홀구 매소홀로 435
카페라봉,음식점,인천광역시 중구 용유서로174번길 54 (을왕동),37.44592718,126.3828732,,,,,인천광역시 중구 용유서로174번길 54
금촌집,음식점,인천광역시 중구 우현로90번길 19-1 (인현동),37.47394771,126.6309942,,,,,인천광역시 중구 우현로90번길 19-1
무지락설렁탕,음식점,인천광역시 남동구 논현고잔로 166 (고잔동),37.39686373,126.7164219,,,,,인천광역시 남동구 논현고잔로 166
돈타래게장정식,음식점,인천광역시 부평구 열우물로 59 (십정동),37.4730407,126.6995963,,,,,인천광역시 부평구 열우물로 59
비룡,음식점,인천광역시 중구 신도시남로141번길 16 (운서동),37.49420119,126.4886511,,,,,인천광역시 중구 신도시남로141번길 16
강선생막국수,음식점,인천광역시 서구 담지로86번길 5-41 (청라동),37.53796027,126.6622507,,,,,인천광역시 서구 담지로86번길5-41
젠젠,음식점,인천광역시 연수구 송도국제대로 157 (송도동),37.38101452,126.6566778,,,,,인천광역시 연수구 송도국제대로 157
수연생오리구이,음식점,인천광역시 연수구 능허대로167번길 72 (옥련동),37.42028487,126.6517188,,,,,인천광역시 연수구 능허대로167번길 72
황해해물칼국수 2호점,음식점,인천광역시 중구 마시란로 37 (덕교동),37.42626069,126.4212313,,,,,인천광역시 중구 마시란로 37
선재리커피집,음식점,인천광역시 옹진군 영흥면 선재로34번길 79,37.23402116,126.5379815,,,,,인천광역시 옹진군 선재로34번길 79
야생화뜰,음식점,인천광역시 강화군 화도면 안골길131번길 36-7,37.63673024,126.3986276,,,,,인천광역시 강화군 화도면 안골길131번길 36-7
고을식당,음식점,인천광역시 강화군 강화읍 강화대로 400,37.74609126,126.4869887,,,,,인천광역시 강화군 강화읍 강화대로 400
ZOUMA,음식점,"인천광역시 연수구 센트럴로 194 (송도동, 더샵 센트럴파크2)",37.3942377,126.6407011,,,,,인천광역시 연수구 센트럴로 194 더샵 센트럴파크2
잉글랜드왕돈까스,음식점,인천광역시 중구 우현로90번길 7 (인현동),37.47430323,126.631022,,,,,인천광역시 중구 우현로90번길 7
면박사가야밀면,음식점,인천광역시 부평구 주부토로172번길 28 (갈산동),37.51023132,126.7275955,,,,,인천광역시 부평구 주부토로172번길 28
신신분식,음식점,인천광역시 중구 자유공원로27번길 1 (내동),37.47520862,126.6278722,,,,,인천광역시 중구 자유공원로27번길 1
촌집보쌈,음식점,인천광역시 부평구 백범로422번길 58 (십정동),37.4702939,126.7052764,,,,,인천광역시 부평구 백범로422번길 58
네몽,음식점,"인천광역시 연수구 송도과학로27번길 15 (송도동, 송도아메리칸타운아이파크)",37.38485583,126.6616966,,,,,인천광역시 연수구 송도과학로27번길 15 송도아메리칸타운아이파크
오거리삼계탕,음식점,인천광역시 남동구 경인로613번길 40 (간석동),37.46689153,126.7061875,,,,,인천광역시 남동구 경인로613번길 40
아미고,음식점,인천광역시 미추홀구 인하로67번길 24-9 (용현동),37.45256176,126.6566758,,,,,인천광역시 미추홀구 인하로67번길 24-9 (용현동)
퐁듀베이커리,음식점,,37.46487976,126.7141315,,,,,남동구 경인로 644번길 119
케익하우스델리,음식점,인천광역시 남동구 구월남로 280 (구월동),37.4519553,126.7207957,,,,,인천 남동구 구월남로 280
까레몽(예술회관점),음식점,,37.44944591,126.7011633,,,,,인천 남동구 예술로 지하 172
안스베이커리(구월점),음식점,인천광역시 남동구 인주대로 664 (구월동),37.44916997,126.7108126,,,,,인천 남동구 인주대로 664
평양옥,음식점,인천광역시 서구 석곶로 23 (가정동),37.51950151,126.6736335,,,,,인천광역시 서구 석곶로 23
달쭈꾸미,음식점,인천광역시 중구 월미문화로 39 (북성동1가),37.4747878,126.5977072,,,,,인천 중구 월미문화로 39
도담초밥,음식점,인천광역시 서구 탁옥로 17 (심곡동),37.5442282,126.6714119,,,,,인천 서구 탁옥로 17
돈비어천가,음식점,인천광역시 중구 개항로 53-1 (내동),37.47256129,126.6285735,,,,,인천 중구 개항로 53-1
동암아구해물탕,음식점,인천광역시 부평구 백범로468번길 45 (십정동),37.47072337,126.7005044,,,,,인천 부평구 백범로468번길 45
등나무가든,음식점,인천광역시 강화군 길상면 해안동로 76,37.63419924,126.5311763,,,,,인천 강화군 길상면 해안동로 76
레드크랩,음식점,인천광역시 서구 경명대로 407 (경서동),37.55303556,126.6533092,,,,,인천 서구 경명대로 407
마포소금구이,음식점,인천광역시 연수구 샘말로44번길 6 (연수동),37.41305757,126.6793545,,,,,인천 연수구 샘말로44번길 6
만선해변,음식점,인천광역시 미추홀구 매소홀로 388 (학익동),37.43978679,126.6650959,,,,,인천 미추홀구 매소홀로 388
명품삼계탕,음식점,인천광역시 미추홀구 독정이로 112 (숭의동),37.46544207,126.6499674,,,,,인천 미추홀구 독정이로 112
미락초밥,음식점,인천광역시 미추홀구 용정공원로83번길 49 (용현동),37.44756775,126.6485908,,,,,인천 미추홀구 용정공원로83번길 49
드림팰리스 뷔페,음식점,인천광역시 미추홀구 주안로 103-18 (주안동),37.46457632,126.6816779,,,,,인천 미추홀구 주안로 103-18
바다해물탕,음식점,인천광역시 남동구 하촌로 58 (만수동),37.45288895,126.7335274,,,,,인천 남동구 하촌로 58
백암왕순대,음식점,인천광역시 연수구 청능대로113번길 10 (연수동),37.41283865,126.6772132,,,,,인천 연수구 청능대로113번길 10
컵피,음식점,인천광역시 연수구 송도과학로28번길 8 (송도동),37.38251442,126.6606774,,,,,인천광역시 연수구 송도과학로28번길 8 더샵 송도트리플타워 East
보릿고개 인천연수점,음식점,인천광역시 연수구 샘말로38번길 11 (연수동),37.41285845,126.6794942,,,,,인천광역시 연수구 샘말로38번길 11
대청마루칼국수,음식점,인천광역시 강화군 선원면 시리미로42번길 62-20,37.72772375,126.4749292,,,,,인천광역시 강화군 시리미로42번길 62-20
한상민과자점,음식점,"인천광역시 계양구 효서로 381 (작전동, 현대2차아파트)",37.52939592,126.737083,,,,,인천광역시 계양구 효서로 381
고향냉면,음식점,,37.4777056,126.6305275,,,,,인천광역시 동구 화평로 6
보름돈가스,음식점,인천광역시 연수구 아트센터대로 131 (송도동),37.39943703,126.6367096,,,,,인천광역시 연수구 아트센터대로 131 커낼워크D2 SUMMER
피제리아 일피노 인천 송도점,음식점,"인천광역시 연수구 컨벤시아대로 50 (송도동, 푸르지오월드마크)",37.3977486,126.6516916,,,,,인천광역시 연수구 컨벤시아대로 50 푸르지오월드마크
섬고기,음식점,인천광역시 강화군 길상면 삼랑성길 4,37.63921213,126.4913579,,,,,인천광역시 강화군 길상면 삼랑성길 4
우순임원조할머니쭈꾸미,음식점,인천광역시 동구 제물량로 342 (만석동),37.48104393,126.6207477,,,,,인천광역시 동구 제물량로 342
진천토종순대,음식점,인천광역시 서구 신진말로 37 (가좌동),37.49339354,126.6797003,,,,,인천광역시 서구 신진말로 37 현신빌딩
영종제빵소,음식점,인천광역시 중구 해맞이길 7 (운남동),37.47647064,126.5299561,,,,,인천광역시 중구 해맞이길 7
바다쏭,음식점,인천광역시 연수구 능허대로 16 (옥련동),37.42948075,126.6361727,,,,,인천광역시 연수구 능허대로 16
청해김밥,음식점,인천광역시 미추홀구 경인로 414 (주안동),37.45791999,126.6860091,,,,,인천광역시 미추홀구 경인로 414
사곶냉면,음식점,인천광역시 남동구 논고개로 253-2 (도림동),37.41335087,126.7255761,,,,,인천광역시 남동구 논고개로 253-2
지금이곳,음식점,인천광역시 중구 운남로82번길 40 (운남동),37.48613909,126.5370941,,,,,인천광역시 중구 운남로82번길 40
청라어보,음식점,인천광역시 서구 중봉대로586번길 9-23 (청라동),37.53273848,126.6524767,,,,,인천광역시 서구 중봉대로586번길 9-23
봄날 칼국수 보리밥,음식점,인천광역시 강화군 길상면 강화동로 113,37.64955539,126.4922548,,,,,인천광역시 강화군 강화동로 113
러시아식당 바이칼,음식점,인천광역시 미추홀구 경인남길30번길 38 (용현동),37.45185629,126.6565036,,,,,인천광역시 미추홀구 경인남길30번길 38
흥부골숯불갈비,음식점,인천광역시 강화군 양도면 중앙로874번길 1,37.69698476,126.423357,,,,,인천광역시 강화군 중앙로874번길 1 강화사자밭약쑥체험장
바닐라베이,음식점,인천광역시 서구 청라커낼로 327 (청라동),37.5379294,126.6444106,,,,,인천광역시 서구 청라커낼로 327
희소식,음식점,인천광역시 강화군 선원면 중앙로413번길 6,37.71430019,126.4679302,,,,,인천광역시 강화군 중앙로413번길 6 희소식
한우야,음식점,인천광역시 서구 원적로96번길 14 (가좌동),37.49421851,126.6835638,,,,,인천광역시 서구 원적로96번길 14
모밀촌,음식점,인천광역시 남동구 용천로 148 (간석동),37.46285604,126.7146285,,,,,인천광역시 남동구 용천로 148
송도아트리움,음식점,인천광역시 연수구 청량로97번길 56 (옥련동),37.41547713,126.6534854,,,,,인천광역시 연수구 청량로97번길 56
오두돈대숯불장어,음식점,인천광역시 강화군 불은면 해안동로 714,37.68179377,126.5187987,,,,,인천광역시 강화군 불은면 해안동로 714
송도명동칼국수 아트포레점,음식점,인천광역시 연수구 인천타워대로 257 (송도동),37.39385706,126.6332379,,,,,인천광역시 연수구 인천타워대로 257
미도방만두,음식점,인천광역시 서구 서곶로 355 (연희동),37.54933976,126.676749,,,,,인천광역시 서구 서곶로 355
카페109하우스,음식점,인천광역시 강화군 양도면 해안서로 540,37.67957804,126.3997707,,,,,인천광역시 강화군 해안서로 540
브런치빈,음식점,인천광역시 연수구 해돋이로151번길 4 (송도동),37.39406837,126.64602,,,,,인천광역시 연수구 해돋이로151번길 4
벨팡,음식점,인천광역시 강화군 길상면 온수길 32,37.63952043,126.4912912,,,,,인천광역시 강화군 길상면 온수길 32
토크라피,음식점,인천광역시 강화군 화도면 해안남로1691번길 43-12,37.59288603,126.4376447,,,,,인천광역시 강화군 화도면 해안남로1691번길 43-12
왕자정묵밥,음식점,인천광역시 강화군 강화읍 북문길 55,37.75166278,126.4840666,,,,,인천광역시 강화군 강화읍 북문길 55
뜰안에정원,음식점,인천광역시 강화군 삼산면 삼산남로 827,37.68548979,126.317142,,,,,인천광역시 강화군 삼산면 삼산남로 827
2번창고,음식점,인천광역시 강화군 불은면 강화동로 680,37.69520538,126.4783048,,,,,인천광역시 강화군 불은면 강화동로 680
포청천부,음식점,인천광역시 남동구 소래로 644-1 (만수동),37.44716375,126.7335523,,,,,인천광역시 남동구 소래로 644-1
본가낙지마당,음식점,인천광역시 미추홀구 소성로 192 (학익동),37.44064329,126.6692898,,,,,인천 미추홀구 소성로 192
본가대박집,음식점,인천광역시 중구 홍예문로98번길 9 (인현동),37.47584034,126.6307059,,,,,인천 중구 홍예문로98번길 9
부평불고기3578,음식점,인천광역시 부평구 길주로494번길 17 (청천동),37.50682853,126.7172534,,,,,인천 부평구 길주로494번길 17
정정당당 화로구이(만수 화로구이),음식점,인천광역시 남동구 백범로 182 (만수동),37.4585426,126.7284554,,,,,인천 남동구 백범로 182
촌장골,음식점,인천광역시 서구 서곶로 296 (심곡동),37.54407594,126.6771631,,,,,인천 서구 서곶로 296
북경전통손짜장,음식점,인천광역시 옹진군 영흥면 선재로 338,37.25378589,126.5142523,,,,,인천 옹진군 영흥면 선재로 338
비하니,음식점,인천광역시 부평구 광장로24번길 13 (부평동),37.49024165,126.7252176,,,,,인천 부평구 광장로24번길 13
삼원일식,음식점,인천광역시 미추홀구 경인로325번길 14 (주안동),37.45943027,126.676655,,,,,인천 미추홀구 경인로325번길 14
삿뽀로 송도점,음식점,인천광역시 연수구 능허대로267번길 70 (동춘동),37.41426591,126.6572862,,,,,인천 연수구 능허대로267번길 70
회마트서산갯마을,음식점,인천광역시 강화군 화도면 해안남로2845번길 10,37.63927283,126.3920123,,,,,인천 강화군 화도면 해안남로2845번길 10
통큰소한마리,음식점,인천광역시 남동구 경원대로 960 (간석동),37.46811402,126.6905935,,,,,인천 남동구 경원대로 960
선재우리밀칼국수,음식점,인천광역시 옹진군 영흥면 선재로 39,37.23315187,126.5333638,,,,,인천 옹진군 영흥면 선재로 39
소울림(林) 국밥 왕족발 보쌈,음식점,인천광역시 미추홀구 인주대로237번길 27 (용현동),37.45458701,126.6641934,,,,,인천 미추홀구 인주대로237번길 27
일억조식당,음식점,인천광역시 강화군 강화읍 동문안길21번길 17,37.74759428,126.4851754,,,,,인천 강화군 강화읍 동문안길21번길 17
일월아구쭈꾸미,음식점,인천광역시 동구 수문통로 4 (송현동),37.47710792,126.6319647,,,,,인천 동구 수문통로 4
2층 다복집,음식점,인천광역시 중구 연안부두로 16 (항동7가),37.45656833,126.6035834,,,,,인천 중구 연안부두로 16
장흥삼합,음식점,인천광역시 남동구 문화서로4번길 61-13 (구월동),37.44513614,126.6983057,,,,,인천 남동구 문화서로4번길 61-13
가마솥손두부,음식점,인천광역시 미추홀구 소성로326번길 4 (문학동),37.43738389,126.6832391,,,,,인천 미추홀구 소성로326번길 4
전라도 삼합,음식점,인천광역시 연수구 대암로 46 (옥련동),37.41796626,126.6543661,,,,,인천 연수구 대암로 46
전복촌,음식점,인천광역시 남동구 예술로204번길 35 (구월동),37.45238876,126.7035486,,,,,인천 남동구 예술로204번길 35
가정옥,음식점,인천광역시 서구 가정로352번길 3 (가정동),37.51628109,126.6733385,,,,,인천 서구 가정로352번길 3
장군보쌈,음식점,인천광역시 계양구 도두리로6번길 10 (작전동),37.53313612,126.734571,,,,,인천 계양구 도두리로6번길 10
장수가든,음식점,인천광역시 남동구 수현로14번길 13-7 (장수동),37.46399308,126.7505709,,,,,인천 남동구 수현로14번길 13-7
장원토종마을(장원식당),음식점,인천광역시 옹진군 영흥면 영흥로 471,37.25426484,126.4637799,,,,,인천 옹진군 영흥면 영흥로 471
자연쌈밥&미역국,음식점,인천광역시 서구 대평로7번길 4 (심곡동),37.54688992,126.6760071,,,,,인천 서구 대평로7번길 4
전주돌솥밥,음식점,인천광역시 계양구 오조산로45번길 11-1 (계산동),37.53465465,126.7371417,,,,,인천 계양구 오조산로45번길 11-1
정자담한정식,음식점,인천광역시 남동구 소래역남로 10 (논현동),37.39760612,126.7354632,,,,,인천 남동구 소래역남로 10
제주솥뚜껑삼겹살,음식점,인천광역시 중구 신포로31번길 6 (관동3가),37.47199418,126.6251149,,,,,인천 중구 신포로31번길 6
조박사한우마을,음식점,인천광역시 미추홀구 봉수대로 17 (도화동),37.47989102,126.6535634,,,,,인천 미추홀구 봉수대로 17
조선화로집 삼산사거리점,음식점,인천광역시 부평구 평천로 382 (삼산동),37.51731289,126.732668,,,,,인천 부평구 평천로 382
백년식당서서갈비,음식점,,37.43779842,126.6883476,,,,,인천 미추홀구 소성로 381
강화해신탕,음식점,인천광역시 강화군 선원면 중앙로 385,37.71607665,126.4710663,,,,,인천 강화군 선원면 중앙로 385
남원추어탕,음식점,인천광역시 미추홀구 소성로256번길 5 (학익동),37.43781801,126.6758333,,,,,인천 미추홀구 소성로256번길 5
동춘사골순대국 구월점,음식점,인천광역시 남동구 복개서로97번길 15 (구월동),37.45521672,126.7216508,,,,,인천 남동구 복개서로97번길 15
두루치기 앤 숯불장어,음식점,인천광역시 미추홀구 매소홀로 372 (학익동),37.44014984,126.6631731,,,,,인천 미추홀구 매소홀로 372
뜰안에 정원,음식점,인천광역시 강화군 삼산면 삼산남로 827,37.68543363,126.3171352,,,,,인천 강화군 삼산면 삼산남로 827
라즈 인천공항,음식점,인천광역시 중구 공항로424번길 72 (운서동),37.43883004,126.4628883,,,,,인천 중구 공항로424번길 72
레인보우 차이홍,음식점,인천광역시 연수구 센트럴로 123 (송도동),37.3881431,126.6455531,,,,,인천 연수구 센트럴로 123
만미가셀프장어구이,음식점,인천광역시 서구 백범로622번길 20 (가좌동),37.47857242,126.6879096,,,,,인천 서구 백범로622번길 20
명품관,음식점,인천광역시 중구 신도시남로141번길 13-5 (운서동),37.49344299,126.4890595,,,,,인천 중구 신도시남로141번길 13-5
모심갈비,음식점,인천광역시 남동구 용천로97번길 3 (구월동),37.45801656,126.7146015,,,,,인천 남동구 용천로97번길 3
문차이나,음식점,인천광역시 중구 차이나타운로 20 (북성동2가),37.47756091,126.6191008,,,,,인천 중구 차이나타운로 20
밀채바지락칼국수,음식점,인천광역시 부평구 경원대로1232번길 2 (산곡동),37.48668625,126.7081821,,,,,인천 부평구 경원대로1232번길 2
바다세상,음식점,인천광역시 강화군 삼산면 삼산남로 865,37.68685347,126.3134305,,,,,인천 강화군 삼산면 삼산남로 865
바다식당,음식점,인천광역시 옹진군 북도면 신도로 248,37.52795346,126.4364196,,,,,인천 옹진군 북도면 신도로 248
바베큐광장,음식점,인천광역시 연수구 청량로 55 (동춘동),37.41377602,126.6589017,,,,,인천 연수구 청량로 55
밥도둑꽃게,음식점,인천광역시 부평구 경원대로1367번길 42-12 (부평동),37.4931962,126.7213606,,,,,인천 부평구 경원대로1367번길 42-12
범호고향밥상,음식점,인천광역시 강화군 화도면 마니산로675번길 17,37.63284637,126.4243791,,,,,인천 강화군 화도면 마니산로675번길 17
별미정숯불장어,음식점,인천광역시 강화군 선원면 더리미길 10,37.72293602,126.5122456,,,,,인천 강화군 선원면 더리미길 10
가조,음식점,인천광역시 중구 신포로46번길 25 (내동),37.47249185,126.6275507,,,,,인천 중구 신포로46번길 25
보릿골계산점,음식점,인천광역시 계양구 장제로 799 (계산동),37.53929552,126.7342066,,,,,인천 계양구 장제로 799
본래순대 인천송림점,음식점,인천광역시 동구 동산로 70 (송림동),37.47386349,126.6466939,,,,,인천 동구 동산로 70
부뚜막애순두부 학익점,음식점,인천광역시 미추홀구 매소홀로427번길 3 (학익동),37.44010027,126.6694254,,,,,인천 미추홀구 매소홀로427번길 3
숯불 갈비가,음식점,인천광역시 부평구 부평대로 301 (청천동),37.5187406,126.7208602,,,,,인천 부평구 부평대로 301
부영선지국,음식점,인천광역시 미추홀구 장천로14번길 20 (숭의동),37.45856996,126.6473173,,,,,인천 미추홀구 장천로14번길 20
부평직화구이쌈밥,음식점,인천광역시 부평구 부평대로 90 (부평동),37.49955599,126.7224547,,,,,인천 부평구 부평대로 90
빕스 계산점,음식점,인천광역시 계양구 장제로 807 (계산동),37.5400608,126.7343538,,,,,인천 계양구 장제로 807
강선생의 냉면 막국수,음식점,인천광역시 서구 담지로86번길 5-41 (청라동),37.53789963,126.6622229,,,,,인천 서구 담지로86번길 5-41
사곶냉면,음식점,인천광역시 옹진군 백령면 사곶로122번길 54-19,37.95394938,124.7166554,,,,,인천 옹진군 백령면 사곶로122번길 54-19
강화갯벌장어직판장,음식점,인천광역시 강화군 내가면 중앙로 1278,37.70312656,126.3825007,,,,,인천 강화군 내가면 중앙로 1278
강화섬보리밥,음식점,인천광역시 강화군 선원면 시리미로 146,37.72699793,126.4637068,,,,,인천 강화군 선원면 시리미로 146
삼능참숯한우,음식점,인천광역시 부평구 부영로 10 (부평동),37.48627804,126.7178403,,,,,인천 부평구 부영로 10
갯마을갯뻘낙지,음식점,인천광역시 연수구 벚꽃로158번길 38 (연수동),37.41404581,126.680922,,,,,인천 연수구 벚꽃로158번길 38
삼삼구이,음식점,인천광역시 옹진군 백령면 백령로 322,37.97342381,124.7134627,,,,,인천 옹진군 백령면 백령로 322
거궁 부평점,음식점,인천광역시 부평구 아트센터로 166 (십정동),37.4822383,126.7049334,,,,,인천 부평구 아트센터로 166
새우물식당,음식점,인천광역시 미추홀구 미추로19번길 14 (숭의동),37.46182564,126.6466187,,,,,인천 미추홀구 미추로19번길 14
스이또스이또,음식점,"인천광역시 연수구 해돋이로 107 (송도동, 송도 더샵 퍼스트월드)",37.39123818,126.647845,,,,,인천광역시 연수구 해돋이로 107
해운정양식장,음식점,인천광역시 강화군 양도면 해안서로 331,37.6639689,126.408176,,,,,인천광역시 강화군 양도면 해안서로 331
송림기사식당,음식점,인천광역시 동구 새천년로 28 (송림동),37.4710456,126.6496537,,,,,인천광역시 동구 새천년로 28
나룻터 꽃게집,음식점,인천광역시 강화군 내가면 중앙로 1270,37.70361106,126.3834243,,,,,인천광역시 강화군 내가면 중앙로 1270
불티나조개구이,음식점,인천광역시 중구 마시란로 241 (덕교동),37.43927281,126.4065268,,,,,인천광역시 중구 마시란로 241
섬마을다리집,음식점,인천광역시 옹진군 북도면 신도로 254,37.52839908,126.4365827,,,,,인천광역시 옹진군 북도면 신도로 254
한판떠조개구이,음식점,,37.44674952,126.3952081,,,,,인천광역시 중구 을왕동 179-330
경복궁 가좌점,음식점,인천광역시 서구 원적로 132 (가좌동),37.49697814,126.6853943,,,,,인천 서구 원적로 132
선창집 장어구이,음식점,인천광역시 강화군 선원면 해안동로 1199,37.72183182,126.5132756,,,,,인천 강화군 선원면 해안동로 1199
섬사랑굴사랑,음식점,인천광역시 옹진군 북도면 모도로50번길 10,37.53577498,126.4131016,,,,,인천 옹진군 북도면 모도로50번길 10
솔향기,음식점,인천광역시 강화군 하점면 장정양오길 147,37.78314208,126.4352115,,,,,인천 강화군 하점면 장정양오길 147
경복궁 계산점,음식점,인천광역시 계양구 도두리로 31-1 (계산동),37.53438341,126.7377305,,,,,인천 계양구 도두리로 31-1
송도갈매기,음식점,인천광역시 연수구 능허대로151번길 25 (옥련동),37.4216712,126.646918,,,,,인천 연수구 능허대로151번길 25
경복궁 구월점,음식점,인천광역시 남동구 인주대로 593 (구월동),37.45035646,126.7028739,,,,,인천 남동구 인주대로 593
송도갈매기 주안점,음식점,인천광역시 미추홀구 구월로 23 (주안동),37.45789582,126.692997,,,,,인천 미추홀구 구월로 23
송도골,음식점,인천광역시 미추홀구 능해길46번길 4 (용현동),37.45865118,126.6398051,,,,,인천 미추홀구 능해길46번길 4
경복궁 부평점,음식점,인천광역시 부평구 길주로 643 (삼산동),37.50722106,126.7341955,,,,,인천 부평구 길주로 643
송돗골,음식점,인천광역시 연수구 앵고개로103번길 15 (동춘동),37.41365256,126.6575872,,,,,인천 연수구 앵고개로103번길 15
송림가든,음식점,인천광역시 옹진군 덕적면 덕적남로 626-3,37.2248091,126.1158303,,,,,인천 옹진군 덕적면 덕적남로 626-3
경복궁불고기 계산점,음식점,인천광역시 계양구 오조산로 17 (작전동),37.53236977,126.7379753,,,,,인천 계양구 오조산로 17
송쭈집,음식점,"인천광역시 연수구 컨벤시아대로 126 (송도동, 푸르지오월드마크)",37.39297918,126.6456889,,,,,인천 연수구 컨벤시아대로 126
경복궁불고기 송도점,음식점,인천광역시 연수구 청량로79번길 21 (동춘동),37.41453143,126.6579673,,,,,인천 연수구 청량로79번길 21
수밀원,음식점,인천광역시 연수구 능허대로 231 (옥련동),37.41566441,126.6518692,,,,,인천 연수구 능허대로 231
숙성명작,음식점,인천광역시 서구 담지로8번길 14 (청라동),37.53080233,126.661164,,,,,인천 서구 담지로8번길 14
스와갓인디아 레스토랑,음식점,인천광역시 연수구 하모니로 124 (송도동),37.38566162,126.6451666,,,,,인천 연수구 하모니로 124
경복궁삼계탕 삼산점,음식점,인천광역시 부평구 평천로 553 (삼산동),37.5165666,126.7522151,,,,,인천 부평구 평천로 553
시골쌈밥,음식점,인천광역시 중구 우현로35번길 8 (신포동),37.47062043,126.6268832,,,,,인천 중구 우현로35번길 8
시옌,음식점,인천광역시 남동구 인주대로 560 (구월동),37.44983185,126.6990837,,,,,인천 남동구 인주대로 560
경복궁 송도본점,음식점,인천광역시 연수구 청량로 120 (옥련동),37.41813539,126.6549555,,,,,인천 연수구 청량로 120
식객,음식점,인천광역시 옹진군 북도면 장봉로537번길 10,37.53246873,126.3380774,,,,,인천 옹진군 북도면 장봉로537번길 10
경복궁 송림점,음식점,인천광역시 서구 백범로 884 (가좌동),37.48598005,126.6601883,,,,,인천 서구 백범로 884
신도전망대회집,음식점,인천광역시 옹진군 북도면 신도로 183,37.52470222,126.4323711,,,,,인천 옹진군 북도면 신도로 183
내일더사랑해,음식점,인천광역시 남동구 선수촌공원로23번길 6-17 (구월동),37.44195559,126.7093657,,,,,인천광역시 남동구 선수촌공원로23번길 6-17
스시사쿠 송도점,음식점,인천광역시 연수구 송도과학로16번길 13-18 (송도동),37.38108403,126.6608218,,,,,인천광역시 연수구 송도과학로16번길 13-18
툴롱(toulon),음식점,인천광역시 연수구 인천타워대로132번길 30 (송도동),37.38604148,126.6435733,,,,,인천광역시 연수구 인천타워대로132번길 30
[백년가게]돈비어천가,음식점,인천광역시 중구 개항로 53-1 (내동),37.47263949,126.6285945,,,,,인천광역시 중구 개항로 53-1
하늘가든하늘장,음식점,인천광역시 옹진군 영흥면 영흥로251번길 24,37.2577647,126.4848135,,,,,인천광역시 옹진군 영흥면 영흥로251번길 24
큰나루밴댕이회무침,음식점,인천광역시 남동구 문화서로4번길 61-23 (구월동),37.44569941,126.6983666,,,,,인천광역시 남동구 문화서로4번길 61-23
부암갈비,음식점,인천광역시 남동구 용천로 149 (간석동),37.46308934,126.7143258,,,,,인천광역시 남동구 용천로 149
무의도데침쌈밥,음식점,인천광역시 중구 대무의로 309-15 (무의동),37.38915121,126.4265235,,,,,인천광역시 중구 대무의로 309-15
어부의집,음식점,인천광역시 중구 남북로142번길 2 (남북동),37.44917462,126.4172727,,,,,인천광역시 중구 남북로142번길 2
이레식당슈퍼,음식점,인천광역시 옹진군 자월면 대이작로70번길 3-15,37.17667845,126.2544617,,,,,인천광역시 옹진군 자월면 대이작로70번길 3-15
한자리한턱,음식점,인천광역시 강화군 화도면 해안남로 1046,37.619064,126.4639471,,,,,인천광역시 강화군 화도면 해안남로 1046
자미궁 제빵소,음식점,인천광역시 서구 원당대로819번길 38 (원당동),37.59593743,126.69441,,,,,인천광역시 서구 원당대로819번길 38
태화원,음식점,인천광역시 중구 차이나타운로59번길 10 (선린동),37.47407526,126.6185731,,,,,인천광역시 중구 차이나타운로59번길 10
신포닭강정,음식점,인천광역시 중구 우현로49번길 3 (신포동),37.47165904,126.628239,,,,,인천광역시 중구 우현로49번길 3
신바람볶음닭,음식점,인천광역시 미추홀구 한나루로 464 (주안동),37.44837577,126.6679409,,,,,인천 미추홀구 한나루로 464
경복궁 불고기 학익점,음식점,인천광역시 미추홀구 매소홀로 378 (학익동),37.43988652,126.6638227,,,,,인천 미추홀구 매소홀로 378
신선설농탕 부평점,음식점,인천광역시 부평구 장제로 206 (부평동),37.50376863,126.7313012,,,,,인천 부평구 장제로 206
계양칼국수,음식점,인천광역시 계양구 살라리로2번길 15 (서운동),37.53574779,126.7445531,,,,,인천 계양구 살라리로2번길 15
아바이왕순대,음식점,인천광역시 연수구 청명로3번길 11 (청학동),37.41666918,126.6735209,,,,,인천 연수구 청명로3번길 11
곤드레애찬,음식점,인천광역시 미추홀구 매소홀로 407 (학익동),37.44021904,126.6672471,,,,,인천 미추홀구 매소홀로 407
아우라지 계산점,음식점,인천광역시 계양구 장제로 799 (계산동),37.53929552,126.7342066,,,,,인천 계양구 장제로 799
구봉산,음식점,인천광역시 남동구 독점로3번길 38-8 (구월동),37.45050577,126.7087064,,,,,인천 남동구 독점로3번길 38-8
아우라지 삼산점,음식점,인천광역시 부평구 장제로 346 (삼산동),37.51640561,126.7326019,,,,,인천 부평구 장제로 346
국화호수,음식점,인천광역시 강화군 강화읍 강화대로440번길 5,37.74816363,126.4827979,,,,,인천 강화군 강화읍 강화대로440번길 5
안다미로,음식점,인천광역시 강화군 강화읍 강화대로430번길 2-1,37.74774064,126.4839704,,,,,인천 강화군 강화읍 강화대로430번길 2-1
굴축제,음식점,인천광역시 계양구 오조산로45번길 12 (계산동),37.53525948,126.7372605,,,,,인천 계양구 오조산로45번길 12
애슐리퀸즈뉴코아인천점,음식점,인천광역시 남동구 인하로 485 (구월동),37.44401577,126.7006916,,,,,인천 남동구 인하로 485
애슐리 인하점,음식점,인천광역시 미추홀구 소성로 6 (학익동),37.44706744,126.6508493,,,,,인천 미추홀구 소성로 6
궁불고기,음식점,인천광역시 부평구 영성중로15번길 24 (삼산동),37.51821692,126.7429639,,,,,인천 부평구 영성중로15번길 24
궁중삼계탕,음식점,인천광역시 미추홀구 학익소로63번길 23 (학익동),37.44174169,126.6718029,,,,,인천 미추홀구 학익소로63번길 23
양원,음식점,인천광역시 서구 보석로12번안길 28 (청라동),37.52076853,126.6271275,,,,,인천 서구 보석로12번안길 28
권오길손국수 본점,음식점,인천광역시 서구 검단로 789 (불로동),37.61542115,126.6866345,,,,,인천 서구 검단로 789
어부횟집,음식점,인천광역시 서구 검단로 467 (왕길동),37.60182971,126.6562807,,,,,인천 서구 검단로 467
그램그램 부평점,음식점,인천광역시 부평구 부흥로 371 (부평동),37.49818609,126.7332034,,,,,인천 부평구 부흥로 371
금강산추어탕,음식점,인천광역시 서구 탁옥로51번길 13-8 (심곡동),37.54539727,126.6744482,,,,,인천 서구 탁옥로51번길 13-8
북창동순두부 구월로데오점,음식점,인천광역시 남동구 성말로13번길 15 (구월동),37.44626295,126.7017867,,,,,인천 남동구 성말로13번길 15
김재국만두전문점,음식점,인천광역시 계양구 주부토로 530 (계산동),37.54138194,126.7284946,,,,,인천 계양구 주부토로 530
까사올리브,음식점,인천광역시 미추홀구 인하로47번길 5 (용현동),37.45222912,126.6541501,,,,,인천 미추홀구 인하로47번길 5
예전,음식점,인천광역시 중구 월미문화로 43-2 (북성동1가),37.47439518,126.5976382,,,,,인천 중구 월미문화로 43-2
꾸지뽕 삼계탕,음식점,인천광역시 중구 우현로90번길 7 (인현동),37.47424331,126.6309954,,,,,인천 중구 우현로90번길 7
낙지한마당,음식점,인천광역시 서구 서곶로315번길 14 (심곡동),37.54598224,126.6752791,,,,,인천 서구 서곶로315번길 14
옛골남원추어탕,음식점,인천광역시 연수구 먼우금로 190 (연수동),37.41405348,126.6767147,,,,,인천 연수구 먼우금로 190
남대감꽃게아구전문점,음식점,인천광역시 부평구 마장로 243 (산곡동),37.49978464,126.7023853,,,,,인천 부평구 마장로 243
남촌칼국수,음식점,인천광역시 남동구 장도로 67 (논현동),37.39969676,126.7379752,,,,,인천 남동구 장도로 67
단해 삼겹살,음식점,인천광역시 중구 영종대로 120 (운서동),37.49482018,126.4926583,,,,,인천 중구 영종대로 120
옛방망이칼국수,음식점,인천광역시 계양구 계산새로 93 (용종동),37.5381622,126.738505,,,,,인천 계양구 계산새로 93
오구당당 부평본점,음식점,인천광역시 부평구 경원대로1377번길 47 (부평동),37.49350512,126.7220347,,,,,인천 부평구 경원대로1377번길 47
오리한마리,음식점,인천광역시 동구 송화로 7 (화평동),37.47805342,126.631121,,,,,인천 동구 송화로 7
온세미 자연그대로 본점,음식점,인천광역시 부평구 부흥로 264 (부평동),37.49832885,126.7210517,,,,,인천 부평구 부흥로 264
와! 참치다,음식점,인천광역시 부평구 백범로468번길 41-1 (십정동),37.47041364,126.7003397,,,,,인천 부평구 백범로468번길 41-1
완산골명가부평점,음식점,인천광역시 부평구 부흥로 264 (부평동),37.49832885,126.7210517,,,,,인천 부평구 부흥로 264
외내골가든,음식점,인천광역시 강화군 내가면 강화서로 289,37.72222915,126.3863452,,,,,인천 강화군 내가면 강화서로 289
외포리꽃게집,음식점,인천광역시 강화군 내가면 중앙로 1206,37.70488497,126.3903979,,,,,인천 강화군 내가면 중앙로 1206
우담,음식점,인천광역시 남동구 성말로35번길 4 (구월동),37.44532213,126.7049156,,,,,인천 남동구 성말로35번길 4
우리해물탕,음식점,인천광역시 남동구 담방로48번길 3 (만수동),37.44401086,126.7391534,,,,,인천 남동구 담방로48번길 3
우미가든,음식점,인천광역시 남동구 남동대로916번길 54 (간석동),37.46359454,126.7112684,,,,,인천 남동구 남동대로916번길 54
용마루,음식점,인천광역시 부평구 원길로 28 (청천동),37.5060961,126.7148132,,,,,인천 부평구 원길로 28
토방식당,음식점,인천광역시 남동구 장승남로47번길 32-4 (만수동),37.44487354,126.737752,,,,,인천 남동구 장승남로47번길 32-4
팔도야생별미,음식점,"인천광역시 계양구 길마로 104 (효성동, 삼성하이츠맨션)",37.53364688,126.7171365,,,,,인천 계양구 길마로 104
풍미,음식점,인천광역시 중구 차이나타운로 56 (선린동),37.47474851,126.6184036,,,,,인천 중구 차이나타운로 56
풍전식당,음식점,인천광역시 미추홀구 제일로 41 (도화동),37.45904024,126.6747903,,,,,인천 미추홀구 제일로 41
하늘가든,음식점,인천광역시 옹진군 영흥면 영흥로251번길 24,37.25775198,126.4848158,,,,,인천 옹진군 영흥면 영흥로251번길 24
함흥관,음식점,인천광역시 미추홀구 인중로 1 (숭의동),37.46203071,126.6422756,,,,,인천 미추홀구 인중로 1
해랑,음식점,"인천광역시 연수구 컨벤시아대로 80 (송도동, 인천송도힐스테이트)",37.39606876,126.6490383,,,,,인천 연수구 컨벤시아대로 80
해바라기 정육식당,음식점,인천광역시 미추홀구 주안로 77 (주안동),37.46436041,126.6782761,,,,,인천 미추홀구 주안로 77
해안도시,음식점,인천광역시 강화군 길상면 해안남로 152,37.61486081,126.5340222,,,,,인천 강화군 길상면 해안남로 152
용흥궁식당,음식점,인천광역시 강화군 강화읍 동문안길21번길 22,37.74784466,126.4848881,,,,,인천 강화군 강화읍 동문안길21번길 22
해장국집,음식점,인천광역시 동구 동산로87번길 6 (송림동),37.47509533,126.6449431,,,,,인천 동구 동산로87번길 6
해조톳오리,음식점,인천광역시 부평구 동수로 107 (부평동),37.48533388,126.7306186,,,,,인천 부평구 동수로 107
해촌,음식점,인천광역시 계양구 용마루길 8 (용종동),37.54246873,126.7429938,,,,,인천 계양구 용마루길 8
향원,음식점,인천광역시 중구 신포로15번길 6-1 (중앙동4가),37.47082734,126.624024,,,,,인천 중구 신포로15번길 6-1
황금게장,음식점,인천광역시 미추홀구 석바위로 49 (주안동),37.46091675,126.6786353,,,,,인천 미추홀구 석바위로 49
황성얼큰오징어찌개,음식점,인천광역시 미추홀구 아암대로107번길 13 (용현동),37.45223271,126.6330509,,,,,인천 미추홀구 아암대로107번길 13
화톳불양대창,음식점,인천광역시 연수구 청량로109번길 1 (옥련동),37.41725195,126.6553047,,,,,인천광역시 연수구 청량로109번길 1
웅이네오돌뼈 연수점,음식점,인천광역시 연수구 청명로17번길 21 (청학동),37.41826607,126.6746334,,,,,인천광역시 연수구 청명로17번길 21
송도 비스트로,음식점,"인천광역시 연수구 컨벤시아대로 60 (송도동, 푸르지오월드마크)",37.39709588,126.6509889,,,,,인천광역시 연수구 컨벤시아대로 60 푸르지오월드마크
모꼬지,음식점,,37.4481102,126.6959057,,,,,인천광역시 남동구  인주대로522번길 (61)
대연,음식점,인천광역시 미추홀구 주안로 190 (주안동),37.46332501,126.690789,,,,,인천광역시 미추홀구 주안로 190
십리향,음식점,인천광역시 중구 차이나타운로 50-2 (북성동2가),37.47514458,126.6187953,,,,,인천광역시 중구 차이나타운로 50-2
이당비스트로,음식점,인천광역시 남동구 배려터로 9 (수산동),37.43627317,126.7235618,,,,,인천광역시 남동구 배려터로 9
얼레꼴레만두,음식점,인천광역시 미추홀구 한나루로 420 (학익동),37.4447184,126.6659974,,,,,인천광역시 미추홀구 한나루로 420
공화춘,음식점,인천광역시 중구 차이나타운로 43 (북성동3가),37.47545845,126.6195896,,,,,인천광역시 중구 차이나타운로 43
유천가든,음식점,인천광역시 서구 아라로51번길 6-1 (시천동),37.57269268,126.6815507,,,,,인천광역시 서구 아라로51번길 6-1
가덕도횟집,음식점,인천광역시 중구 연안부두로 61 (항동7가),37.45348843,126.5998643,,,,,인천광역시 중구 연안부두로 61
우리밀손칼국수,음식점,인천광역시 중구 용유로21번길 37 (덕교동),37.42887153,126.4232588,,,,,인천광역시 중구 용유로21번길 37
황성얼큰오징어찌개,음식점,인천광역시 미추홀구 아암대로107번길 13 (용현동),37.45226138,126.6330696,,,,,인천광역시 미추홀구 아암대로107번길 13
용궁횟집,음식점,인천광역시 강화군 화도면 해안남로 2805,37.63956304,126.3873174,,,,,인천광역시 강화군 화도면 해안남로 2805
중화루,음식점,인천광역시 중구 홍예문로 12 (중앙동4가),37.47183395,126.6240727,,,,,인천광역시 중구 홍예문로 12
가리비칼국수,음식점,인천광역시 남동구 오봉동로4번길 9 (도림동),37.41680055,126.7298895,,,,,인천광역시 남동구 오봉동로4번길 9
양원,음식점,인천광역시 서구 보석로12번안길 28 (청라동),37.52082275,126.6271405,,,,,인천광역시 서구 보석로12번안길 28 (청라동)
훈장골,음식점,인천광역시 중구 신도시남로 28 (운서동),37.49273,126.4845098,,,,,인천 중구 신도시남로 28
흑산도홍탁,음식점,인천광역시 남동구 장승남로47번길 32-16 (만수동),37.44491818,126.7383813,,,,,인천 남동구 장승남로47번길 32-16
흥남면옥,음식점,,37.4642863,126.7128088,,,,,인천 남동구 백범로 337-1
희래등,음식점,인천광역시 서구 탁옥로86번길 6-1 (심곡동),37.54312037,126.6789235,,,,,인천 서구 탁옥로86번길 6-1
곤드레밥집(연수구),음식점,인천광역시 연수구 청량로 89 (동춘동),37.41618821,126.656524,,,,,인천광역시 연수구 청량로 89
우판등심,음식점,인천광역시 연수구 청량로 61 (동춘동),37.41406397,126.6585555,,,,,인천 연수구 청량로 61
우향,음식점,인천광역시 계양구 용마루4길 7 (용종동),37.54326424,126.7436665,,,,,인천 계양구 용마루4길 7
원할머니보쌈 계산점,음식점,인천광역시 계양구 계양문화로 55 (계산동),37.5357786,126.7363126,,,,,인천 계양구 계양문화로 55
육교추어탕,음식점,인천광역시 남동구 수인로 3548 (운연동),37.44354495,126.7656959,,,,,인천 남동구 수인로 3548
윤가네통갈비,음식점,인천광역시 계양구 어사대로 7 (계산동),37.54264633,126.7247688,,,,,인천 계양구 어사대로 7
이바돔감자탕조선화로집 소래시티점,음식점,인천광역시 남동구 소래역남로16번길 8-7 (논현동),37.39803938,126.7356073,,,,,인천 남동구 소래역남로16번길 8-7
이학갈비,음식점,인천광역시 연수구 먼우금로 208 (연수동),37.4158224,126.6773903,,,,,인천 연수구 먼우금로 208
이계종이복집,음식점,인천광역시 서구 가정로 168 (석남동),37.49968921,126.6722855,,,,,인천 서구 가정로 168
인천그랜드CC클럽하우스,음식점,인천광역시 서구 원석로 195 (원창동),37.51375874,126.6411723,,,,,인천 서구 원석로 195
신태진,음식점,인천광역시 서구 도요지로 37 (경서동),37.56282389,126.6598248,,,,,인천 서구 도요지로 37
주안청주보쌈,음식점,인천광역시 미추홀구 주안중로50번길 27-7 (주안동),37.46312041,126.6842409,,,,,인천 미추홀구 주안중로50번길 27-7
중국성 (中國城),음식점,인천광역시 중구 차이나타운로 53 (선린동),37.47482125,126.6188028,,,,,인천 중구 차이나타운로 53
중앙갈비,음식점,인천광역시 중구 신포로35번길 7 (관동3가),37.47213046,126.6251866,,,,,인천 중구 신포로35번길 7
중화원 (中華苑),음식점,인천광역시 중구 차이나타운로44번길 20 (북성동2가),37.47571047,126.6183626,,,,,인천 중구 차이나타운로44번길 20
거해짬뽕순두부 (덕교동),음식점,인천광역시 중구 마시란로 215 (덕교동),37.43848684,126.4094293,,,,,인천광역시 중구 마시란로 215
찬우정,음식점,인천광역시 강화군 선원면 중앙로 322,37.71998506,126.4754107,,,,,인천 강화군 선원면 중앙로 322
천공루,음식점,인천광역시 부평구 주부토로 5-14 (부평동),37.49684201,126.7233465,,,,,인천 부평구 주부토로 5-14
스트롱파이어,음식점,인천광역시 강화군 강화읍 강화대로368번길 6,37.74416099,126.4899885,,,,,인천광역시 강화군 강화읍 강화대로368번길 6