name,category,address,lat,lng,benefitValue,discountPercent,benefit_source_url,benefit_note,address_enriched
정다방,카페,인천광역시 미추홀구 주안동 1329-17,37.44794281,126.6768383,,,,,인천광역시 미추홀구 인하로 260-6
동심다방,카페,인천광역시 미추홀구 숭의동 421-12,37.46286643,126.6411874,,,,,
밀다방,카페,인천광역시 미추홀구 주안동 201,37.46051478,126.6768725,,,,,인천광역시 미추홀구 석바위로 36
삼거리다방,카페,인천광역시 미추홀구 숭의동 129-77,37.46601943,126.6490544,,,,,인천광역시 미추홀구 참외전로 316 (숭의동)
영다방,카페,인천광역시 미추홀구 숭의동 285-4,37.46017699,126.6527019,,,,,인천광역시 미추홀구 독정이로 49 (숭의동)
밀월다방,카페,인천광역시 미추홀구 숭의동 173-1,37.46502181,126.6502628,,,,,인천광역시 미추홀구 경인로 66 (숭의동)
봉봉다방,카페,인천광역시 미추홀구 주안동 434-2,37.45812499,126.6823082,,,,,인천광역시 미추홀구 경인로 382 (주안동)
뷰커피숍,카페,인천광역시 미추홀구 주안동 186-14,37.45885669,126.6804003,,,,,"인천광역시 미추홀구 미추홀대로 690, 지하1층 (주안동)"
우봉다방,카페,인천광역시 미추홀구 주안동 201-14,37.46057827,126.6774564,,,,,인천광역시 미추홀구 석바위로 40-2 (주안동)
지성다방,카페,인천광역시 미추홀구 주안동 14-5,37.46729425,126.6774732,,,,,인천광역시 미추홀구 석정로 377 (주안동)
우림다방,카페,인천광역시 미추홀구 주안동 18-69,37.46837436,126.684544,,,,,인천광역시 미추홀구 석정로433번길 41 (주안동)
주란다방,카페,인천광역시 미추홀구 용현동 206-1,37.45381932,126.6487782,,,,,인천광역시 미추홀구 독배로 382 (용현동)
신동일다방,카페,인천광역시 미추홀구 숭의동 162-13,37.46268382,126.64352,,,,,인천광역시 미추홀구 경인로 1 (숭의동)
새행복다방,카페,인천광역시 미추홀구 용현동 150-1,37.45473025,126.6589938,,,,,인천광역시 미추홀구 인주대로 200 (용현동)
보석다방,카페,"인천광역시 미추홀구 주안동 956-1 ,13,14 ",37.45843328,126.6898253,,,,,"인천광역시 미추홀구 경원대로 848 (주안동,,13,14)"
신상록수다방,카페,인천광역시 미추홀구 주안동 1556-14,37.45460033,126.6919719,,,,,인천광역시 미추홀구 구월남로 20 (주안동)
그다방,카페,인천광역시 미추홀구 주안동 719-10,37.45229114,126.6698185,,,,,"인천광역시 미추홀구 인주대로 299, 지하1층 (주안동)"
약속다방,카페,인천광역시 미추홀구 주안동 22-49,37.46605653,126.686341,,,,,"인천광역시 미추홀구 석정로456번길 3, 지하1층 (주안동)"
향록수다방,카페,인천광역시 미추홀구 주안동 1588-11,37.45886228,126.6927674,,,,,인천광역시 미추홀구 경인로 476 (주안동)
경기다방,카페,인천광역시 미추홀구 주안동 801-6,37.45119197,126.6675591,,,,,인천광역시 미추홀구 한나루로 496-3 (주안동)
진주다방,카페,인천광역시 미추홀구 용현동 473-20,37.45775181,126.6490931,,,,,"인천광역시 미추홀구 독배로 429, 지하층 (용현동)"
강다방,카페,인천광역시 미추홀구 주안동 1499-26,37.44819365,126.6852843,,,,,"인천광역시 미추홀구 인하로 333, 지하1층 (주안동)"
수정다방,카페,인천광역시 미추홀구 학익동 4-15,37.4462884,126.6677171,,,,,"인천광역시 미추홀구 학익소로 5, 지하1층 (학익동)"
짝다방,카페,인천광역시 미추홀구 주안동 678-13,37.452819,126.6663713,,,,,"인천광역시 미추홀구 인주대로 267, 지하1층 (주안동)"
신성분식점,카페,인천광역시 미추홀구 주안동 169 5층507호,37.46057865,126.6822513,,,,,"인천광역시 미추홀구 주안중로 25 (주안동,5층507호)"
세븐일레븐 용현새한점,카페,인천광역시 미추홀구 용현동 181-17,37.45222835,126.6575699,,,,,인천광역시 미추홀구 인하로77번길 26 (용현동)
세종다방,카페,인천광역시 미추홀구 주안동 1493-6 (2층),37.44812436,126.6817524,,,,,"인천광역시 미추홀구 인하로 301-1 (주안동,(2층))"
화신다방,카페,인천광역시 미추홀구 용현동 611-38 지하1층,37.4524975,126.6383364,,,,,"인천광역시 미추홀구 낙섬중로 50 (용현동,지하1층)"
황금다방,카페,인천광역시 미추홀구 숭의동 161-17,37.46410577,126.6443491,,,,,인천광역시 미추홀구 석정로 52 (숭의동)
매화다방,카페,인천광역시 미추홀구 주안동 1327-12,37.44804894,126.6767036,,,,,인천광역시 미추홀구 신기길 1 (주안동)
주안명문점,카페,인천광역시 미추홀구 주안동 200-23,37.4603874,126.6774101,,,,,인천광역시 미추홀구 주안서로 19 (주안동)
경인휴게음식점,카페,인천광역시 미추홀구 주안동 1592-3,37.459278,126.6937389,,,,,인천광역시 미추홀구 경인로 486 (주안동)
GS25용현인하점,카페,인천광역시 미추홀구 용현동 49-22,37.44933791,126.6628643,,,,,인천광역시 미추홀구 인하로134번길 3 (용현동)
장미다방,카페,인천광역시 미추홀구 주안동 1483-14,37.44933791,126.6628643,,,,,인천광역시 미추홀구 인주대로 411 (주안동)
배스킨라빈스,카페,인천광역시 미추홀구 주안동 206-5,37.4607333,126.6799307,,,,,인천광역시 미추홀구 미추홀대로 709 (주안동)
롯데리아제물포점,카페,인천광역시 미추홀구 숭의동 59-13,37.46596911,126.6565531,,,,,인천광역시 미추홀구 경인로 124 (숭의동)
베스킨라빈스,카페,인천광역시 미추홀구 용현동 188-17,37.45157218,126.6573009,,,,,인천광역시 미추홀구 인하로77번길 12 (용현동)
롯데리아신기점,카페,인천광역시 미추홀구 주안동 1464-22,37.44824636,126.6799842,,,,,인천광역시 미추홀구 인하로 287 (주안동)
란다방,카페,인천광역시 미추홀구 문학동 385-18,37.43743653,126.6859158,,,,,인천광역시 미추홀구 소성로 347 (문학동)
피자나라 치킨공주,카페,인천광역시 미추홀구 주안동 1421-18,37.4505668,126.6730974,,,,,인천광역시 미추홀구 인주대로330번길 23 (주안동)
황금다방,카페,인천광역시 미추홀구 주안동 473-9,37.45706055,126.6798091,,,,,인천광역시 미추홀구 미추홀대로 667 (주안동)
엄지다방,카페,인천광역시 미추홀구 용현동 492-33,37.45768877,126.6542402,,,,,"인천광역시 미추홀구 독정이로 19, 2층 (용현동)"
씨유 인하대학교점,카페,인천광역시 미추홀구 용현동 191-1,37.45130398,126.6569373,,,,,인천광역시 미추홀구 인하로 77 (용현동)
길다방,카페,인천광역시 미추홀구 주안동 1526,37.44803535,126.6887262,,,,,인천광역시 미추홀구 인하로 364 (주안동)
역전다방,카페,인천광역시 미추홀구 숭의동 58-41,37.46549869,126.6561163,,,,,인천광역시 미추홀구 수봉로 8 (숭의동)
삼화다방,카페,인천광역시 미추홀구 도화동 104-1,37.46947259,126.6664616,,,,,인천광역시 미추홀구 장고개로16번길 4 (도화동)
영스넥,카페,인천광역시 미추홀구 용현동 617-109 1층104호,37.45097985,126.6379864,,,,,"인천광역시 미추홀구 낙섬중로32번길 14 (용현동,1층104호)"
송아지다방,카페,인천광역시 미추홀구 주안동 86-21,37.46056575,126.6828527,,,,,인천광역시 미추홀구 주안중로 24 (주안동)
정다방,카페,인천광역시 미추홀구 주안동 14-53,37.46716908,126.6792879,,,,,인천광역시 미추홀구 길파로 15 (주안동)
김밥나라,카페,"인천광역시 미추홀구 주안동 1419-6 ,15 ",37.44824443,126.6738069,,,,,"인천광역시 미추홀구 인하로 232 (주안동,,15)"
도미노피자용현점,카페,인천광역시 미추홀구 용현동 50-21,37.44970453,126.6629903,,,,,인천광역시 미추홀구 인하로133번길 4 (용현동)
하이루커피숍,카페,인천광역시 미추홀구 주안동 223-9 지하1,37.46233368,126.679367,,,,,"인천광역시 미추홀구 주안로90번길 36 (주안동,지하1)"
장안다방,카페,인천광역시 미추홀구 숭의동 164-1,37.46284761,126.6450121,,,,,인천광역시 미추홀구 경인로 16 (숭의동)
양다방,카페,인천광역시 미추홀구 주안동 956-8,37.45808332,126.6898571,,,,,"인천광역시 미추홀구 경인로 447-1, 2층 (주안동)"
보석다방,카페,인천광역시 미추홀구 숭의동 173-39 지하1,37.46406888,126.6507411,,,,,"인천광역시 미추홀구 독정이로 96 (숭의동,지하1)"
정원다방,카페,인천광역시 미추홀구 주안동 486-18 (지하1층),37.45391377,126.6796074,,,,,"인천광역시 미추홀구 미추홀대로 633 (주안동,(지하1층))"
킹콩라운지(KINGKONG LOUNGE),카페,"인천광역시 미추홀구 주안동 190-8 (지1층, 1층) ",37.45965343,126.6798251,,,,,"인천광역시 미추홀구 미추홀대로 697 (주안동,(지1층, 1층))"
호수다방,카페,인천광역시 미추홀구 주안동 300-1 지하1,37.45771415,126.6885451,,,,,"인천광역시 미추홀구 경인로 436 (주안동,지하1)"
왕다방,카페,인천광역시 미추홀구 주안동 736-19,37.44879215,126.6708473,,,,,"인천광역시 미추홀구 인하로 205, 지하층 (주안동)"
장미다방,카페,인천광역시 미추홀구 주안동 25-27,37.46685307,126.6783817,,,,,"인천광역시 미추홀구 석정로 386, 지하1층 (주안동)"
도미노피자주안점,카페,인천광역시 미추홀구 주안동 1485 탑클래시아 105호,37.45097623,126.6820511,,,,,"인천광역시 미추홀구 인주대로 410, 탑클래시아 1층 105호 (주안동)"
롯데리아학익점,카페,인천광역시 미추홀구 학익동 661-1,37.43934813,126.6736492,,,,,인천광역시 미추홀구 매소홀로 466 (학익동)
세븐일레븐(인천남구청점),카페,인천광역시 미추홀구 주안동 206-17,37.46069164,126.6790884,,,,,인천광역시 미추홀구 석바위로 54 (주안동)
롯데리아 주안고려점,카페,"인천광역시 미추홀구 주안동 228-2 (1,2층) ",37.46378778,126.6800519,,,,,"인천광역시 미추홀구 미추홀대로 743 (주안동,(1,2층))"
미래다방,카페,인천광역시 미추홀구 주안동 481-36 지하1층,37.45525739,126.67972,,,,,"인천광역시 미추홀구 미추홀대로 647 (주안동,지하1층)"
피자헛용현점,카페,인천광역시 미추홀구 용현동 459-67,37.45657344,126.6503582,,,,,인천광역시 미추홀구 인주대로 119 (용현동)
피자에땅,카페,인천광역시 미추홀구 용현동 92-29,37.45016699,126.6613105,,,,,인천광역시 미추홀구 인하로119번길 3 (용현동)
영다방,카페,"인천광역시 미추홀구 주안동 1341-51 ,지하1층 ",37.44741493,126.6778357,,,,,"인천광역시 미추홀구 인하로266번길 13 (주안동,,지하1층)"
롯데리아용현점,카페,인천광역시 미추홀구 용현동 617-28 1층,37.45180509,126.6378113,,,,,"인천광역시 미추홀구 낙섬중로 42, 1층 (용현동)"
쵸이커피숍,카페,인천광역시 미추홀구 학익동 660-11,37.44031731,126.6702577,,,,,"인천광역시 미추홀구 소성로 200, 지하1층 (학익동)"
스워트번스제물포점,카페,인천광역시 미추홀구 도화동 87-4,37.46714729,126.6577723,,,,,인천광역시 미추홀구 석정로202번길 12-5 (도화동)
감탄,카페,인천광역시 미추홀구 용현동 190-32 가동,37.45122598,126.6576309,,,,,"인천광역시 미추홀구 인하로 83, 가동 (용현동)"
코리아세븐1626호점,카페,인천광역시 미추홀구 문학동 380-1,37.43825665,126.686228,,,,,인천광역시 미추홀구 매소홀로 578 (문학동)
명랑핫도그 인하대점,카페,인천광역시 미추홀구 용현동 182-2,37.45186979,126.6575205,,,,,"인천광역시 미추홀구 인하로77번길 18, 1,2층 (용현동)"
팔십오도씨,카페,인천광역시 미추홀구 학익동 244-42,37.44178925,126.6695648,,,,,인천광역시 미추홀구 소성로185번길 16-7 (학익동)
피자얀,카페,인천광역시 미추홀구 숭의동 281-1,37.46027907,126.6498305,,,,,
코레일유통 연어로만앤샐러드,카페,인천광역시 미추홀구 주안동 125 주안역사내,37.46498257,126.6806038,,,,,인천광역시 미추홀구 주안로 95-19 (주안동)
(주)세븐일레븐(인천학익2호),카페,인천광역시 미추홀구 학익동 684-1,37.43978679,126.6650959,,,,,인천광역시 미추홀구 매소홀로 388 (학익동)
이삭토스트용현점,카페,인천광역시 미추홀구 용현동 627-522,37.4490532,126.6349918,,,,,인천광역시 미추홀구 낙섬중로 1 (용현동)
지붕덮밥,카페,인천광역시 미추홀구 용현동 81-12,37.44962589,126.6613244,,,,,인천광역시 미추홀구 인하로120번길 5 (용현동)
명성다방,카페,인천광역시 미추홀구 도화동 462-3,37.45861831,126.6724799,,,,,"인천광역시 미추홀구 한나루로 590, 지하1층 (도화동)"
순창닭집,카페,인천광역시 미추홀구 주안동 917-34,37.46013703,126.6931485,,,,,인천광역시 미추홀구 경인로485번길 14 (주안동)
닭꼬치1209,카페,인천광역시 미추홀구 주안동 30-1 주안cgv B동 6호,37.46554181,126.6804649,,,,,"인천광역시 미추홀구 염창로 58, 주안cgv B동 6호 (주안동)"
배스킨라빈스,카페,인천광역시 미추홀구 용현동 627-522,37.4490532,126.6349918,,,,,인천광역시 미추홀구 낙섬중로 1 (용현동)
코레일유통(주) 던킨도너츠 (제물포역사점),카페,인천광역시 미추홀구 도화동 81-1,37.4668031,126.6568696,,,,,"인천광역시 미추홀구 경인로 129, 2층 (도화동)"
본죽,카페,인천광역시 미추홀구 학익동 661-3 목향빌딩내1층,37.43935531,126.6739314,,,,,"인천광역시 미추홀구 매소홀로 468 (학익동,목향빌딩내1층)"
토스트굽는사람들,카페,인천광역시 미추홀구 주안동 677-4,37.45303027,126.6657916,,,,,인천광역시 미추홀구 인주대로 261 (주안동)
생생돈까스,카페,인천광역시 미추홀구 용현동 615-7 우성아파트,37.45087092,126.640587,,,,,"인천광역시 미추홀구 낙섬동로 56, 우성아파트 (용현동)"
경기다방,카페,인천광역시 미추홀구 주안동 801-2,37.45155938,126.6676463,,,,,"인천광역시 미추홀구 한나루로 500-1, 2층 (주안동)"
한끼 토스트,카페,인천광역시 미추홀구 문학동 392-9,37.43661464,126.6858206,,,,,인천광역시 미추홀구 소성로350번길 16 (문학동)
자수정휴게소,카페,인천광역시 미추홀구 주안동 1315-3,37.44775583,126.6780194,,,,,인천광역시 미추홀구 인하로266번길 5 (주안동)
블랙투,카페,인천광역시 미추홀구 주안동 231-11,37.46385022,126.6792217,,,,,인천광역시 미추홀구 주안로 86 (주안동)
그라찌에 커피전문점 인하대점,카페,인천광역시 미추홀구 용현동 253 외26필지 인하학원 12동 2층(휴게관),37.45148189,126.6513509,,,,,"인천광역시 미추홀구 인하로 100 (용현동,외26필지 인하학원 12동 2층(휴게관))"
만남분식,카페,인천광역시 미추홀구 용현동 610-176,37.45339188,126.642525,,,,,인천광역시 미추홀구 낙섬동로 90 (용현동)
분식카페,카페,인천광역시 미추홀구 도화동 107-16,37.46892698,126.669265,,,,,인천광역시 미추홀구 석정로301번길 18 (도화동)
인생닭강정 인하대점,카페,인천광역시 미추홀구 용현동 198-20 지하1층,37.45176484,126.6551701,,,,,"인천광역시 미추홀구 인하로 61-1, 지하1층 (용현동)"
수궁,카페,인천광역시 미추홀구 용현동 139-18,37.4551415,126.6577566,,,,,인천광역시 미추홀구 인주대로 188 (용현동)
신전떡볶이,카페,인천광역시 미추홀구 용현동 197-20,37.45224518,126.6561333,,,,,인천광역시 미추홀구 인하로67번길 17 (용현동)
(주)그랜드하우스 더블샷,카페,인천광역시 미추홀구 주안동 128-9,37.46457632,126.6816779,,,,,인천광역시 미추홀구 주안로 103-18 (주안동)
어거스트101,카페,"인천광역시 부평구 부평동 364-19 외2필지, 굿플러스 101호",37.49427106,126.7319369,,,,,"인천광역시 부평구 부평문화로141번길 3, 굿플러스 1층 101호 (부평동)"
빵아저씨쿠키아줌마,카페,인천광역시 부평구 십정동 174-13,37.48517377,126.708343,,,,,인천광역시 부평구 마장로 72 (십정동)
쉐라메르과자점,카페,"인천광역시 부평구 산곡동 274 경남아파트2차상가동 나동 1층2호~4호, 지하1호, 지하12호 ",37.50130338,126.708679,,,,,"인천광역시 부평구 안남로222번길 30 (산곡동, 경남아파트2차상가동 나동 1층2호~4호, 지하1호, 지하12호)"
파리바게뜨(부평역점),카페,인천광역시 부평구 부평동 153-21,37.49224862,126.724782,,,,,인천광역시 부평구 시장로 12 (부평동)
마망,카페,인천광역시 부평구 부평동 70-5 동아2차 상가 107호,37.49276896,126.7190826,,,,,"인천광역시 부평구 부평문화로 37 (부평동,동아2차 상가 107호)"
뚜레쥬르부평중앙점,카페,인천광역시 부평구 부평동 442-8 1층,37.49880694,126.7234733,,,,,"인천광역시 부평구 부흥로 283, 1층 (부평동)"
파리바게뜨부개부일점,카페,인천광역시 부평구 부개동 444-1 1층일부,37.48456217,126.7329635,,,,,"인천광역시 부평구 동수로126번길 3 (부개동, 1층일부)"
빨간풍차과자점,카페,인천광역시 부평구 부개동 12-89,37.50465473,126.7362832,,,,,인천광역시 부평구 길주남로125번길 24 (부개동)
파리바게트,카페,인천광역시 부평구 부평동 546-76 101호,37.49374209,126.7216521,,,,,"인천광역시 부평구 부평문화로 50 (부평동,101호)"
빵장수야곱,카페,인천광역시 부평구 삼산동 57 삼보@상가1층1호,37.52114273,126.7378743,,,,,"인천광역시 부평구 후정동로 43 (삼산동,삼보@상가1층1호)"
던킨도너츠,카페,인천광역시 부평구 부평동 738-21 1층,37.48956767,126.7233506,,,,,"인천광역시 부평구 광장로 16 (부평동,1층)"
다모아베이커리,카페,인천광역시 부평구 부평동 372-35,37.49688908,126.7254128,,,,,인천광역시 부평구 부흥로304번길 32 (부평동)
부평청천파리바게뜨,카페,"인천광역시 부평구 청천동 259-3 1층 105호, 106호 ",37.50658365,126.7149337,,,,,"인천광역시 부평구 원길로 34, 1층 105호, 106호 (청천동)"
뚜레쥬르,카페,"인천광역시 부평구 부개동 496-17 석영프라자 101, 104호 ",37.50424879,126.739679,,,,,"인천광역시 부평구 부개로 73 (부개동,석영프라자 101, 104호)"
파리바게트,카페,인천광역시 부평구 십정동 402-54 외 1필지 1~2층,37.47150494,126.7021582,,,,,"인천광역시 부평구 동암광장로 16 (십정동, 1~2층 )"
파리바게뜨 부개점,카페,"인천광역시 부평구 부개동 496-21 새롬프라자14차, 1층 104,105,106호 ",37.50399794,126.7395897,,,,,"인천광역시 부평구 길주남로 159, 1층 104,105,106호 (부개동, 새롬프라자14차)"
한스베이커리,카페,인천광역시 부평구 갈산동 158-4,37.51683662,126.721897,,,,,인천광역시 부평구 부평대로 284 (갈산동)
파리바게트,카페,인천광역시 부평구 청천동 179-20 1층,37.51312872,126.7046358,,,,,"인천광역시 부평구 세월천로 44, 1층 (청천동)"
케�揚遣Ζ�,카페,인천광역시 부평구 십정동 351-2,37.47245463,126.694439,,,,,인천광역시 부평구 배곶남로9번길 22 (십정동)
파리바게뜨 부평갈산,카페,인천광역시 부평구 갈산동 171-45 1층,37.5158308,126.7259693,,,,,"인천광역시 부평구 주부토로 231, 1층 (갈산동)"
브레드톡,카페,인천광역시 부평구 부평동 604-15,37.4885653,126.7257102,,,,,인천광역시 부평구 육동로 36 (부평동)
빵할인매장,카페,인천광역시 부평구 일신동 105-7 1층 8호,37.48505905,126.7431511,,,,,"인천광역시 부평구 경인로1118번길 14-12, 1층 8호 (일신동)"
어바웃타임,카페,인천광역시 부평구 부평동 722-32,37.48886078,126.723098,,,,,인천광역시 부평구 경인로931번길 28 (부평동)
파리바게트,카페,인천광역시 부평구 부평동 605-8,37.48774629,126.7253612,,,,,인천광역시 부평구 경인로 951 (부평동)
라비에르,카페,인천광역시 부평구 산곡동 255-21,37.50119165,126.7056929,,,,,인천광역시 부평구 마장로264번길 48 (산곡동)
파리바게트(부평일신점),카페,인천광역시 부평구 일신동 99-7 외1필지 1층,37.48365963,126.7450354,,,,,"인천광역시 부평구 일신로14번길 5 (일신동,외1필지 1층)"
떡보의하루,카페,인천광역시 부평구 산곡동 411-3 외1필지 1층,37.50400904,126.7114103,,,,,"인천광역시 부평구 원적로 405 (산곡동,외1필지 1층)"
파리바게트 부평삼산점,카페,인천광역시 부평구 삼산동 459-1 삼산동 이리옴프라자,37.50830591,126.7348156,,,,,"인천광역시 부평구 체육관로 30, 삼산동 이리옴프라자 1층 101호 , 102호 (삼산동)"
가또베이커리,카페,인천광역시 부평구 십정동 608-5 주공단지상가 102호,37.48079929,126.7039207,,,,,"인천광역시 부평구 이규보로 91 (십정동,주공단지상가 102호)"
파리바게뜨 삼산미래타운점,카페,"인천광역시 부평구 삼산동 389-1 우리빌딩 104-1호,104-2호 1층 ",37.52171702,126.7429962,,,,,"인천광역시 부평구 부평북로 446 (삼산동,우리빌딩 104-1호,104-2호 1층)"
브레댄코부평점,카페,인천광역시 부평구 부평동 457-9,37.49190919,126.7313132,,,,,인천광역시 부평구 충선로 9 (부평동)
파리바게뜨,카페,인천광역시 부평구 산곡동 137-1 (1층),37.50309073,126.7139269,,,,,"인천광역시 부평구 원적로432번길 10 (산곡동,(1층))"
파리바게트,카페,"인천광역시 부평구 삼산동 426-12 (104, 105호) ",37.51715606,126.7352048,,,,,"인천광역시 부평구 충선로 313 (삼산동,(104, 105호))"
행운식품롯데마트부평점,카페,인천광역시 부평구 산곡동 159-52 지하1층,37.50501182,126.7040748,,,,,"인천광역시 부평구 마장로 296 (산곡동,지하1층)"
파리바게뜨(부평롯데마트점),카페,인천광역시 부평구 산곡동 100-101 롯데프라자 102-1호,37.50565104,126.7036625,,,,,"인천광역시 부평구 마장로 310, 롯데프라자 102-1호 (산곡동)"
뚜레쥬르동수역점,카페,인천광역시 부평구 부평동 754-56,37.48566342,126.7183525,,,,,인천광역시 부평구 경인로 883 (부평동)
행운식품롯데마트삼산점,카페,인천광역시 부평구 삼산동 465-1 롯데마트삼산점(지하1층),37.50789306,126.7320158,,,,,"인천광역시 부평구 길주로 623 (삼산동,롯데마트삼산점(지하1층))"
파리바게뜨,카페,인천광역시 부평구 부평동 441-34,37.49866389,126.7248737,,,,,인천광역시 부평구 부흥로 297 (부평동)
파리바게트 신트리점,카페,인천광역시 부평구 부평동 19-8,37.50446781,126.7256957,,,,,인천광역시 부평구 길주남로 38 (부평동)
파리바게뜨부평동아점,카페,인천광역시 부평구 부평동 70-89 1층,37.49901359,126.71929,,,,,"인천광역시 부평구 부흥로 247 (부평동,1층)"
파리바게뜨(인천부개역점),카페,인천광역시 부평구 부개동 124-36 1층,37.49346332,126.7376377,,,,,"인천광역시 부평구 부평문화로 192, 1층 (부개동)"
코코호도 삼산점,카페,인천광역시 부평구 삼산동 459-3 삼산동 이리옴프라자II 104호,37.50827442,126.7354757,,,,,"인천광역시 부평구 체육관로 34 (삼산동,삼산동 이리옴프라자II 104호)"
파리바게트갈산마을,카페,"인천광역시 부평구 갈산동 364-2 101호, 102호 1층 ",37.51121407,126.7258537,,,,,"인천광역시 부평구 주부토로 179 (갈산동,101호, 102호 1층)"
삼산미래타운튜레주르,카페,"인천광역시 부평구 삼산동 389-2 외 1필지 로얄프라자 102호, 103호  1층 ",37.52173762,126.7433512,,,,,"인천광역시 부평구 부평북로 448 (삼산동,외 1필지 로얄프라자 102호, 103호  1층)"
파리바게뜨갈산역점,카페,인천광역시 부평구 갈산동 177-1 원츠프라자 1층,37.51649452,126.722552,,,,,"인천광역시 부평구 평천로 290 (갈산동,원츠프라자 1층)"
파리바게뜨부평갈월점,카페,"인천광역시 부평구 삼산동 55 105호, 106호 1층 ",37.51649452,126.722552,,,,,"인천광역시 부평구 부평북로 399 (삼산동,105호, 106호 1층)"
파리바게뜨 부개주공점,카페,인천광역시 부평구 부개동 502-3 모아빌딩,37.49738554,126.7379104,,,,,"인천광역시 부평구 부흥로 414, 모아빌딩 1층 101호 (부개동)"
파리바게뜨 부평산곡점,카페,"인천광역시 부평구 산곡동 251-4 비이에스타 114호,115호 1층 ",37.49973157,126.7037844,,,,,"인천광역시 부평구 마장로242번길 19 (산곡동,비이에스타 114호,115호 1층)"
파리바게트백운현대점,카페,인천광역시 부평구 산곡동 369-52 1층,37.49234688,126.7048014,,,,,"인천광역시 부평구 화랑남로 1 (산곡동,1층)"
파리바게뜨,카페,인천광역시 부평구 산곡동 307-13 2층,37.48844108,126.7093669,,,,,"인천광역시 부평구 경원대로 1252-1 (산곡동,2층)"
파리바게뜨부평구청역점,카페,인천광역시 부평구 갈산동 381-3 1층,37.50757486,126.7230449,,,,,"인천광역시 부평구 길주로 547 (갈산동,1층)"
파리바게뜨(백운힐스테이트점),카페,인천광역시 부평구 십정동 186-138 1층,37.48377892,126.7071034,,,,,"인천광역시 부평구 이규보로 135 (십정동,1층)"
뚜레쥬르부개역북부점,카페,인천광역시 부평구 부개동 210 외2필지 송신빌딩 1층,37.48899384,126.7397363,,,,,"인천광역시 부평구 부일로 87 (부개동,외2필지 송신빌딩 1층)"
빵굼터인천청천점,카페,인천광역시 부평구 청천동 13-43 외1필지 1층,37.52078377,126.704334,,,,,"인천광역시 부평구 마장로 477 (청천동,외1필지 1층)"
달란트베이커리,카페,인천광역시 부평구 십정동 402-43 외 1필지,37.47160275,126.7015362,,,,,"인천광역시 부평구 열우물로 36 (십정동,외 1필지)"
예다손삼산점,카페,인천광역시 부평구 삼산동 53-6 주영빌딩 102호 1층,37.52230819,126.7389398,,,,,"인천광역시 부평구 부평북로 408 (삼산동,주영빌딩 102호 1층)"
파리바게트 부평세림점,카페,인천광역시 부평구 청천동 301-23,37.50639846,126.7178454,,,,,"인천광역시 부평구 부평대로167번길 54, 1층 115호 (청천동)"
청천사거리파리바게뜨,카페,인천광역시 부평구 청천동 15-11 1층 일부,37.51769943,126.7040328,,,,,"인천광역시 부평구 청중로 61 (청천동, 1층 일부)"
파리바게뜨굴포천역점,카페,인천광역시 부평구 부평동 915 1층 일부,37.50511697,126.7313762,,,,,"인천광역시 부평구 장제로 220 (부평동, 1층 일부)"
파리바게뜨산곡푸르지오,카페,"인천광역시 부평구 산곡동 124-25 전방프라자 103호,105호 1층 ",37.50625127,126.7085804,,,,,"인천광역시 부평구 안남로 261 (산곡동,전방프라자 103호,105호 1층)"
파리바게트,카페,인천광역시 부평구 산곡동 311-151 외1필지 현대부평몰에이동 지하1층 식품코너매장내,37.49078743,126.7100056,,,,,"인천광역시 부평구 경원대로 1277 (산곡동,외1필지 현대부평몰에이동 지하1층 식품코너매장내)"
파리바게뜨,카페,인천광역시 부평구 부평동 153-21 4층,37.49224862,126.724782,,,,,"인천광역시 부평구 시장로 12 (부평동,4층)"
파리바게뜨나누리병원점,카페,인천광역시 부평구 부평동 124-5 나누리병원 1층 내,37.49951576,126.7310027,,,,,"인천광역시 부평구 장제로 156 (부평동,나누리병원 1층 내)"
파리바게뜨부평오거리점,카페,"인천광역시 부평구 부평동 179-26 인산빌딩 101호, 102호, 103호 1층 ",37.4908483,126.728805,,,,,"인천광역시 부평구 경원대로 1440 (부평동,인산빌딩 101호, 102호, 103호 1층)"
뚜레쥬르부평삼산점,카페,"인천광역시 부평구 삼산동 459-2 하이존 105호, 106호 ",37.50828837,126.7351484,,,,,"인천광역시 부평구 체육관로 32 (삼산동, 하이존 105호, 106호)"
브레드맘&파파,카페,인천광역시 부평구 부개동 305-7 지하1층 일부~1층,37.48755035,126.7397005,,,,,"인천광역시 부평구 수변로10번길 1 (부개동, 지하1층 일부~1층)"
뚜레쥬르산곡푸르지오점,카페,인천광역시 부평구 산곡동 124-136 1층,37.50641046,126.7081356,,,,,"인천광역시 부평구 마장로324번길 82 (산곡동, 1층)"
이지바이,카페,인천광역시 부평구 산곡동 307-9 1필지 1층,37.48883494,126.7095957,,,,,"인천광역시 부평구 경원대로 1258 (산곡동, 1층)"
부평산곡뚜레쥬르,카페,인천광역시 부평구 산곡동 281-5 오남프라자 118호,37.50211844,126.7129151,,,,,"인천광역시 부평구 부영로189번길 51 (산곡동, 오남프라자 118호)"
몽뻬르과자점,카페,"인천광역시 부평구 부평동 185-6 외 3필지, 타이콘스빌딩, 1층 일부 ",37.49100587,126.7257947,,,,,"인천광역시 부평구 경원대로 1412 (부평동, 타이콘스빌딩, 1층 일부)"
크로아베이커리,카페,인천광역시 부평구 십정동 408-10 1층,37.47050175,126.7014421,,,,,"인천광역시 부평구 열우물로 26, 1층 (십정동)"
꽃보라앙금플라워,카페,인천광역시 부평구 부평동 341-33 2층,37.49139002,126.7205488,,,,,"인천광역시 부평구 경원대로 1365, 2층 (부평동)"
최승민베이커리,카페,인천광역시 부평구 십정동 481-9 1층,37.46944365,126.7076546,,,,,"인천광역시 부평구 경인로667번길 4, 1층 (십정동)"
빵굽는쉐프,카페,인천광역시 부평구 갈산동 169-19,37.51808581,126.7265832,,,,,"인천광역시 부평구 평천로 327, 1층 (갈산동)"
에키노마에,카페,"인천광역시 부평구 부평동 126-10 지하부평역 지하1층 1,2호 ",37.49044727,126.7234864,,,,,"인천광역시 부평구 광장로 지하 15, 지하부평역 지하1층 1,2호 (부평동)"
던킨도너츠 부평세림병원,카페,인천광역시 부평구 청천동 302-31 의료법인안은의료재단E동 1층,37.50674185,126.7199354,,,,,"인천광역시 부평구 부평대로 175, 1층 (청천동, 의료법인안은의료재단E동)"
빵장수단팥빵 인천부평점,카페,인천광역시 부평구 삼산동 464-2 엘림타워 1층 105호,37.50727931,126.7332137,,,,,"인천광역시 부평구 길주로 635, 1층 105호 (삼산동, 엘림타워)"
퐁듀베이커리,카페,"인천광역시 부평구 부개동 442-3 한국아파트 상가동, 1층 104, 105호 ",37.4837847,126.730742,,,,,"인천광역시 부평구 동수로120번길 11, 1층 104, 105호 (부개동, 한국아파트 상가동)"
베이커리이을,카페,"인천광역시 부평구 부평동 543-41 외3필지, 2층 일부 ",37.49438247,126.722513,,,,,"인천광역시 부평구 부평대로 33, 2층 일부호 (부평동)"
브레드마망,카페,인천광역시 부평구 산곡동 369-265 1층 일부,37.49189161,126.7049839,,,,,"인천광역시 부평구 마장로 150 (산곡동, 1층 일부)"
뚜레쥬르 부평청천점,카페,인천광역시 부평구 산곡동 45-3,37.51292436,126.7036206,,,,,"인천광역시 부평구 세월천로 51 (산곡동, 1층일부)"
빵굽는곰,카페,인천광역시 부평구 부평동 416-28 더프라임캐슬 102호,37.49901982,126.7268299,,,,,"인천광역시 부평구 주부토로46번길 25, 102호 (부평동, 더프라임캐슬)"
참호도과자,카페,"인천광역시 부평구 갈산동 369 갈산팬더아파트 상가동 1층 103호 일부, 104호 ",37.5103789,126.7302222,,,,,"인천광역시 부평구 갈월동로 34 (갈산동, 갈산팬더아파트 상가동 1층 103호 일부, 104호)"
코레일유통(주)더베이크,카페,인천광역시 부평구 십정동 541 1층 일부,37.47100567,126.7029352,,,,,"인천광역시 부평구 동암광장로 10 (십정동, 1층 일부)"
(주)지에스리테일 지에스더프레쉬 인천부개점,카페,인천광역시 부평구 부개동 501-8 1층 일부,37.49823249,126.7397479,,,,,"인천광역시 부평구 부개로 10 (부개동, 1층 일부)"
바이올렛 베이킹,카페,인천광역시 부평구 부평동 950 상가동,37.50275025,126.7226169,,,,,"인천광역시 부평구 주부토로81번길 50, 216호 (부평동, 래미안상가)"
온도베이커리,카페,인천광역시 부평구 삼산동 462-1 삼산지구 복합시설 109호,37.50838114,126.7330934,,,,,"인천광역시 부평구 체육관로 14, 삼산지구 복합시설 1층 109호 (삼산동)"
엔젤케익앤커피,카페,인천광역시 부평구 부평동 760-742 2층 일부,37.48888045,126.7174784,,,,,"인천광역시 부평구 부영로 40, 2층 일부 (부평동)"
웰빙쌀빵,카페,인천광역시 부평구 부평동 224-1 인천교통공사부평역 지하2층 6호,37.49044727,126.7234864,,,,,"인천광역시 부평구 광장로 지하 15, 인천교통공사부평역 지하2층 6호 (부평동)"
로라케이크,카페,인천광역시 부평구 갈산동 378-8 1층 일부,37.50840664,126.7256625,,,,,"인천광역시 부평구 주부토로 149, 1층 일부호 (갈산동)"
꽁뜨베이커리,카페,인천광역시 부평구 부평동 950 상가동 112호,37.50275025,126.7226169,,,,,"인천광역시 부평구 주부토로81번길 50, 상가동 1층 112호 (부평동)"
뚜레쥬르 롯데마트부평역점,카페,"인천광역시 부평구 부평동 738-21 부평민자역사 본건물 나호, 롯데마트부평역점 3층 일부 ",37.48956767,126.7233506,,,,,"인천광역시 부평구 광장로 16, 부평민자역사 본건물 나호, 롯데마트부평역점 3층 일부 (부평동)"
송사부쌀고롯케,카페,인천광역시 부평구 부평동 738-21 부평민자역사,37.48956767,126.7233506,,,,,"인천광역시 부평구 광장로 16, 부평민자역사 지하1층 20호, 31호 (부평동)"
베아또과자점,카페,인천광역시 부평구 청천동 302 1층 일부,37.50735831,126.7189475,,,,,"인천광역시 부평구 길주로 510, 1층 일부호 (청천동)"
폼드팡베이커리삼산점,카페,인천광역시 부평구 삼산동 465-1 대덕리치아노,37.50789306,126.7320158,,,,,"인천광역시 부평구 길주로 623, 롯데마트 지하1층 B104호 일부호 (삼산동)"
보시엘드파리 과자점,카페,인천광역시 부평구 청천동 191-9 1층 일부,37.5123283,126.708673,,,,,"인천광역시 부평구 세월천로 9, 1층 일부호 (청천동)"
스마일박스,카페,인천광역시 부평구 갈산동 378-12,37.50822827,126.7252087,,,,,"인천광역시 부평구 주부토로145번길 10, 1층 일부호 (갈산동)"
브라운아지트,카페,인천광역시 부평구 부평동 890-4 1층 일부,37.50478154,126.7257354,,,,,"인천광역시 부평구 길주남로 35, 1층 일부호 (부평동)"
김쉐프제빵소,카페,인천광역시 부평구 일신동 106-1 대한빌딩,37.48486952,126.7427548,,,,,"인천광역시 부평구 경인로1104번길 13-14, 대한빌딩 1층 일부호 (일신동)"
베어리스튜디오,카페,인천광역시 부평구 부평동 950 상가동 103호,37.50275025,126.7226169,,,,,"인천광역시 부평구 주부토로81번길 50, 상가동 1층 103호 (부평동)"
크림380(Cream380),카페,인천광역시 부평구 갈산동 380-4 1층 일부,37.50792084,126.7239688,,,,,"인천광역시 부평구 길주로547번길 8-13, 1층 일부호 (갈산동)"
기쁨이네,카페,인천광역시 부평구 청천동 112 갈산역,37.51681674,126.7215306,,,,,"인천광역시 부평구 부평대로 지하 286, 갈산역사내 지하1층 5호 (청천동)"
라 크루뜨,카페,인천광역시 부평구 부평동 645-34 서보타운,37.48710139,126.7263081,,,,,"인천광역시 부평구 경인로 960, 서보타운 106호 (부평동)"
명인빵지순례1984 갈산점,카페,인천광역시 부평구 갈산동 379-5,37.5079675,126.7251223,,,,,"인천광역시 부평구 길주로565번길 13, 1층 일부호 (갈산동)"
엠버케이크,카페,"인천광역시 부평구 부평동 341-173 외1필지, 1층 101호 일부 ",37.49189542,126.7191142,,,,,"인천광역시 부평구 부평문화로 14, 1층 101호 일부 (부평동)"
소소앙금,카페,인천광역시 부평구 부평동 212-99,37.49463736,126.7233567,,,,,"인천광역시 부평구 부평대로36번길 7, 2층 (부평동)"
냠냠파운드,카페,인천광역시 부평구 십정동 572-2 이레하이니스 101호,37.48062971,126.710166,,,,,"인천광역시 부평구 마장로 18, 1층 101호 (십정동, 이레하이니스)"
한샘마트,카페,인천광역시 부평구 갈산동 450-6 1층 일부호,37.52340265,126.731552,,,,,"인천광역시 부평구 부평북로 343, 1층 일부호 (갈산동)"
비유어페이보릿,카페,"인천광역시 부평구 부평동 539-2 외10필지, 부평 현대 더로프트 3동 205-2호",37.48952037,126.728913,,,,,"인천광역시 부평구 장제로 45, 부평 현대 더로프트 3동 2층 205-2호 (부평동)"
핑케이크,카페,인천광역시 부평구 산곡동 411-30 1층 일부호,37.50423788,126.7119586,,,,,"인천광역시 부평구 원적로403번길 10-12, 1층 일부호 (산곡동)"
봄날같은오븐,카페,인천광역시 부평구 부평동 954 부평구청역대명벨리온 246호,37.50509643,126.7208454,,,,,"인천광역시 부평구 부평대로 153, 부평구청역대명벨리온 2층 246호 (부평동)"
정직한제빵공장,카페,인천광역시 부평구 청천동 424-9 TECHNO PAKR M2,37.51710669,126.7184175,,,,,"인천광역시 부평구 평천로255번길 13, TECHNO PAKR M2 1층 123,124호 (청천동)"
샹스베이커리(Chance bakery),카페,인천광역시 부평구 십정동 484-3 1층,37.47052932,126.7062214,,,,,"인천광역시 부평구 동암남로 24-1, 1층 (십정동)"
헤이븐케이크,카페,인천광역시 부평구 부평동 950 상가동 210호,37.50275025,126.7226169,,,,,"인천광역시 부평구 주부토로81번길 50, 상가동 2층 210호 (부평동)"
마크빈부개점,카페,인천광역시 부평구 부개동 191-4 1층 일부호,37.49303184,126.7402973,,,,,"인천광역시 부평구 부평문화로 216, 1층 일부호 (부개동)"
초이스케이크,카페,인천광역시 부평구 부평동 542-69 성원빌딩 1층 일부호,37.49598842,126.7210581,,,,,"인천광역시 부평구 부평대로51번길 26, 성원빌딩 1층 일부호 (부평동)"
베이커리스트(Bakerest),카페,인천광역시 부평구 산곡동 263-50 1층 일부호,37.50062684,126.7054182,,,,,"인천광역시 부평구 부흥로123번길 43, 1층 일부호 (산곡동)"
뚜레쥬르 부평더샵,카페,"인천광역시 부평구 십정동 289-8 더샵부평센트럴시티 상가동 G동 117,118호 ",37.47736242,126.7009931,,,,,"인천광역시 부평구 열우물로 90, 상가동 G동 1층 117,118호 (십정동, 더샵부평센트럴시티)"
파리바게뜨 동암역더샵,카페,"인천광역시 부평구 십정동 289-8 더샵부평센트럴시티 상가동 F동 113,114호 ",37.47736242,126.7009931,,,,,"인천광역시 부평구 열우물로 90, 상가동 F동 1층 113,114호 (십정동, 더샵부평센트럴시티)"
고망고,카페,인천광역시 부평구 부평동 182-79 1층,37.49068185,126.7267175,,,,,"인천광역시 부평구 광장로30번길 37, 1층 (부평동)"
향이케이크,카페,인천광역시 부평구 부평동 10-585,37.50514097,126.7301627,,,,,"인천광역시 부평구 길주남로77번길 19, 1층 일부호 (부평동)"
하트도씨,카페,인천광역시 부평구 부개동 478-2 1,37.50555717,126.7314035,,,,,"인천광역시 부평구 장제로 224-1, 1층 (부개동)"
베아또 과자점,카페,인천광역시 부평구 부평동 436-15 센트럴아파트 105호,37.50130865,126.7228135,,,,,"인천광역시 부평구 부흥북로6번길 5, 센트럴아파트 1층 105호 (부평동)"
조아베이커리,카페,인천광역시 부평구 산곡동 311-67 1층 일부,37.49276511,126.7050102,,,,,"인천광역시 부평구 화랑남로5번길 7, 1층 일부호 (산곡동)"
명인빵지순례1984 삼산점,카페,인천광역시 부평구 삼산동 391-3 미래타워 109호 일부,37.52068338,126.7454438,,,,,"인천광역시 부평구 영성중로 50, 미래타워 109호 일부호 (삼산동)"
차츰차츰,카페,인천광역시 부평구 삼산동 117-25 1층 일부,37.51969624,126.7452766,,,,,"인천광역시 부평구 영성중로36번길 3, 1층 일부호 (삼산동)"
뚜레쥬르 신일해피트리점,카페,"인천광역시 부평구 산곡동 180-104 더루츠스퀘어 1층 111, 112호 ",37.50482521,126.6991503,,,,,"인천광역시 부평구 원적로 295, 더루츠스퀘어 1층 111, 112호 (산곡동)"
주제,카페,인천광역시 부평구 부평동 882-8 1층 일부호,37.50556308,126.7234962,,,,,"인천광역시 부평구 신트리로22번길 6, 1층 일부호 (부평동)"
베이커리코너 부평점,카페,인천광역시 부평구 산곡동 159-52 롯데마트 부평점 지하1층 일부,37.50501182,126.7040748,,,,,"인천광역시 부평구 마장로 296, 롯데마트 부평점 지하1층 일부 (산곡동)"
나우커피인천시달맞이점,카페,인천광역시?남동구?논현동 633-1?달맞이마을휴먼시아5단지?상가,37.40267158,126.7182542,,,,,"인천광역시 남동구 논현로 107, 달맞이마을휴먼시아5단지 상가 1층 107호 (논현동)"
나우커피인천장수점,카페,인천 남동구 장수동 806-3,37.45172651,126.7496178,,,,,인천 남동구 장수로 25
당충전아이스크림&무인카페24시,카페,인천 남동구 만수동 63,37.4542342,126.7380025,,,,,인천 남동구 인수북로4번길 1
데이롱카페,카페,인천광역시?남동구?논현동 601-1 별빛마을웰카운티10단지 상가,37.40685557,126.7319293,,,,,인천광역시 남동구 논현로 235-1 (논현동)
데이롱카페(DAYLONGCAFE),카페,인천광역시?남동구?도림동?633-2,37.4164483,126.7282545,,,,,"인천광역시 남동구 오봉로 6, 1층 일부호 (도림동)"
데이롱카페소래포구점,카페,인천광역시?남동구?논현동 751-1?에코메트로3차?더타워상가,37.40001701,126.7336482,,,,,인천광역시 남동구 소래역남로16번길 75 (논현동)
레햄무인카페,카페,인천광역시?남동구?만수동 1044?뉴서울아파트상가,37.44131441,126.735575,,,,,인천광역시 남동구 담방로21번길 55 (만수동)
린헤어,카페,인천광역시?남동구?구월동 1371-18,37.44694406,126.6988416,,,,,인천광역시 남동구 문화로89번길 5 (구월동)
무인까페메일빈24인천점,카페,인천광역시?남동구?만수동 1083?신현대상가,37.44729974,126.7358021,,,,,인천광역시 남동구 인주대로888번길 13 (만수동)
무인카페24시&아이스크림,카페,인천광역시?남동구?만수동 943-1,37.45355979,126.7280339,,,,,인천광역시 남동구 구월로336번길 35 (만수동)
에그카페24인천논현점,카페,인천광역시?남동구?논현동 577?소래마을풍림아파트상가,37.4060566,126.7372627,,,,,인천광역시 남동구 청능대로718번길 9 (논현동)
좋은예감,카페,인천광역시?중구?관동1가 3-2,37.47289973,126.6225798,,,,,"인천광역시 중구 제물량로206번길 33 (관동1가, 1층)"
까페 꼰띠고 인천차이나타운점,카페,인천광역시?중구?선린동 34-1,37.47431611,126.6181769,,,,,"인천광역시 중구 제물량로 262-20, 2,3층 (선린동)"
경주십원빵 월미도점,카페,인천광역시?중구?북성동1가 98-428?월미오션테라스,37.47624364,126.5986076,,,,,"인천광역시 중구 월미로226번길 10, 월미오션테라스 1층 107호 (북성동1가)"
Ameri(아메리),카페,인천광역시?중구?운서동 3099-4?운서역?반도유보라?퍼스티지,37.48950102,126.4989224,,,,,"인천광역시 중구 영종대로196번길 15-25, 114동 2층 235호 (운서동, 운서역 반도유보라 퍼스티지)"
서니구락부,카페,인천광역시?중구?중앙동2가 23,37.47319118,126.6213601,,,,,"인천광역시 중구 신포로23번길 80 (중앙동2가, 1층)"
노유민코페,카페,인천광역시?중구?송월동3가 16-5,37.47775397,126.6194284,,,,,"인천광역시 중구 차이나타운로 15 (송월동3가, 1층)"
팥누리,카페,인천광역시?중구?관동2가 8-3,37.47259181,126.6231315,,,,,"인천광역시 중구 신포로27번길 44 (관동2가, 1층)"
카페 연화당,카페,인천광역시?중구?중앙동1가 14-1,37.4737402,126.6203903,,,,,"인천광역시 중구 신포로27번길 97 (중앙동1가, 1층)"
잭슨빌,카페,인천광역시?중구?신생동 2-13,37.47049731,126.6253605,,,,,"인천광역시 중구 제물량로166번길 1-8 (신생동, 1층)"
작은오븐,카페,인천광역시?중구?관동3가 3-1,37.47194901,126.6247656,,,,,"인천광역시 중구 신포로31번길 11 (관동3가, 1층,2층)"
엔소이카페,카페,인천광역시?중구?을왕동 730-6,37.44603838,126.3779203,,,,,인천광역시 중구 용유서로274번길 28 (을왕동)
SOHO63,카페,인천광역시?중구?송학동3가 2-1,37.47411555,126.6271779,,,,,"인천광역시 중구 송학로 37, 1층 (송학동3가)"
헬로우스프 앤 커피,카페,인천광역시?중구?신흥동2가 19-3 미성프라자,37.46797612,126.6359414,,,,,"인천광역시 중구 서해대로 474 (신흥동2가, 19-3번지 1층 108호)"
정,카페,인천광역시?중구?운서동 3029-4,37.49795586,126.4999348,,,,,"인천광역시 중구 화랑목로 70-8, 1층 101,102호 (운서동)"
카페 티톡,카페,인천광역시?중구?북성동3가 4-4,37.47583843,126.619736,,,,,"인천광역시 중구 차이나타운로 39-1, 2층 (북성동3가)"
마고,카페,인천광역시?중구?송학동3가 5-25,37.47267828,126.6258725,,,,,"인천광역시 중구 신포로39번길 6-4 (송학동3가, 1층)"
자동차박물관,카페,인천광역시?중구?신포동 11-4,37.47107878,126.6262036,,,,,"인천광역시 중구 제물량로166번길 24, 2층 (신포동)"
네버엔딩,카페,인천광역시?중구?신포동 26-10,37.4710188,126.6254134,,,,,"인천광역시 중구 우현로39번길 21-2, 2층 (신포동)"
카페봉봉,카페,인천광역시?중구?송학동3가 7-30,37.47233155,126.6253248,,,,,인천광역시 중구 신포로35번길 8-1 (송학동3가)
더카페소울,카페,인천광역시?중구?북성동1가 98-442,37.4742362,126.5973345,,,,,인천광역시 중구 월미문화로 47 (북성동1가)
올데이인더키친,카페,인천광역시?중구?송학동3가 7-34,37.47257367,126.6249047,,,,,인천광역시 중구 신포로35번길 18 (송학동3가)
로바로바(LOVA LOVA),카페,인천광역시?중구?관동3가 1-11,37.47193075,126.6252276,,,,,"인천광역시 중구 신포로31번길 6 (관동3가, 1-11번지 1층)"
무의도 빨간지붕,카페,인천광역시?중구?무의동 21-8,37.37579471,126.4326954,,,,,인천광역시 중구 대무의로 488 (무의동)
안나로즈,카페,인천광역시?중구?중앙동2가 21,37.47316551,126.6215334,,,,,인천광역시 중구 신포로27번길 73 (중앙동2가)
신포커피,카페,인천광역시?중구?중앙동4가 1-8,37.47139312,126.6249453,,,,,인천광역시 중구 신포로 27 (중앙동4가)
로드카페(Road Cafe),카페,인천광역시?중구?운서동 2855,37.42324776,126.4266669,,,,,"인천광역시 중구 영종해안남로 32, 5동 110호 (운서동, 종합회타운)"
낭만카페,카페,인천광역시?중구?신포동?12-62,37.47097565,126.6266409,,,,,"인천광역시 중구 우현로39번길 12 (신포동, 2층)"
파크우드관광호텔라운지,카페,인천광역시?중구?덕교동 128-12 호텔파크우드,37.42631419,126.4218282,,,,,인천광역시 중구 마시란로 34 (덕교동)
그녀의 정원,카페,인천광역시?중구?송학동3가 4-2,37.47320151,126.6261888,,,,,인천광역시 중구 신포로47번길 6 (송학동3가)
이디야커피 을왕리점,카페,인천광역시?중구?을왕동 755-30,37.44597001,126.3745103,,,,,인천광역시 중구 을왕로 10 (을왕동)
투썸플레이스(동인천역점),카페,인천 중구 인현동 20-11,37.47478774,126.6305492,,,,,인천 중구 우현로87번길 2
레드,카페,인천광역시?중구?신포동 23-13,37.4707947,126.6260916,,,,,"인천광역시 중구 우현로39번길 15-2, 2층 (신포동)"
커피마시는 다락방,카페,인천광역시?중구?북성동2가 11-13,37.47534765,126.6178074,,,,,인천광역시 중구 차이나타운로44번길 31-7 (북성동2가)
카페카나(CAFE KANA),카페,인천광역시?중구?신흥동3가 31-13 인천유림노르웨이숲에듀오션,37.45179654,126.6272098,,,,,"인천광역시 중구 서해대로 278, 근린생활시설2동 1층 113호 (신흥동3가, 인천유림노르웨이숲에듀오션)"
레드피아노,카페,인천광역시?중구?을왕동 717-12,37.44652029,126.3729529,,,,,"인천광역시 중구 을왕로 52, 1,2,3,4층 (을왕동)"
어씽,카페,인천광역시?중구?중산동 884-11,37.49666517,126.5505073,,,,,"인천광역시 중구 운중로 159-22, 1층 (중산동)"
스왈로,카페,인천광역시?중구?운남동 208-6,37.48559631,126.5337281,,,,,"인천광역시 중구 운남로82번길 5, 1층 (운남동)"
지구별커피,카페,인천광역시?중구?도원동 12-89,37.46829881,126.6416736,,,,,"인천광역시 중구 샛골로 61, 1층 좌측 (도원동)"
과일꽃,카페,인천광역시?중구?운남동 1523-7,37.49146962,126.5331239,,,,,"인천광역시 중구 운남로 156, 1층 102호 일부 (운남동)"
#51 B동,카페,인천광역시?중구?덕교동 485-7,37.43973169,126.4160215,,,,,"인천광역시 중구 마시란로170번길 51, 2동 1층 (덕교동)"
카페631,카페,인천광역시?중구?경동 239-13 카페631,37.47226257,126.6296239,,,,,인천광역시 중구 개항로 63-1 (경동)
메가스퀴즈,카페,인천광역시?중구?중산동 1886-20?비젼프라자?II,37.48897312,126.560146,,,,,"인천광역시 중구 자연대로 40, 비젼프라자 II 1층 111호 (중산동)"
안녕 소리집,카페,인천광역시?중구?경동 94-2 지디엔,37.47304909,126.6344666,,,,,"인천광역시 중구 참외전로 162, 지디엔 1~2층 (경동)"
더버터클럽,카페,인천광역시?중구?중앙동2가 23,37.47319118,126.6213601,,,,,"인천광역시 중구 신포로23번길 80, 1층 일부 (중앙동2가)"
굽굽&레인보우탕후루,카페,인천광역시?중구?중산동 1947-6,37.49231168,126.5790395,,,,,"인천광역시 중구 은하수로 28, 1층 101-1호 (중산동)"
다솜카페,카페,인천광역시?중구?중산동 1873-3,37.48873413,126.5589981,,,,,"인천광역시 중구 자연대로 47, 8층 804호 일부 (중산동)"
카페일리터 운서점,카페,인천광역시?중구?운서동 2793-3 영종프라자,37.49274978,126.4890628,,,,,"인천광역시 중구 흰바위로 37, 영종프라자 1층 101호 (운서동)"
트루셰어 펫텔 카페,카페,인천광역시?중구?운남동 347-1,37.49106826,126.534892,,,,,"인천광역시 중구 운남동로 44, 가동 1층 102,103,104호 (운남동)"
웨일까페 (Whale cafe),카페,인천광역시?중구?북성동3가 3-36,37.476243,126.6195748,,,,,"인천광역시 중구 차이나타운로 33, 지하1,지상1층 102, 103호 (북성동3가)"
팽 드 영종(pain de 영종),카페,인천광역시?중구?운북동 1363-5,37.5274526,126.5045844,,,,,"인천광역시 중구 미단소망로 62, 1층 102호 (운북동)"
온더플로우,카페,인천광역시?중구?중산동 1909-12,37.49819962,126.5673155,,,,,"인천광역시 중구 월촌길 69, 1층 101,102,103호 (중산동)"
에비뉴2023,카페,인천광역시?중구?신흥동3가 7-326?현대상가,37.45716331,126.6341016,,,,,"인천광역시 중구 인항로 34, 현대상가 3층 305호 (신흥동3가)"
Haze(헤이즈),카페,인천광역시?중구?운서동 3046-6,37.49448625,126.4983723,,,,,"인천광역시 중구 화랑목로100번길 73, 1층 102호 (운서동)"
공차 인천영종스카이점,카페,인천광역시?중구?중산동 1875-9 영종 힐링프라자,37.48636482,126.5587472,,,,,"인천광역시 중구 하늘달빛로 78, 1층 103호 (중산동, 영종 힐링프라자)"
메가엠지씨커피 동인천역점,카페,"인천광역시?중구?인현동 27-16 프로스펙스,보스,라네이즈",37.47444521,126.6302704,,,,,"인천광역시 중구 우현로 83, 제1호  1층 (인현동)"
다인카페,카페,인천광역시?중구?중산동 1161-12,37.50690892,126.5542709,,,,,"인천광역시 중구 중산로29번길 87-16, 지1층 (중산동)"
컴포즈 커피 신흥시장점,카페,인천광역시?중구?신흥동2가?7-1,37.46634271,126.6356274,,,,,"인천광역시 중구 서해대로454번길 7, 1층 101호 (신흥동2가)"
Holy Lemon(홀리레몬),카페,인천광역시?중구?운서동 3026-7,37.49849937,126.5005585,,,,,"인천광역시 중구 햇내로안길 53, 1층 102호 (운서동)"
화안(Hwa-an),카페,인천광역시?중구?송월동3가 12-2,37.47786102,126.61974,,,,,"인천광역시 중구 자유공원서로37번길 38, 1층 (송월동3가)"
달빛창가,카페,인천광역시?중구?전동 15-8,37.47725394,126.6284406,,,,,"인천광역시 중구 참외전로72번길 20, 1층 (전동)"
필아웃 영종도점,카페,인천광역시?중구?중산동 1877-6,37.48712926,126.5599879,,,,,"인천광역시 중구 하늘중앙로225번길 23, 1층 107호 (중산동)"