name,category,address,lat,lng,benefitValue,discountPercent,benefit_source_url,benefit_note,address_enriched
메덩골정원,관광지,경기 양평군 양동면 메덩골길 43,37.4966026745246,127.727460679032,,,,,경기 양평군 양동면 메덩골길 43
미사경정공원,관광지,경기도 하남시 미사대로 505 미사경정공원,37.5536259052614,127.213229587651,,,,,경기 하남시 미사대로 505
안성낙원역사공원,관광지,경기도 안성시 낙원길 78,37.005363965062,127.273240491473,,,,,경기 안성시 낙원길 78
안성성당,관광지,경기도 안성시 혜산로 33,37.0108390040861,127.274530323766,,,,,경기 안성시 혜산로 33
금광호수 하늘전망대,관광지,경기도 안성시 금광면 오흥리 831-2,36.9951827128308,127.333608609459,,,,,경기 안성시 금광면 오흥리 831-2
안양시 스마트도시통합센터,관광지,경기 안양시 동안구 평촌대로243번길 42,37.3925885354926,126.952292977773,,,,,경기 안양시 동안구 평촌대로243번길 42
일영역(장흥면 구역사),관광지,경기 양주시 장흥면 일영로647번길 25,37.7003212095614,126.92902298015,,,,,경기 양주시 장흥면 일영로647번길 25
DMZ천년꽃차(DMZ라운지),관광지,경기 파주시 탄현면 새오리로161번길 90,37.8003987249914,126.683586147737,,,,,경기 파주시 탄현면 새오리로161번길 90
부천문화원,관광지,경기도 부천시 경인로92번길 33,37.4825079437298,126.766558698313,,,,,경기 부천시 소사구 경인로92번길 33
부천아트센터,관광지,경기 부천시 원미구 소향로 165,37.5022385225392,126.766514925493,,,,,경기 부천시 원미구 소향로 165
화성치즈학교,관광지,경기 화성시 우정읍 기아자동차로 189-2,37.0456031568529,126.759932932139,,,,,경기 화성시 우정읍 기아자동차로 189-2
자연테마식물원,관광지,경기 평택시 오성면 청오로 33-58,37.0146052512303,126.981159315686,,,,,경기 평택시 오성면 청오로 33-58
경기도자미술관,관광지,경기 이천시 경충대로2697번길 263,37.27692876208,127.423702790779,,,,,경기 이천시 경충대로2697번길 263
곤지암렌탈샵 메가폰 스키,관광지,경기 광주시 도척면 도척윗로 212,37.3365995197934,127.318770844382,,,,,경기 광주시 도척면 도척윗로 212
곤지암렌탈샵 W스키,관광지,경기 광주시 도척면 도척윗로 166,37.3385291319724,127.323395892213,,,,,경기 광주시 도척면 도척윗로 166
한국은행 경기본부 화폐전시실,관광지,경기 수원시 영통구 센트럴타운로 35,37.2893474869942,127.055366074326,,,,,경기 수원시 영통구 센트럴타운로 35
배상면주가술박물관(산사원),관광지,경기 포천시 화현면 화동로432번길 25,37.9059956872132,127.309904875075,,,,,경기 포천시 화현면 화동로432번길 25
김포독립운동기념관,관광지,경기도 김포시 양촌읍 양곡2로30번길 46,37.6533398361512,126.629400313656,,,,,경기 김포시 양촌읍 양곡2로30번길 46
경기 남양주 조안 [슬로시티],관광지,경기도 남양주시 조안면 북한강로 413,37.5590119406959,127.312510347294,,,,,경기 남양주시 조안면 북한강로 413
시화나래조력공원,관광지,경기도 안산시 단원구 대부동동,37.2490239111332,126.601617400799,,,,,경기 안산시 단원구 대부동동
대명포구,관광지,경기 김포시 대곶면 대명항1로 109,37.6393819731761,126.541735509641,,,,,경기 김포시 대곶면 대명항1로 109
의정부 부대찌개거리,관광지,경기도 의정부시 호국로1309번길 7,37.7440925757108,127.049492945846,,,,,경기 의정부시 호국로1309번길 7
좋은술(천비향),관광지,경기 평택시 오성면 숙성뜰길 108,37.0004932679597,126.989393344952,,,,,경기 평택시 오성면 숙성뜰길 108
숲해설,관광지,경기 용인시 처인구 모현읍 초부로 220,37.3148737194702,127.267844163237,,,,,경기 용인시 처인구 모현읍 초부로 220
용인목재문화체험장,관광지,경기 용인시 처인구 모현읍 초부로220,37.3148737194702,127.267844163237,,,,,경기 용인시 처인구 모현읍 초부로 220
여성회관,관광지,경기 용인시 수지구 문정로7번길 15,37.3205247736357,127.095498971611,,,,,경기 용인시 수지구 문정로7번길 15
화야캠핑장,관광지,경기 가평군 설악면 유명로 1907-41,37.6808225260733,127.46895205721,,,,,경기 가평군 설악면 유명로 1907-41
화산서원,관광지,경기 포천시 가산면 가산로 227-40,37.8416491932635,127.175683598734,,,,,경기 포천시 가산면 가산로 227-40
어린이비전센터 사계절썰매장,관광지,경기도 남양주시 진접읍 해밀예당1로 96,37.7170905053399,127.191048764122,,,,,경기 남양주시 진접읍 해밀예당1로 96
미리내성지,관광지,경기 안성시 양성면 미리내성지로 420,37.1484307809296,127.259142006848,,,,,경기 안성시 양성면 미리내성지로 420
물환경전시관,관광지,경기 광주시 남종면 산수로 1692,37.4995886967686,127.303027942004,,,,,경기 광주시 남종면 산수로 1692
노성산 말머리바위,관광지,경기도 이천시 설성면 진상미로 238-7,,,,,,,
나만갑선생신도비,관광지,경기도 구리시 사노동 산163,37.6347439912687,127.135134433185,,,,,경기 구리시 사노동 산 163
글램핑클럽레스피아 in 포천백운계곡,관광지,경기도 포천시 이동면 화동로 2440-36,38.0602175401205,127.388005554297,,,,,경기 포천시 이동면 화동로 2440-36
그랑꼬또 와이너리,관광지,경기 안산시 단원구 뻐꾹산길 107,37.2574713893254,126.582545230378,,,,,경기 안산시 단원구 뻐꾹산길 107
가평 물골 숲 계곡 캠핑장,관광지,경기 가평군 상면 물골길 120,37.836755744831,127.314321709563,,,,,경기 가평군 상면 물골길 120
한강이 끝나는 곳에 있는 김포,관광지,경기도 김포시,37.6152686898331,126.715657922927,,,,,경기 김포시
잉꼬장식(근대상가건물),관광지,경기 오산시 오산로 296,37.1533174440587,127.068789467102,,,,,경기 오산시 오산로 296
웅담초분교(웅담리),관광지,경기 파주시 법원읍 수작골길 14,37.9141468185601,126.895686655639,,,,,경기 파주시 법원읍 수작골길 14
상패수변공원(옛 캠프 님블),관광지,경기도 동두천시 상패동 9-3,37.9141007029255,127.053695227703,,,,,경기 동두천시 상패동 9-3
용인레포츠(구 레포츠매니아),관광지,경기 용인시 처인구 양지면 죽양대로2071번길 50,37.2144247601424,127.313623341734,,,,,경기 용인시 처인구 양지면 죽양대로2071번길 50
상두리마을,관광지,경기 화성시 향남읍 솔태상두길 141,37.107685237922,126.946453542509,,,,,경기 화성시 향남읍 솔태상두길 141
파주 영국군 설마리 전투비,관광지,경기 파주시 적성면 구읍리 112-1,37.9469481224155,126.933515862309,,,,,경기 파주시 적성면 구읍리 112-1
한온장군충신정문,관광지,경기도 평택시 서탄면 금암리 593-3,37.1095643246822,127.033377063079,,,,,경기 평택시 서탄면 금암리 593-3
류자신 선생 묘 및 신도비,관광지,경기 시흥시 능곡동 산32,37.3707753277354,126.81904745327,,,,,경기 시흥시 능곡동 산 32
이야기오토캠핑,관광지,경기 포천시 소흘읍 직동길 44,37.7668125070822,127.169978319345,,,,,경기 포천시 소흘읍 직동길 44
다문화거리,관광지,경기 안산시 단원구 다문화길 16,37.3294415109406,126.790603302048,,,,,경기 안산시 단원구 다문화길 16
노성산정거장마을,관광지,경기 이천시 설성면 진상미로867번길 34-8,37.1407516858097,127.497931411528,,,,,경기 이천시 설성면 진상미로867번길 34-8
K-water 한탄강댐물문화관,관광지,경기도 연천군 연천읍 고문리 902,38.0630191091417,127.128640178496,,,,,경기 연천군 연천읍 고문리 902
옥란재,관광지,경기 화성시 서신면 영종이길 120-8,37.1420696414418,126.716779583189,,,,,경기 화성시 서신면 영종이길 120-8
성경의 벽,관광지,경기 양평군 서종면 잠실2길 35-55,37.6121562655733,127.380425062272,,,,,경기 양평군 서종면 잠실2길 35-55
새연리조트 가평현리1호점,관광지,경기 가평군 조종면 운악청계로333번길 86,37.8467479349494,127.346551706535,,,,,경기 가평군 조종면 운악청계로333번길 86
산장관광지,관광지,경기도 가평군 상면 덕현산장길 74,37.7543123391951,127.411915493288,,,,,경기 가평군 상면 덕현산장길 71
산바라기마을,관광지,경기 가평군 조종면 명지산로 46-27,37.8788067973897,127.361255967783,,,,,경기 가평군 조종면 명지산로 46-27
한국전쟁 미군참전 기념비,관광지,경기 가평군 북면 카이저길 45-23,37.8796764250138,127.526162206845,,,,,경기 가평군 북면 카이저길 45-23
드림아일랜드,관광지,경기 가평군 북면 가화로 2901,37.979260548157,127.446333786395,,,,,경기 가평군 북면 가화로 2901
가평하판리지진탑,관광지,경기 가평군 조종면 현등사길 34,37.8705894564319,127.331043423131,,,,,경기 가평군 조종면 현등사길 34
더어드벤처 아이스엔초비,관광지,경기 고양시 일산서구 한류월드로 300,37.6645540981816,126.754526582068,,,,,경기 고양시 일산서구 한류월드로 300
광주 조선백자 요지,관광지,경기도 광주시 남한산성면 해공로 91,37.4466135052952,127.268617781885,,,,,경기 광주시 남한산성면 해공로 91
문수산성,관광지,경기도 김포시 월곶면 포내리,37.7221658144034,126.534766498381,,,,,경기 김포시 월곶면 포내리
나비공원,관광지,경기도 김포시 구래동 6893-4,37.6399169421349,126.625116025618,,,,,경기 김포시 구래동 6893-4
용화사(김포),관광지,경기도 김포시 금포로 1487-5,37.6641607706548,126.67594643965,,,,,경기 김포시 금포로 1487-5
김포인삼쌀맥주갤러리,관광지,경기도 김포시 대곶면 대명항로 518,37.6465389501238,126.563759788708,,,,,경기 김포시 대곶면 대명항로 518
천보사,관광지,경기도 남양주시 불암산로 145 불암산천보사,37.6566091158358,127.095089387976,,,,,경기 남양주시 불암산로 145
밤섬유원지(밤섬랜드),관광지,경기 남양주시 진접읍 금강로 1032,37.6947900521184,127.163486448396,,,,,경기 남양주시 진접읍 금강로 1032
덕혜옹주묘,관광지,경기 남양주시 홍유릉로248번길 64-181,37.6288430891348,127.209727771868,,,,,경기 남양주시 홍유릉로248번길 64-181
더드림딸기체험농장,관광지,경기도 남양주시 조안면 북한강로626번길 82-25,37.5803654689337,127.331527938439,,,,,경기 남양주시 조안면 북한강로626번길 82-25
핸드앤몰트,관광지,경기도 남양주시 화도읍 폭포로 361-1,37.6341365878653,127.323604328164,,,,,경기 남양주시 화도읍 폭포로 361-1
수락산,관광지,서울 노원구,37.6543617567056,127.056430475216,,,,,서울 노원구
마차산,관광지,경기도 동두천시 안흥동,37.9305981459785,127.033068239674,,,,,경기 동두천시 안흥동
두드림뮤직센터,관광지,경기 동두천시 상패로216번길 42,37.9158470347767,127.056506826787,,,,,경기 동두천시 상패로216번길 42
노르웨이참전기념비,관광지,경기 동두천시 평화로2910번길 96-63,37.9425034056995,127.066057498597,,,,,경기 동두천시 평화로2910번길 96-63
모네정원,관광지,경기 부천시 고강로 79-13,37.5316151894825,126.811531383731,,,,,경기 부천시 오정구 고강로 79-13
부천 원종종합시장,관광지,경기도 부천시 삼작로 400,37.5195611639102,126.805866844348,,,,,경기 부천시 오정구 삼작로 400
부천 원미공원,관광지,경기도 부천시 원미구 소사로 456,37.4979851314859,126.799039821909,,,,,경기 부천시 원미구 소사로 456
부천 상동시장,관광지,경기 부천시 장말로200번길 48,37.490846370048,126.763510466808,,,,,경기 부천시 원미구 장말로200번길 48
부천 강남시장,관광지,경기도 부천시 옥산로154번길 21,37.5074983552359,126.781466291244,,,,,경기 부천시 원미구 옥산로154번길 21
펄벅기념관,관광지,경기도 부천시 성주로214번길 61,37.4755596787384,126.781706517433,,,,,경기 부천시 소사구 성주로214번길 61
약사사,관광지,경기 성남시 중원구 은행2동,37.4570439133907,127.166567003455,,,,,경기 성남시 중원구 은행2동
성프란치스코성당,관광지,경기 성남시 분당구 서판교로 125,37.397593869573,127.096615916117,,,,,경기 성남시 분당구 서판교로 125
성남아트센터,관광지,경기도 성남시 분당구 성남대로 808,37.4029565748635,127.130559855569,,,,,경기 성남시 분당구 성남대로 808
성남누비길,관광지,경기 성남시 수정구 창곡동 산70-29,37.4631736433716,127.155342871595,,,,,경기 성남시 수정구 창곡동 산 70-29
서현동 먹거리촌,관광지,경기도 성남시 분당구 새마을로 일대,,,,,,,
화랑공원,관광지,경기도 성남시 분당구 대왕판교로 609,37.3970837565959,127.106227477321,,,,,경기 성남시 분당구 대왕판교로 609
판교어린이천문대,관광지,경기 성남시 수정구 옛골로 64,37.4248044848914,127.06625569959,,,,,경기 성남시 수정구 옛골로 64
정토사(성남),관광지,경기도 성남시 수정구 옛골로42번길 3,37.4257557374277,127.067916747121,,,,,경기 성남시 수정구 옛골로42번길 3
금화상회,관광지,경기 수원시 팔달구 수원천로255번길 6,37.276815687652,127.018660256526,,,,,경기 수원시 팔달구 수원천로255번길 6
금보여인숙,관광지,경기 수원시 팔달구 화서문로72번길 11,37.2854539411963,127.016305091831,,,,,경기 수원시 팔달구 화서문로72번길 11
서북공심돈,관광지,경기 수원시 팔달구 장안동 332,37.2870882901833,127.012189219099,,,,,경기 수원시 팔달구 장안동 332
봉돈,관광지,경기도 수원시 팔달구 정조로 910,37.2888825673565,127.014257988807,,,,,경기 수원시 팔달구 정조로 910
아담스기념관,관광지,경기 수원시 팔달구 매향동 109,37.2839626161209,127.018262041621,,,,,경기 수원시 팔달구 수원천로 342
한국보훈복지의료공단 보훈원,관광지,경기 수원시 장안구 광교산로 97,37.2983742073078,127.026657220382,,,,,경기 수원시 장안구 광교산로 97
칠보생태환경체험교육관,관광지,경기 수원시 권선구 서수원로577번길 225,37.2767409337191,126.944968119193,,,,,경기 수원시 권선구 서수원로577번길 225
오이도 음식문화거리,관광지,경기도 시흥시 뒷방울길 80,37.3716563246172,126.757216118387,,,,,경기 시흥시 뒷방울길 80
대림농장,관광지,경기도 안산시 상록구 팔곡1동 526-1,37.2983544750428,126.894250900208,,,,,경기 안산시 상록구 팔곡일동 526-1
맥아트미술관,관광지,경기 안산시 단원구 부흥로 254,37.2197545826726,126.602419117388,,,,,경기 안산시 단원구 부흥로 254
안산갈대습지공원,관광지,경기도 안산시 상록구 갈대습지로 76,37.2737227465741,126.839755313316,,,,,경기 안산시 상록구 갈대습지로 76
석남사,관광지,경기도 안성시 금광면 상촌새말길 3-120,36.9398021298702,127.307124073702,,,,,경기 안성시 금광면 상촌새말길 3-120
석수동 마애종,관광지,경기도 안양시 만안구 석수1동 산32,37.4194226969671,126.91976955167,,,,,경기 안양시 만안구 석수동 산 32
국립아세안자연휴양림,관광지,경기도 양주시 백석읍 기산로 472,37.7738232870256,126.942177966596,,,,,경기 양주시 백석읍 기산로 472
호현벽화마을,관광지,경기도 안양시 만안구 박달2동,37.4019229300595,126.904622695513,,,,,경기 안양시 만안구 호현동
안양파빌리온,관광지,경기 안양시 만안구 예술공원로 180,37.4194648286771,126.925640360355,,,,,경기 안양시 만안구 예술공원로 180
두래농원,관광지,경기 양주시 원학로147번길 123-33,37.7789271455358,127.06574673209,,,,,경기 양주시 원학로147번길 123-33
양명농원,관광지,경기 양주시 남면 삼육사로327번길 458-43,37.9247350848395,126.987237573683,,,,,경기 양주시 남면 삼육사로327번길 458-43
허브힐,관광지,경기 양주시 남면 양연로 305,37.9352950661741,127.000385396004,,,,,경기 양주시 남면 양연로 305
소리산,관광지,경기도 양평군 단월면 석산리 산24,37.6357355577076,127.614849044678,,,,,경기 양평군 단월면 석산리 산 24
양자산,관광지,경기도 양평군 강하면 성덕리,37.4594758840342,127.425736890446,,,,,경기 양평군 강하면 성덕리
다온양조장,관광지,경기 여주시 북내면 당우1길 28,37.3283325747985,127.680189162209,,,,,경기 여주시 북내면 당우1길 28
기천서원,관광지,경기도 여주시 금사면 뒷머리길 11,37.3924838300339,127.52946962329,,,,,경기 여주시 금사면 뒷머리길 11
세종국악당,관광지,경기도 여주시 영릉로 125,37.296922477043,127.625226578117,,,,,경기 여주시 영릉로 125
서봉서원,관광지,경기 여주시 흥천면 남산로 399,37.3433045259898,127.529378844667,,,,,경기 여주시 흥천면 남산로 399
상호리마을(팜스테이마을),관광지,경기 여주시 금사면 윗범실길 8-3,37.4087505112793,127.474595615036,,,,,경기 여주시 금사면 윗범실길 8-3
마감산산림욕장,관광지,경기 여주시 강천면 걸은리 산1,37.3120630255922,127.73292675946,,,,,경기 여주시 강천면 걸은리 산 1
여주해바라기체험마을,관광지,경기도 여주시 강천면 부평로 368,37.2844632200574,127.740545582372,,,,,경기 여주시 강천면 부평로 368
여주주록리사슴마을,관광지,경기 여주시 금사면 장흥로 94,37.3787318353917,127.478005386907,,,,,경기 여주시 금사면 장흥로 94
주주팜,관광지,경기 여주시 능현1길 73,37.2640462911267,127.652073174187,,,,,경기 여주시 능현1길 73
조선효종영릉재실,관광지,경기도 여주시 능서면,37.3001972675326,127.573501871315,,,,,경기 여주시 세종대왕면
석장리미술관,관광지,경기 연천군 백학면 백왕로225번길 240,38.0539656781568,126.917641798131,,,,,경기 연천군 백학면 백왕로225번길 240
고인돌유아숲체험원,관광지,경기 오산시 수목원로 449,37.1723484420203,127.048950364952,,,,,경기 오산시 수목원로 449
경기도박물관,관광지,경기도 용인시 기흥구 상갈로 6,37.2681878592972,127.108652846473,,,,,경기 용인시 기흥구 상갈로 6
오산감리교회,관광지,경기 오산시 시장길 38,37.1527007532658,127.069571722361,,,,,경기 오산시 시장길 38
손골성지,관광지,경기도 용인시 수지구 동천로437번길 67,37.3442395148356,127.052499754014,,,,,경기 용인시 수지구 동천로437번길 67
레솔레파크,관광지,경기 의왕시 왕송못동로 307,37.3071076256264,126.95314577313,,,,,경기 의왕시 왕송못동로 307
영보사,관광지,경기도 이천시 마장면 서이천로 481-77,37.2665191500814,127.396725265093,,,,,경기 이천시 마장면 서이천로 481-77
고구려밀크스쿨,관광지,경기 파주시 적성면 어못내길 150-45,38.0014363243346,126.9930125837,,,,,경기 파주시 적성면 어못내길 150-45
파주팜랜드,관광지,경기도 파주시 탄현면 새오리로 318-34,37.8100322872074,126.692396620676,,,,,경기 파주시 탄현면 새오리로 318-34
만기사,관광지,경기도 평택시 진위면 진위로 181-82,37.1082783622209,127.101139436737,,,,,경기 평택시 진위면 진위로 181-82
허준선생묘,관광지,경기 파주시 진동면 하포리 산 129,37.9278990534596,126.816198818218,,,,,경기 파주시 진동면 구암로 205
서천사,관광지,경기도 평택시 고덕면 방축4길 22-49,37.015766595344,127.044175351934,,,,,경기 평택시 고덕면 방축4길 22-49
서예마을,관광지,경기 포천시 관인면 초과리 176-3,38.1484770167716,127.242802873113,,,,,경기 포천시 관인면 창동로1754번길 70-25
왕림성당,관광지,경기 화성시 봉담읍 왕림1길 71,37.1946617786885,126.936078978234,,,,,경기 화성시 봉담읍 왕림1길 71
어천저수지,관광지,경기도 화성시 매송면 어사로 47,37.2553968502478,126.914546654355,,,,,경기 화성시 매송면 어사로 47
애니랜드,관광지,경기도 화성시 송산면 지화리 산 70,37.2085693399565,126.666944856747,,,,,경기 화성시 송산면 지화리 산 70
하피랜드,관광지,경기도 화성시 팔탄면 시청로 888,37.1685726772365,126.888518355865,,,,,경기 화성시 팔탄면 시청로 888
하내테마파크,관광지,경기 화성시 서신면 당성로 102,37.1831052695841,126.693873133975,,,,,경기 화성시 서신면 당성로 102
안태울영농조합법인,관광지,경기 양주시 광적면 화합로81번길 375-66,37.8720498457402,126.950574672279,,,,,경기 양주시 광적면 화합로81번길 375-66
안성맞춤 자동차야영장,관광지,경기 안성시 보개면 남사당로 196-31,37.03149828049,127.309175735081,,,,,경기 안성시 보개면 남사당로 196-31
신화가족목공체험 캠핑소,관광지,경기 양평군 강상면 강상로 326,37.4673934560846,127.469119126738,,,,,경기 양평군 강상면 강상로 326
산우물쉼터캠핑장,관광지,경기도 안성시 양성면 산정산우물길 172-16,37.084060616682,127.192841514269,,,,,경기 안성시 양성면 산정산우물길 172-16
로하스 캠핑장,관광지,경기 연천군 중면 군중로 319-46,38.1324490975952,127.025232264505,,,,,경기 연천군 중면 군중로 319-46
땅에미소 오토캠핑장,관광지,경기도 연천군 청산면 거저울길 339,38.0557916811662,127.086352459163,,,,,경기 연천군 청산면 거저울길 339
율곡관광농원 캠핑장,관광지,경기도 안성시 삼죽면 밤고개안길 19-36,37.1021026544376,127.381660505159,,,,,경기 안성시 삼죽면 밤고개안길 19-36
용문산관광지 야영장,관광지,경기도 양평군 용문면 용문산로 684,37.5472918321575,127.579826726852,,,,,경기 양평군 용문면 용문산로 684
여주산촌오토캠핑장,관광지,경기 여주시 금사면 금품1로 552,37.4037827432567,127.491324687923,,,,,경기 여주시 금사면 금품1로 552
가평문화원,관광지,경기도 가평군 가평읍 문화로 131,37.8254310813271,127.506125214946,,,,,경기 가평군 가평읍 문화로 131
갤러리 모자이크,관광지,경기 파주시 탄현면 헤이리마을길 18-28,37.787147755942,126.696340921138,,,,,경기 파주시 탄현면 헤이리마을길 18-28
과천문화원,관광지,경기도 과천시 문원로 40-1,37.4283435834001,127.001794376076,,,,,경기 과천시 문원로 40-1
골드펫글램핑,관광지,경기 용인시 기흥구 기흥단지로 406,37.2210183770953,127.13873812633,,,,,경기 용인시 기흥구 기흥단지로 406
광주조선백자도요지,관광지,경기 광주시 남종면 산수로 1642-1,37.4962574186605,127.303448835049,,,,,경기 광주시 남종면 산수로 1642-1
광이원,관광지,경기 양평군 용문면 용문산로 120-11,37.5074389663119,127.605542358903,,,,,경기 양평군 용문면 용문산로 120-11
광명 영회원,관광지,경기도 광명시 노은사동,37.4399111106327,126.862082332455,,,,,경기 광명시 노온사동 141-20
그린토피아과수마을,관광지,경기 양평군 양서면 골용진길19번길 2-6,37.5573082709338,127.32863088449,,,,,경기 양평군 양서면 골용진길19번길 2-6
꽃주렁나무주렁캠핑장,관광지,경기도 용인시 처인구 이동읍 경기동로1024번길 40,37.1143321732368,127.210089135777,,,,,경기 용인시 처인구 이동읍 경기동로1024번길 40
꽃과 나무 캠핑장,관광지,경기 광주시 오포읍 고산리 573-1,37.3743775314849,127.211576787778,,,,,경기 광주시 고산동 573-1
도당공원,관광지,경기도 부천시 소사로593번길 124,37.5165352039122,126.79223580294,,,,,경기 부천시 원미구 도당동 산 25-5
명성산글램핑,관광지,경기도 포천시 영북면 산정호수로 1017,38.090160603678,127.319680627273,,,,,경기 포천시 영북면 산정호수로 1017
비산동 석실분,관광지,경기도 안양시 동안구 비산동 488,37.4249218321617,126.921038398989,,,,,경기 안양시 만안구 석수동 236-9
서호(축만제),관광지,경기 수원시 팔달구 화서동 436-1,37.2784690064904,126.989348715301,,,,,경기 수원시 팔달구 수성로100번길 64
서봉사 현오국사탑비,관광지,경기도 용인시 수지구 신봉동 산110,37.3370778730353,127.039741039448,,,,,경기 용인시 수지구 신봉동 산 110
수원시기후변화체험교육관 두드림,관광지,경기 수원시 권선구 호매실로 46-38,37.2578411245972,126.968647578047,,,,,경기 수원시 권선구 호매실로 46-38
솔밭펜션캠핑장,관광지,경기도 가평군 조종면 운악청계로371번길 58-34,37.8532048680436,127.350715319874,,,,,경기 가평군 조종면 운악청계로371번길 58-34
시화호 환경학교,관광지,경기 화성시 송산면 공룡로940번길 27,37.2886737594346,126.740830590609,,,,,경기 화성시 송산면 공룡로940번길 27
신갈승마클럽,관광지,경기도 용인시 기흥구 지삼로201번길 9,37.2410805811883,127.136295117458,,,,,경기 용인시 기흥구 지삼로201번길 9
시흥오이도선사유적공원,관광지,경기도 시흥시 서해안로 81-30,37.3410248054735,126.697769663418,,,,,경기 시흥시 서해안로 81-30
양평친환경농업박물관,관광지,경기도 양평군 용문면 용문산로 670,37.5476051694784,127.581224756163,,,,,경기 양평군 용문면 용문산로 670
여주 카라반 체험장,관광지,경기 여주시 점동면 선사길 321,37.2380775682016,127.68418895767,,,,,경기 여주시 점동면 선사길 321
오리서원,관광지,경기 광명시 오리로 287,37.4285142121994,126.880495909351,,,,,경기 광명시 오리로 287
용수 그린랜드,관광지,경기도 가평군 조종면 운악청계로491번길 87,37.8538284185379,127.347828160221,,,,,경기 가평군 조종면 운악청계로491번길 87
율곡 캠핑장,관광지,경기도 파주시 파평면 장승배기로 390-217,37.8917671834994,126.828783127908,,,,,경기 파주시 파평면 장승배기로 390-217
유진오박사 생가터,관광지,경기도 하남시 상산곡동 512-2번지,37.492377181963,127.23157547185,,,,,경기 하남시 상산곡동 512-2
임진각 장단역 증기기관차,관광지,경기도 파주시 문산읍 마정리 1400-5,37.8905522895282,126.736605589768,,,,,경기 파주시 문산읍 마정리 1400-5
주먹도끼로 세계를 놀라게 한 연천,관광지,경기도 연천군,38.0965222523366,127.075355784687,,,,,경기 연천군
청련암,관광지,경기도 수원시 장안구 수일로 335 청련암,37.3010207287628,127.022792355511,,,,,경기 수원시 장안구 수일로 335
청담관광농원 (캠핑플래닛),관광지,경기 포천시 화현면 봉화로 400-134,37.886251877806,127.285286779499,,,,,경기 포천시 화현면 봉화로 400-134
철마산,관광지,경기도 남양주시 진접읍,37.7263004861765,127.189886481276,,,,,경기 남양주시 진접읍
캠프오후4시,관광지,경기도 포천시 군내면 청군로2864번길 22,37.8693511828261,127.251090244343,,,,,경기 포천시 군내면 청군로2864번길 22
캠프리카캠핑장,관광지,경기도 양주시 백석읍 기산로440번길 147,37.7702646310899,126.939084345712,,,,,경기 양주시 백석읍 기산로440번길 147
카라반랜드,관광지,경기도 안산시 단원구 수영목길 27-75,37.215404457426,126.595321665384,,,,,경기 안산시 단원구 수영목길 27-75
추읍산,관광지,경기도 양평군 용문면 삼성리,37.4725939977606,127.575562618822,,,,,경기 양평군 용문면 삼성리
추억만들기캠핑장,관광지,경기도 여주시 북내면 중암1길 4,37.3486813683392,127.716494115516,,,,,경기 여주시 북내면 중암1길 4
초막골생태공원가족캠핑장,관광지,경기 군포시 초막골길 130,37.3473669790763,126.918131824485,,,,,경기 군포시 초막골길 130
통진두레문화센터,관광지,경기도 김포시 통진읍 김포대로 2347-8,37.695785045613,126.586972150992,,,,,경기 김포시 통진읍 김포대로 2347-8
통일공원,관광지,경기도 파주시 파주읍 통일로 1586-24,37.8490943987403,126.789889442156,,,,,경기 파주시 파주읍 통일로 1586-24
토토큰바위캠프,관광지,경기 가평군 북면 화악산로 1246,37.9621769153323,127.527880067543,,,,,경기 가평군 북면 화악산로 1246
토아트갤러리,관광지,경기 이천시 신둔면 경충대로 3189,37.3106765146058,127.400787230568,,,,,경기 이천시 신둔면 경충대로 3189
탄도항 노을펜션 캠핑장,관광지,경기도 안산시 단원구 대부황금로 17-2,37.194418167409,126.645474890885,,,,,경기 안산시 단원구 대부황금로 17-2
탄도어촌체험마을,관광지,경기도 안산시 단원구 대부황금로 17-34,37.1933222115268,126.645380900779,,,,,경기 안산시 단원구 대부황금로 17-34
탄도 바닷길,관광지,경기도 안산시 단원구 대부황금로 7 안산어촌민속전시관,37.1925072623148,126.6461205161,,,,,경기 안산시 단원구 대부황금로 7
클럽노블픽,관광지,경기도 가평군 청평면 모꼬지로 154,37.6896794936404,127.369249869978,,,,,경기 가평군 청평면 모꼬지로 154
캡틴카라반&글램핑,관광지,경기도 가평군 상면 청군로 776-22,37.7806519031869,127.371329195781,,,,,경기 가평군 상면 청군로 776-22
파평용연,관광지,경기도 파주시 파평면 늘노리 385-1,37.9285543224681,126.846304776351,,,,,경기 파주시 파평면 눌노리 385-1
파주장단콩전시관,관광지,경기 파주시 문산읍 임진각로 148-73,37.8914503150005,126.740279546575,,,,,경기 파주시 문산읍 임진각로 148-73
한탄강관광지 오토캠핑장,관광지,경기도 연천군 전곡읍 선사로 76,38.0088769865378,127.058860391302,,,,,경기 연천군 전곡읍 선사로 76
한재당,관광지,경기도 김포시 하성면 가금로111번길 107,37.7481516436903,126.608598041077,,,,,경기 김포시 하성면 가금로111번길 107
한송캠핑장,관광지,경기 가평군 설악면 묵안로 1012,37.6013263607591,127.535062506394,,,,,경기 가평군 설악면 묵안로 1012
한송오토캠핑장,관광지,경기도 가평군 설악면 묵안리 171-4,37.6013913018548,127.534947578263,,,,,경기 가평군 설악면 묵안로 1012
한국기독교순교자기념관,관광지,경기 용인시 처인구 양지면 추계로 235,37.257946384995,127.302578400412,,,,,경기 용인시 처인구 양지면 추계로 235
학교안 풍경캠핑장,관광지,경기도 파주시 법원읍 수작골길 273,37.9150579621839,126.90872269058,,,,,경기 파주시 법원읍 수작골길 273
플레이아쿠아리움부천,관광지,경기 부천시 조마루로 2,37.4994278588911,126.744079457256,,,,,경기 부천시 원미구 조마루로 2
화령전,관광지,경기도 수원시 팔달구 신풍로23번길 15 (신풍동),37.2832997567729,127.012430713558,,,,,경기 수원시 팔달구 신풍로23번길 15
