name,category,address,lat,lng,benefitValue,discountPercent,benefit_source_url,benefit_note,address_enriched
센트럴파크,놀거리,인천광역시 연수구 송도동 24-5,37.39036508,126.6435679,,,,,인천광역시연수구 컨벤시아대로 160
해돋이공원,놀거리,인천광역시 연수구 송도동 5-1,37.38582193,126.6590477,,,,,인천광역시 연수구 해돋이로 7
미추홀공원,놀거리,인천광역시 연수구 송도동 9-1,37.38238717,126.6494992,,,,,인천광역시 연수구 해송로 59 (송도동)
새아침공원,놀거리,인천광역시 연수구 송도동 2-1,37.39798134,126.6536494,,,,,인천광역시 연수구 컨벤시아대로 43
신송공원,놀거리,인천광역시 연수구 송도동 3-41,37.39049361,126.6584207,,,,,인천광역시 연수구 해돋이로38번길 39
달빛공원,놀거리,인천광역시 연수구 송도동 1,37.39543995,126.6593123,,,,,인천광역시 연수구 아암대로 764
달빛축제공원,놀거리,인천광역시 연수구 송도동 26-1,37.40785375,126.6325097,,,,,인천광역시 연수구 센트럴로 350
솔찬공원,놀거리,인천광역시 연수구 송도동 12-8,37.3725361,126.6278979,,,,,인천광역시 연수구 컨벤시아대로391번길 20
씨사이드파크,놀거리,인천광역시 중구 운남동 1640-1,37.47860421,126.5571779,,,,,인천광역시 중구 영종대로 842-58
청라호수공원,놀거리,인천광역시 서구 청라동 106-2,37.5306152,126.6362978,,,,,인천광역시 서구 크리스탈로 59
인천대공원,놀거리,인천광역시 남동구 장수동 산78,37.45859492,126.7519687,,,,,인천광역시 남동구 무네미로 238
소래습지생태공원,놀거리,인천광역시 남동구 논현동 1-17,37.40736572,126.7463366,,,,,인천광역시 남동구 소래로154번길 77
중앙공원,놀거리,인천광역시 미추홀구 관교동 14,37.44190585,126.6996904,,,,,인천광역시 미추홀구 예술로 85
남항공원,놀거리,인천광역시 중구 신흥동3가 69,37.43534683,126.6286205,,,,,인천광역시 중구 서해대로94번길 93
장미공원,놀거리,인천광역시 연수구 연수동 137-3,37.42663202,126.6778426,,,,,인천광역시 연수구 함박안로 27
월미공원,놀거리,인천광역시 중구 북성동1가 99,37.47110094,126.6038829,,,,,인천광역시 중구 월미로 419
계양근린공원,놀거리,인천광역시 계양구 계산동 산52-1,37.550131,126.7233835,,,,,"인천광역시 계양구 계양산로75번길 26 (계산동, 계양공원관리소)"
연희근린공원,놀거리,인천광역시 서구 연희동 산129,37.54285215,126.6628278,,,,,인천광역시 서구 봉수대로 755
경명공원,놀거리,인천광역시 서구 연희동 200,37.5508632,126.6696767,,,,,인천광역시 서구 승학로333번길 34
장고개근린공원,놀거리,인천광역시 서구 가좌동 산150-3,37.49474058,126.6911607,,,,,인천광역시 서구 장고개로 390
마전근린공원,놀거리,인천광역시 서구 왕길동 산106-4,37.59770496,126.6604742,,,,,인천광역시 서구 완정로133번길 17-9
검단선사박물관,놀거리,인천광역시 서구 원당동 824-11,37.59444584,126.6986824,,,,,인천광역시 서구 고산후로121번길 7
송암미술관,놀거리,인천광역시 미추홀구 학익동 587-145,37.4344431,126.6422184,,,,,인천광역시 미추홀구 비류대로55번길 68
한국이민사박물관,놀거리,인천광역시 중구 북성동1가 102-2,37.47014308,126.6002711,,,,,인천광역시 중구 월미로 329
인천도시역사관,놀거리,인천광역시 연수구 송도동 24-7,37.39281282,126.6358893,,,,,인천광역시 연수구 인천타워대로 238
인천광역시립박물관,놀거리,인천광역시 연수구 옥련동 525,37.42070925,126.6531798,,,,,인천광역시 연수구 청량로160번길 26
인천락실내바다낚시터,놀거리,인천광역시 서구 백석동 212-70,37.58068301,126.6585443,,,,,인천광역시 서구 한서로 36-10
디스커버리 클라이밍스퀘어ICN,놀거리,인천광역시 서구 마전동 999-4,37.59806448,126.6673291,,,,,인천광역시 서구 완정로 70
선두포저수지,놀거리,(화도면),37.63364841,126.4639578,,,,,인천광역시 강화군 화도면 덕포길
강화도 황청낚시터,놀거리,인천광역시?강화군?내가면?황청리 541-1,37.71419283,126.3647036,,,,,인천광역시 강화군 내가면 황청포구로443번길 82
[강화 나들길 제3코스] 고려왕릉 가는 길,놀거리,인천광역시 강화군 강화읍?신문리 254-8,37.74582454,126.4822613,,,,,인천광역시 강화군 강화읍 청하동길 24
[인천 개항 누리길] 3시간 코스,놀거리,인천광역시?중구?해안동1가 1-5 인천아트플랫폼,37.47260602,126.6205007,,,,,인천광역시 중구 제물량로218번길 3 (해안동1가)
강화 버팔로 캠팜,놀거리,인천광역시?강화군?하점면?삼거리 771-7,37.75481676,126.4151895,,,,,인천광역시 강화군 하점면 고려산로 329-74
롤러스타 롤러스케이트장,놀거리,인천광역시 연수구 청학동 496-4 연수광장프라자 7층,37.41768562,126.6772304,,,,,인천광역시 연수구 벚꽃로 106(청학동)
비비스타디움,놀거리,인천광역시 부평구 삼산동 459-1 삼산동 이리움프라자 4층,37.50835944,126.7348282,,,,,인천광역시 부평구 체육관로 30 (삼산동)
함허동천야영장,놀거리,인천광역시?강화군?화도면?사기리 340-2,37.61138692,126.4526206,,,,,인천광역시 강화군 화도면 해안남로1196번길 38
검디관광농원캠핑장,놀거리,인천광역시?강화군?길상면?동검리 127-15,37.5870297,126.5127602,,,,,인천광역시 강화군 길상면 동검길 159-47
스티라요가,놀거리,인천광역시?중구?운서동 3060-34,37.4936975,126.500014,,,,,인천 중구 운서로7번길 5
인천문학경기장 스노우파크,놀거리,인천광역시 미추홀구 문학동 482 문학경기장,37.43663088,126.6905648,,,,,인천광역시 미추홀구 매소홀로 618
영종씨사이드캠핑장,놀거리,인천광역시 중구 운남동 1640-1 씨사이드 텐트캠핑장 관리사무실,37.47241823,126.523779,,,,,인천광역시 중구 큰말로 25
십리포해수욕장야영장,놀거리,인천광역시?옹진군?영흥면?내리 724-195 샤워장,37.28198414,126.4862877,,,,,인천광역시 옹진군 영흥면 영흥북로 388-1
황산초지바다낚시터,놀거리,,37.62025678,126.5352239,,,,,인천광역시 강화군 길상면 초지리 1325-60
황산레저바다낚시터,놀거리,인천광역시?강화군?길상면?초지리 1323 황산레저바다낚시터,37.6181987,126.5359878,,,,,인천광역시 강화군 길상면 해안남로117번길 5
[인천 개항 누리길] 1시간 코스,놀거리,인천광역시?중구?해안동1가 1-5 인천아트플랫폼,37.47260602,126.6205007,,,,,인천광역시 중구 제물량로218번길 3 (해안동1가)
영흥도어울림캠핑장,놀거리,인천광역시?옹진군?영흥면 내리 1327-93,37.28276406,126.4552294,,,,,인천광역시 옹진군 영흥서로 452-67
하늘빛,놀거리,인천광역시?옹진군?영흥면 내리 1659-2,37.27446777,126.4536992,,,,,인천광역시 옹진군 영흥서로 527-26
글램조이,놀거리,인천광역시?강화군?양도면 건평리 463-12,37.68883512,126.3898603,,,,,인천광역시 강화군 해안서로 689
영흥도농어바위캠핑장,놀거리,인천광역시?옹진군?영흥면?내리 1326-123,37.28185312,126.4587819,,,,,인천광역시 옹진군 영흥면 영흥서로 420-19
바다로글램핑,놀거리,인천광역시?강화군?화도면?장화리 467-4,37.62182326,126.3768883,,,,,인천광역시 강화군 화도면 해안남로 2421-228
인천 성창포길 (인천둘레길 12코스),놀거리,인천광역시 동구 송현동 99-14,37.47655579,126.6337744,,,,,인천광역시 동구 화도진로44번길 1
[인천 개항 누리길] 2시간 코스,놀거리,인천광역시?중구?해안동1가 1-5 인천아트플랫폼,37.47260602,126.6205007,,,,,인천광역시 중구 제물량로218번길 3 (해안동1가)
파라다이스 카지노 파라다이스시티,놀거리,인천광역시?중구?운서동 2874,37.43726279,126.4557806,,,,,인천광역시 중구 영종해안남로321번길 186
인천문학경기장(인천월드컵경기장),놀거리,인천광역시?미추홀구?문학동 482?문학경기장,37.43733636,126.6907314,,,,,인천광역시 미추홀구 매소홀로 618 문학경기장
인천동구청소년수련관,놀거리,인천광역시?동구?송림동 56-1?동구청소년수련관,37.47605045,126.6425597,,,,,인천광역시 동구 솔빛로 82
계양경기장 아시아드양궁장,놀거리,인천광역시?계양구?서운동 207 계양경기장,37.53251513,126.7438989,,,,,인천광역시 계양구 봉오대로 855
인천SSG랜더스필드,놀거리,인천광역시?미추홀구?문학동 482 문학경기장,37.43825291,126.690437,,,,,인천광역시 미추홀구 매소홀로 618 (문학동)
덕산국민여가캠핑장,놀거리,인천광역시?강화군?내가면?고천리 산494,37.71753717,126.3805742,,,,,인천광역시 강화군 내가면 강화서로227번길 91
강화레포츠파크,놀거리,인천광역시?강화군?불은면?삼성리 산28,37.71485821,126.4538676,,,,,인천광역시 강화군 불은면 중앙로 546-34
경인아라뱃길 아라파크웨이마당,놀거리,인천광역시?계양구?평동 35-1 경인아라뱃길 홍보마당 공중화장실,37.58262646,126.7720088,,,,,인천광역시 계양구 정서진로 1559
모모카라반,놀거리,인천광역시?옹진군?영흥면?내리 1542-10 모모카라반,37.26736849,126.4476916,,,,,인천광역시 옹진군 영흥면 영흥로757번길 176
서포리웰빙삼림욕산책로,놀거리,인천광역시?옹진군?덕적면?서포리 산134-30,37.22309015,126.1173201,,,,,인천광역시 옹진군 덕적면 덕적남로606번길 6
남동25시야구센터,놀거리,인천광역시?남동구?수산동 42-2,37.44335297,126.7270668,,,,,인천광역시 남동구 경신로60번길 22 (수산동)
예단포둘레길,놀거리,인천광역시?중구?운북동 1264-1 운북어촌계 어항편익시설,37.53123879,126.502196,,,,,인천광역시 중구 예단포1로 2-10 (운북동)
계양경기장 계양체육관,놀거리,인천광역시?계양구?서운동 207 계양경기장,37.53251513,126.7438989,,,,,인천광역시 계양구 봉오대로 855
계양경기장,놀거리,인천광역시?계양구?서운동 207 계양경기장,37.53251513,126.7438989,,,,,인천광역시 계양구 봉오대로 855
강화루지(강화씨사이드리조트),놀거리,인천광역시?강화군?길상면?선두리 산343-2,37.61717593,126.4981274,,,,,인천광역시 강화군 길상면 장흥로 217
[DMZ 평화의 길] 강화평화전망대 코스,놀거리,인천광역시 강화군 강화읍 갑곳리 1040 강화역사관,37.73373489,126.5164585,,,,,인천광역시 강화군 강화읍 해안동로1366번길 18
청라해변공원캠핑장,놀거리,인천광역시?서구?청라동 12-5,37.53898155,126.6155549,,,,,인천광역시 서구 첨단서로 190
양오낚시터,놀거리,인천광역시?강화군?송해면?양오리 134-4,37.80018419,126.4438578,,,,,인천광역시 강화군 송해면 전망대로423번길 161
두리생태공원오토캠핑장,놀거리,인천광역시?계양구?귤현동 531 계양센트레빌 1단지,37.57047217,126.7635183,,,,,인천광역시 계양구 형제봉길 100
씨스테이글램핑,놀거리,인천광역시?옹진군?영흥면?내리 1212-14,37.28419196,126.4717417,,,,,인천광역시 옹진군 영흥면 영흥서로380번길 101-79
트리캠핑장,놀거리,인천광역시 옹진군 영흥면 선재리 644-32,37.25685422,126.5149969,,,,,인천광역시 옹진군 영흥면 선재로306번길 27-55
승봉 힐링 캠핑장,놀거리,인천광역시?옹진군?자월면?승봉리 771-1,37.1723488,126.295968,,,,,인천 옹진군 자월면 승봉로29번길 90
스쿠바몰,놀거리,인천광역시 부평구 부개동 477-3 뉴서울아파트,37.50642357,126.7359865,,,,,인천광역시 부평구 충선로 191
인천시송도국제캠핑장,놀거리,인천광역시 연수구 송도동 221-2,37.36164991,126.6458959,,,,,인천광역시 연수구 지식기반로 60
실미유원지,놀거리,인천광역시 중구 무의동 768-18,37.40261869,126.4038974,,,,,인천광역시 중구 큰무리로 99
길정 낚시터,놀거리,인천광역시?강화군?양도면?길정리 160-1,37.66381716,126.4661845,,,,,인천광역시 강화군 양도면 고려왕릉로 209
연경산배드민턴장,놀거리,인천광역시 미추홀구 학익동 98 등나무집,37.4373749,126.6715471,,,,,인천광역시 미추홀구 매소홀로446번길 54
선두바다낚시터,놀거리,인천광역시?강화군?길상면?선두리 976-25,37.60004726,126.4921062,,,,,인천광역시 강화군 길상면 해안남로 673-15
소래바다낚시터,놀거리,인천광역시?남동구?논현동 33-14,37.40695465,126.7404722,,,,,인천광역시 남동구 소래로154번길 25-40
왕산가족오토캠핑장,놀거리,인천광역시?중구?을왕동 810-105 왕산가족오토캠핑장,37.45820324,126.366216,,,,,인천광역시 중구 용유서로423번길 60
영남스포츠월드,놀거리,인천광역시?연수구?연수동 577?영남스포츠센터,37.41942994,126.6816966,,,,,인천광역시 연수구 새말로107번길 16 영남스포츠센터
검단수로,놀거리,(오류동),37.59041682,126.5926278,,,,,인천광역시 서구 오류동 1460
렛츠고 강화캠핑,놀거리,인천광역시?강화군?화도면?장화리 945-20,37.62053783,126.4068662,,,,,인천광역시 강화군 화도면 동녘말길 238-7
자바카라반,놀거리,인천광역시?옹진군?영흥면?선재리 197,37.2348376,126.5304072,,,,,인천광역시 옹진군 영흥면 선재로 61-1
원스캠핑장,놀거리,인천광역시?강화군?삼산면 매음리 544-1,37.67694117,126.3387292,,,,,인천광역시 강화군 삼산남로604번길 37
하늘정원캠핑장,놀거리,인천광역시?강화군?길상면?동검리 17-14,37.5962759,126.5160319,,,,,인천광역시 강화군 길상면 동검길 21-1
얏호캠핑장,놀거리,인천광역시?강화군?길상면?동검리 158-6,37.58680747,126.5108715,,,,,인천광역시 강화군 길상면 동검길 159-27
솔밭캠핑장,놀거리,인천광역시?옹진군?영흥면?내리 1333-205,37.27194033,126.4560213,,,,,인천광역시 옹진군 영흥면 영흥로 708-26
강화캐라반캠핑장,놀거리,인천광역시?강화군?화도면?내리 2181-1,37.63594379,126.373991,,,,,인천광역시 강화군 화도면 해안남로 2669
서해캠핑장,놀거리,인천광역시 중구 을왕동 810-108 신안횟집,37.45765055,126.367952,,,,,인천광역시 중구 용유서로423번길 47
창후리수로,놀거리,,37.76084023,126.368388,,,,,인천광역시 강화군 하점면 창후리 1237
에제르파크,놀거리,인천광역시?남동구?장수동 142,37.45707995,126.7719568,,,,,인천광역시 남동구 만의골로 155
블랙트리캠핑,놀거리,인천광역시?옹진군?영흥면?내리 1527-17,37.26427996,126.4477889,,,,,인천광역시 옹진군 영흥면 영흥로757번길 234-13
민머루잼머,놀거리,인천광역시?강화군?삼산면?매음리 897-1,37.65374106,126.3364439,,,,,인천광역시 강화군 삼산면 어류정길198번길 6
오크힐글램핑,놀거리,인천광역시?강화군?화도면?흥왕리 914-9,37.60439811,126.4108301,,,,,인천광역시 강화군 화도면 해안남로1998번길 8-28
노을캠핑장,놀거리,인천광역시?강화군?양도면?건평리 463-2,37.68937949,126.3892881,,,,,인천광역시 강화군 양도면 해안서로 695
강화도아침,놀거리,인천광역시?강화군?길상면?선두리 843-68,37.61454256,126.4784292,,,,,인천광역시 강화군 길상면 해안남로 860-2
인천그랜드CC,놀거리,인천광역시 서구 원창동 380 임광그랜드컨트리클럽,37.51384603,126.6411672,,,,,인천광역시 서구 원석로 195
강화 자전거 관광코스,놀거리,(강화읍),37.74645791,126.488033,,,,,인천광역시 강화군 강화읍
골든에잇배팅센터,놀거리,인천광역시 남동구 고잔동 535-3,37.38875905,126.7127336,,,,,인천광역시 남동구 논현고잔로54번길 15-17
옥련국제사격장,놀거리,인천광역시?연수구?옥련동 646 옥련국제사격장,37.43316118,126.6533655,,,,,인천광역시 연수구 독배로172번길 142 (옥련동)
인천실탄사격장,놀거리,인천광역시 연수구 송도동 179-4 더샵 송도엘테라스 2층 216호,37.3777524,126.6641192,,,,,인천 연수구 연구단지로55번길 16
송도코마린EASTBOATHOUSE,놀거리,인천광역시 연수구 송도동 24-5 보트하우스1,37.39039931,126.6435981,,,,,인천광역시 연수구 컨벤시아대로 160
을왕리 솔트 캠핑장,놀거리,인천광역시?중구?을왕동 810-95,37.45770612,126.3689519,,,,,인천광역시 중구 용유서로423번길 38
연수드림필드,놀거리,,37.40064007,126.6593464,,,,,인천광역시 연수구 동춘동 913-51
용담바다낚시터,놀거리,,37.24155252,126.475237,,,,,인천광역시 옹진군 영흥면 외리 21
강화도교동아일랜드카라반,놀거리,인천광역시?강화군?교동면?읍내리 6-5,37.7727821,126.3007606,,,,,인천광역시 강화군 교동면 교동남로 275
만정캠핑장,놀거리,인천광역시 중구 중산동 1853 만정낚시터,37.51546924,126.5499393,,,,,인천광역시 중구 영종순환로 279-20
씨사이드힐캠핑장,놀거리,인천광역시?강화군?화도면?내리 2165-18,37.63475228,126.3751687,,,,,인천광역시 강화군 화도면 해안남로 2680-12
천혜사랑바다낚시터,놀거리,인천광역시?중구?중산동?1125-13,37.51023771,126.5656521,,,,,인천광역시 중구 중산로 124 (중산동)
섬뜰아래,놀거리,인천광역시?중구?무의동 276-2,37.39619758,126.4248402,,,,,인천광역시 중구 대무의로 229
베어즈베스트청라GC,놀거리,인천광역시?서구?청라동 9-90,37.54871411,126.6359833,,,,,인천광역시 서구 청라대로316번길 45
청라해변공원캠핑장,놀거리,인천광역시?서구?청라동 12-5,37.5385442,126.6155454,,,,,인천 서구 첨단서로 190
교동도 고구저수지,놀거리,,37.79840957,126.2951473,,,,,인천 강화군 교동면 고구리 73
황산바다좌대낚시터,놀거리,인천광역시?강화군?길상면?초지리 1328-65,37.619793,126.5384458,,,,,인천광역시 강화군 길상면 해안남로117번길 29-18
씨스카이월드 짚라인,놀거리,인천광역시?중구?무의동 산189,37.3850903,126.4110056,,,,,인천광역시 중구 하나개로 140
삼성낚시터,놀거리,인천광역시?강화군?불은면?삼성리 993-2,37.69955421,126.4406553,,,,,인천광역시 강화군 불은면 중앙로755번길 49
만정바다좌대낚시터,놀거리,인천광역시 중구 중산동 1853 만정낚시터,37.51500267,126.5522725,,,,,인천광역시 중구 영종순환로 279-20
동검레저바다낚시,놀거리,인천광역시 강화군 길상면 동검리 110,37.58627437,126.5206206,,,,,인천광역시 강화군 길상면 동검길65번길 93-6
솔바다캠핑장,놀거리,인천광역시?옹진군?영흥면?내리 1665-4,37.27468163,126.453277,,,,,인천광역시 옹진군 영흥면 영흥서로 527-14
왕산요트경기장,놀거리,인천광역시?중구?을왕동 980-1,37.45775592,126.357814,,,,,인천광역시 중구 왕산마리나길 143
강화나들길11코스(석모도바람길),놀거리,인천광역시 강화군 삼산면 석포리 525-5,37.69355361,126.3665567,,,,,인천광역시 강화군 삼산면 삼산북로 14
황산도캠핑장,놀거리,인천광역시?강화군?길상면?초지리 1328-2 대나무집,37.62136226,126.5383624,,,,,인천광역시 강화군 길상면 해안남로65번길 36-15
선재오토캠핑장,놀거리,인천광역시?옹진군?영흥면?선재리 491-9,37.2492303,126.5263349,,,,,인천광역시 옹진군 영흥면 선재로186번길 86-22
솔바다캠핑장,놀거리,,37.27468163,126.453277,,,,,인천광역시 옹진군 영흥면 내리 1665-48
뮤즈캠핑장,놀거리,인천광역시?강화군?강화읍?국화리 740-1,37.73714435,126.4451233,,,,,인천광역시 강화군 강화읍 고비고개로 322
명성가족캠핑촌,놀거리,인천광역시?옹진군?영흥면?내리 1335-8 명성리조텔,37.27299854,126.4560435,,,,,인천광역시 옹진군 영흥면 영흥로722번길 39
헬로 카라반,놀거리,인천광역시?강화군?삼산면?매음리?897,37.65344942,126.3362106,,,,,인천광역시 강화군 삼산면 어류정길198번길 8
행복한 소풍 캠핑장,놀거리,인천광역시?강화군?화도면?내리 1532-1,37.63847729,126.4002941,,,,,인천광역시 강화군 화도면 마니산로 902-11
강화캠핑파크,놀거리,인천광역시?강화군?길상면?초지리 1140-4 강화생태문화체험학교초,37.62660849,126.5163532,,,,,인천광역시 강화군 길상면 신촌로146번길 14-11
햇솔오토캠핑장,놀거리,인천광역시 강화군 길상면 선두리 907-3,37.60676022,126.4831901,,,,,인천광역시 강화군 길상면 해안남로 760-22
포레스트 카라반 파크,놀거리,인천광역시?옹진군?영흥면?내리 1153-19,37.26734085,126.455177,,,,,인천광역시 옹진군 영흥면 영흥로643번길 22
영흥도십리포캠핑장,놀거리,인천광역시?옹진군?영흥면 내리 674?조경공사,37.27973441,126.4867571,,,,,인천광역시 옹진군 영흥북로 360 조경공사
송도스포츠파크,놀거리,인천광역시?연수구?송도동 380 송도종합스포츠센터,37.3514034,126.6185598,,,,,인천광역시 연수구 인천신항대로892번길 40
인천광역시 미추홀구 청소년수련관,놀거리,인천광역시?미추홀구?숭의동 131-6?미추홀구청소년수련관,37.46322705,126.6483679,,,,,인천광역시 미추홀구 경인로42번길 23 미추홀구청소년수련관
인천승마공원,놀거리,인천광역시?남동구?장수동 25-1,37.46262098,126.7723733,,,,,인천광역시 남동구 만의골로 225
문학박태환수영장,놀거리,인천광역시?미추홀구?문학동 482 문학경기장,37.43825291,126.690437,,,,,인천광역시 미추홀구 매소홀로 618 (문학동)
인천승마장,놀거리,인천광역시?남동구?장수동 444-28?인천승마장,37.45801829,126.747634,,,,,인천광역시 남동구 무네미로 219 인천승마장
만정사계절바다낚시터,놀거리,인천광역시?중구?중산동 1853 만정낚시터,37.51500267,126.5522725,,,,,인천광역시 중구 영종순환로 279-20
아르보리아파크 캠핑장,놀거리,인천광역시?강화군?길상면?장흥리 211-75,37.61047132,126.5074461,,,,,인천광역시 강화군 길상면 장흥로101번길 65
강화나들 8코스,놀거리,인천광역시?강화군?길상면?초지리 1251-308 초지진관광안내소,37.63266362,126.5322738,,,,,인천광역시 강화군 길상면 해안동로 58
스톤캠핑장,놀거리,인천광역시?강화군?하점면 신삼리 177-1,37.75469722,126.4089845,,,,,인천광역시 강화군 고려산로377번길 31
바다캠핑장,놀거리,인천광역시?강화군?화도면?장화리 1122-1,37.61338823,126.3822131,,,,,인천광역시 강화군 화도면 해안남로 2355-7
마리원캠핑장,놀거리,"인천광역시?강화군?길상면?장흥리 206-5 팜스토리(주), 마리원",37.61547913,126.5106318,,,,,인천광역시 강화군 길상면 장흥로101번길 6
하랑캠핑장,놀거리,,37.71138805,126.3898541,,,,,인천광역시 강화군 내가면 고천리 1259-14
현대요트 인천,놀거리,인천광역시 중구 을왕동 980-1,37.45775313,126.3571113,,,,,인천광역시 중구 왕산마리나길 143 (을왕동)
청라호수공원 환상의 숲 놀이터,놀거리,인천광역시?서구?청라동?106-2?청라국제도시 야외음악당,37.53289095,126.6358338,,,,,인천광역시 서구 청라동 106-2
문라이트캠핑장,놀거리,인천광역시?강화군?길상면?선두리 977-23,37.60164708,126.4922867,,,,,인천광역시 강화군 길상면 해안남로 656
오렌지듄스 GC,놀거리,인천광역시?연수구?송도동 347 오렌지듄스 골프장,37.35404985,126.5920011,,,,,인천광역시 연수구 인천신항대로 1120
돌담캠핑가든,놀거리,인천광역시?강화군?삼산면 석모리 111-23,37.70125759,126.3282434,,,,,인천광역시 강화군 삼산북로 397-1
바다다 캠핑장,놀거리,인천광역시?강화군?화도면?내리?2146-2,37.63638551,126.3798293,,,,,인천광역시 강화군 화도면 내리 2146-2
갈매기배낚시,놀거리,인천광역시?동구?만석동 2-183,37.48768764,126.6229918,,,,,인천광역시 동구 보세로 6-1
인천 올림픽기념국민생활관,놀거리,인천광역시?남동구?구월동 1246 올림픽국민생활체육관,37.45742897,126.7189116,,,,,인천광역시 남동구 구월로 251
[강화 나들길 제7코스] 낙조보러 가는 길,놀거리,인천광역시?강화군?강화읍?신문리 254-8,37.74582454,126.4822613,,,,,인천광역시 강화군 강화읍 청하동길 24
영종도힐링캠프,놀거리,인천광역시?중구?을왕동 678-179,37.43966674,126.3794598,,,,,인천광역시 중구 선녀바위로 70
동검도노을캠핑장,놀거리,인천광역시?강화군?길상면?동검리 165-1,37.5874657,126.5096271,,,,,인천광역시 강화군 길상면 동검길 159-13
부자캠핑장,놀거리,인천광역시?강화군?삼산면?상리 12-2,37.7432079,126.3082524,,,,,인천광역시 강화군 삼산면 상리길281번길 93
강화도산들애캠핑수영장,놀거리,인천광역시?강화군?강화읍?국화리 344-1,37.74094417,126.4602274,,,,,인천광역시 강화군 강화읍 고비고개로 171
오류내낚시터,놀거리,인천광역시?강화군?송해면?하도리 산156,37.75941138,126.4558912,,,,,인천광역시 강화군 송해면 오류내길51번길 44
계산국민체육센터,놀거리,인천광역시?계양구?계산동 907-2 계산국민체육센타,37.54613828,126.7291749,,,,,인천광역시 계양구 주부토로 580
강화도,놀거리,(강화읍),37.73554586,126.5201804,,,,,인천광역시 강화군 강화읍 강화대로
나인승마클럽,놀거리,인천광역시 계양구 방축동 72-1 나인승마,37.55695098,126.7329048,,,,,인천광역시 계양구 방축로76번길 61
인천대공원 사계절썰매장,놀거리,인천광역시?남동구?장수동 산78 인천대공원,37.45864608,126.7519808,,,,,인천광역시 남동구 무네미로 238
스카이72GC 바다코스,놀거리,인천광역시?중구?운서동 3238 클럽72,37.48462419,126.4693087,,,,,인천광역시 중구 공항동로 392
스카이72GC레이크코스,놀거리,인천광역시 중구 운서동 3238 클럽72,37.48462419,126.4693087,,,,,인천광역시 중구 공항동로 392
국제롤러장,놀거리,인천광역시 서구 청라동 165-12 지젤엠청라,37.53366065,126.6557431,,,,,인천광역시 서구 청라에메랄드로 99
스카이72GC하늘코스,놀거리,인천광역시 중구 운서동 3238 클럽72,37.48462419,126.4693087,,,,,인천광역시 중구 공항동로 392
인천서구 사계절썰매장,놀거리,인천광역시?서구?공촌동 산141-2,37.54712072,126.6851206,,,,,인천광역시 서구 심곡로 166
장경리해변야영장,놀거리,,37.27234296,126.4499413,,,,,인천광역시 옹진군 영흥면 내리 1626-38
연평평화안보수련원,놀거리,인천광역시?옹진군?연평면?연평리 153 연평평화안보수련원,37.66545101,125.704035,,,,,인천광역시 옹진군 연평면 연평중앙로24번길 25
길상낚시터,놀거리,인천광역시?강화군?길상면?장흥리 37-2 낚시터매점,37.62455288,126.4996187,,,,,인천광역시 강화군 길상면 초지로 453
노을빛바다애글램핑,놀거리,인천광역시?강화군?화도면?장화리?474-1,37.62143164,126.3765439,,,,,인천광역시 강화군 화도면 해안남로 2421-210
인천아시아드주경기장,놀거리,인천광역시?서구?연희동 826 인천아시아드주경기장,37.54524003,126.6651113,,,,,인천광역시 서구 봉수대로 806
인천대공원 너나들이캠핑장,놀거리,인천광역시?남동구?장수동 산78?인천대공원,37.4594904,126.7506531,,,,,인천광역시 남동구 무네미로 238 인천대공원
낭만에코파크,놀거리,인천광역시?강화군?양도면?인산리 224-4,37.70189816,126.4283147,,,,,인천광역시 강화군 양도면 중앙로814번길 19-16
강화고인돌캠핑장,놀거리,,37.77648125,126.435462,,,,,인천광역시 강화군 하점면 장정리 989
아로니움글램핑,놀거리,인천광역시 강화군 삼산면 석포리 415-6,37.68793477,126.3636488,,,,,인천광역시 강화군 삼산면 삼산남로 85-11
프랭클리 글램핑,놀거리,인천광역시?강화군?선원면?선행리 492-5,37.72854268,126.4510008,,,,,인천광역시 강화군 선원면 시리미로237번길 32
여성문화회관 수영장(실내),놀거리,인천광역시?부평구?갈산동 375-1 여성문화회관,37.50791482,126.7219544,,,,,인천광역시 부평구 길주로 539
송도스포츠캠핑장,놀거리,인천광역시?연수구?송도동 380 인천환경공단,37.35393923,126.6194569,,,,,인천광역시 연수구 인천신항대로892번길 50
잭니클라우스GC코리아,놀거리,인천광역시?연수구?송도동 117,37.38161099,126.6179646,,,,,인천광역시 연수구 아카데미로 209
국제 롤러스케이트장,놀거리,인천광역시 서구 청라동 165-12 지젤엠청라,37.53366065,126.6557431,,,,,인천광역시 서구 청라에메랄드로 99
국화지낚시터,놀거리,인천광역시?강화군?강화읍?국화리 산59-9,37.74737411,126.468082,,,,,인천광역시 강화군 강화읍 국화길 51
[강화 나들길 제2코스] 호국돈대길,놀거리,인천광역시?강화군?강화읍?갑곳리 1040 강화역사관,37.73363212,126.5160614,,,,,인천광역시 강화군 강화읍 해안동로1366번길 18
황산지(장흥지),놀거리,인천광역시?강화군?길상면?장흥리 225-3,37.61512087,126.5123789,,,,,인천광역시 강화군 길상면 장흥로 96-1
항포낚시터,놀거리,인천광역시?강화군?삼산면?석모리 1148 삼산항포낚시터,37.70608131,126.2868054,,,,,인천광역시 강화군 삼산면 삼산서로310번길 21
[강화 나들길 제8코스] 철새 보러 가는 길,놀거리,인천광역시?강화군?강화읍?신문리 254-8,37.74582454,126.4822613,,,,,인천광역시 강화군 강화읍 청하동길 24
클라이밍줌,놀거리,인천광역시?서구?청라동 9-90,37.41566914,126.6746002,,,,,인천광역시 서구 청라대로316번길 45
선학국제빙상경기장,놀거리,인천광역시?서구?청라동 12-5,37.43119,126.6992169,,,,,인천 서구 첨단서로 190
영종씨사이드 레일바이크,놀거리,,37.48850618,126.5768543,,,,,인천 강화군 교동면 고구리 73
계양산 둘레길,놀거리,인천광역시?강화군?길상면?초지리 1328-65,37.54807135,126.7270445,,,,,인천광역시 강화군 길상면 해안남로117번길 29-18
만정캠핑장,놀거리,인천광역시?중구?무의동 산189,37.51541534,126.5499277,,,,,인천광역시 중구 하나개로 140
송도스포츠파크 캠핑장,놀거리,인천광역시 강화군 불은면 삼성리 993-2,37.35390766,126.6194899,,,,,인천광역시 강화군 불은면 중앙로755번길 49
함허동천(야영장),놀거리,인천광역시?중구?중산동 1853 만정낚시터,37.61133332,126.4526101,,,,,인천광역시 중구 영종순환로 279-20
대이작도 부아산 하이킹,놀거리,인천광역시?강화군?길상면?동검리 110,37.1776618,126.261575,,,,,인천광역시 강화군 길상면 동검길65번길 93-6
강화나들길,놀거리,인천광역시?옹진군?영흥면?내리 1665-4,37.74834793,126.4837338,,,,,인천광역시 옹진군 영흥면 영흥서로 527-14
대이작도 생태탐방로,놀거리,인천광역시?중구?을왕동 980-1,37.17681362,126.2497655,,,,,인천광역시 중구 왕산마리나길 143
BMW 드라이빙 센터,놀거리,인천광역시?강화군?삼산면?매음리?897,37.4623831,126.4854499,,,,,인천광역시 강화군 삼산면 어류정길198번길 8
스카이72GC드림듄스코스,놀거리,인천광역시 연수구 송도동 380 송도종합스포츠센터,37.49518665,126.4580427,,,,,인천광역시 연수구 인천신항대로892번길 40