name,category,address,lat,lng,benefitValue,discountPercent,benefit_source_url,benefit_note,address_enriched
179실비,음식점,경기도 성남시 분당구 구미동 179,37.3399194104021,127.109807850043,,,,,경기 성남시 분당구 구미로9번길 17
1819,음식점,경기도 용인시 수지구 고기동 220-11,37.3604759152807,127.058180116964,,,,,경기 용인시 수지구 고기로 464
1982성북동왕돈까스,음식점,경기도 고양시 덕양구 성사동 130-2,37.6410959679427,126.843194368009,,,,,경기 고양시 덕양구 충장로282번길 128
1983브레드,음식점,경기도 고양시 덕양구 덕은동 74-6 2층,37.5937488964263,126.880078977991,,,,,경기 고양시 덕양구 중앙로 34-1
1987 돼지삼촌,음식점,경기도 남양주시 호평동 652-3,37.6546680617591,127.245275077125,,,,,경기 남양주시 호평로46번안길 4-8
1992덮밥&짜글이 분당야탑점,음식점,경기도 성남시 분당구 야탑동 342-1 105호,37.4134816318387,127.125505343156,,,,,경기 성남시 분당구 장미로 42
1인자감자탕 고색점,음식점,경기도 수원시 권선구 고색동 380-4,37.2499351746478,126.97872868546,,,,,경기 수원시 권선구 매송고색로676번길 3
201410화정족발,음식점,경기도 파주시 조리읍 봉일천리 198-1,37.7447396128294,126.804214110965,,,,,경기 파주시 조리읍 봉천로 67
23번지남산돈까스 이마트 광교점,음식점,경기도 수원시 영통구 이의동 1240,37.2967267123764,127.047716003103,,,,,경기 수원시 영통구 광교로 191
24시 여내울설렁탕,음식점,경기도 여주시 점봉동 444-1,37.2608330794682,127.641711706162,,,,,경기 여주시 웅골로 3
24시맵돈,음식점,경기도 안산시 단원구 고잔동 539-16,37.3183350806961,126.839520871897,,,,,경기 안산시 단원구 고잔1길 53
24시전주명가콩나물국밥,음식점,경기도 부천시 옥길동 713-9,37.4693304883061,126.820294980288,,,,,경기 부천시 소사구 양지로166번길 3
24시전주콩각시콩나물국밥 미사점,음식점,경기도 하남시 망월동 968-1,37.5687267205936,127.18470762702,,,,,경기 하남시 미사강변대로 212
24시전주콩나물국밥,음식점,경기도 김포시 장기동 1962-2,37.6458993522078,126.671249323177,,,,,경기 김포시 김포한강1로84번길 9-11
24시호남소머리국밥,음식점,경기도 구리시 교문동 760-10,37.5922019253678,127.13172469302,,,,,경기 구리시 이문안로5번길 7
2리 식당,음식점,경기도 고양시 일산동구 정발산동 1274-7,37.6695683202473,126.785190843028,,,,,경기 고양시 일산동구 일산로372번길 59
30CM 왕냄비 해물 손칼국수,음식점,경기도 안산시 단원구 대부북동 1836-6,37.268349267268,126.569768967341,,,,,경기 안산시 단원구 대선로 37
30cm옛날왕돈까스,음식점,경기도 안산시 상록구 이동 715-1,37.3088102396185,126.851520633698,,,,,경기 안산시 상록구 광덕1로 381
33 한우고집,음식점,경기도 김포시 장기동 1390,37.6448704471391,126.671416115549,,,,,경기 김포시 김포한강1로78번길 5-28
335kitchen 광교아브뉴프랑점,음식점,경기도 수원시 영통구 이의동 1332,37.2906667925637,127.050518820725,,,,,경기 수원시 영통구 센트럴타운로 85
33호할머니칼국수,음식점,경기도 안산시 단원구 대부북동 1161-105,37.2721313963469,126.570548514424,,,,,경기 안산시 단원구 대부황금로 1297
37.5 동탄점,음식점,경기도 화성시 영천동 801-6,37.2062057563795,127.093291554283,,,,,경기 화성시 동탄기흥로520번나길 10
37.5 부천중동점,음식점,경기도 부천시 원미구 중동 1152 상록센트럴타워 302호,37.5015569512805,126.769055278574,,,,,경기 부천시 원미구 중동로 244
37.5 시그니처 한화 리조트 용인점,음식점,경기도 용인시 처인구 남사읍 통삼리 1-1,37.1289213086268,127.137469350569,,,,,경기 용인시 처인구 남사읍 봉무로153번길 79
37.5 평택점,음식점,경기도 평택시 죽백동 107-5,37.0136987130536,127.133572710541,,,,,경기 평택시 죽백2길 251
37.5 화성안녕점,음식점,경기도 화성시 안녕동 188-738,37.2117200784006,126.984757492586,,,,,경기 화성시 효행로 439-6
373에비뉴,음식점,경기도 하남시 초이동 173,37.5453160417067,127.172745639875,,,,,경기 하남시 감초로 373
38소갈비살,음식점,경기도 부천시 원미구 심곡동 171-19,37.4847936790117,126.784765238037,,,,,경기 부천시 원미구 부일로496번길 18
3대농 닭강정,음식점,경기도 시흥시 장곡동 807,37.3785120540362,126.781337765207,,,,,경기 시흥시 장곡로 71
3대째 할머니네집,음식점,경기도 안산시 단원구 대부북동 1848-89,37.28719180472,126.575394462909,,,,,경기 안산시 단원구 대부황금로 1492
3월3일 반월 본점,음식점,경기도 화성시 반월동 26-10,37.23646086708585,127.06111999561631,,,,,경기 화성시 영통로 74
3일소고기국밥,음식점,경기도 동두천시 지행동 694-6,37.892987269356,127.054058811272,,,,,경기 동두천시 중앙로 134-22
3층다락방 카페,음식점,경기 안양시 동안구 호계동 1046-3 서련코아 3층 305호,37.3901222301853,126.95245184429,,,,,경기 안양시 동안구 평촌대로223번길 59
40192전망대카페,음식점,경기도 포천시 영북면 대회산리 산256,38.0790383454149,127.214480453694,,,,,경기 포천시 영북면 비둘기낭1길 76
448돈까스,음식점,경기도 광명시 철산동 448,37.4741648841084,126.870852510781,,,,,경기 광명시 디지털로 29
55갤런,음식점,경기도 김포시 양촌읍 누산리 419-2,37.6626229400452,126.657531138739,,,,,경기 김포시 양촌읍 김포대로 1619
55데시벨,음식점,경기도 수원시 영통구 영통동 1023-7,37.248344599011,127.076294711129,,,,,경기 수원시 영통구 영일로6번길 7
5pen,음식점,경기도 수원시 장안구 파장동 501-15,37.3047283082886,126.997057814924,,,,,경기 수원시 장안구 파장로 31-1
5테이블,음식점,경기도 김포시 운양동 1297-3,37.6554630965708,126.682342089493,,,,,경기 김포시 김포한강11로 300
60계 치킨 야탑점,음식점,경기도 성남시 분당구 야탑동 367-6,37.4101361594479,127.13016161252,,,,,경기 성남시 분당구 야탑로 103
60계 치킨 청북신도시점,음식점,경기도 평택시 청북읍 옥길리 1071,37.0203834755553,126.90601240813,,,,,경기 평택시 청북읍 청북남로 365
60계치킨 화성병점점,음식점,경기도 화성시 진안동 431-25,37.2151309383665,127.03536717391,,,,,경기 화성시 병점중앙로211번길 3-11
60년전통 신촌황소곱창 중동직영점,음식점,경기도 부천시 중동 1133-9,37.4995807123518,126.775755088596,,,,,경기 부천시 원미구 조마루로291번길 46
625부대찌개 화성점,음식점,경기도 화성시 반월동 535-2,37.2232124043354,127.061650594096,,,,,경기 화성시 효행로 1287
79대포 성남은행점,음식점,경기 성남시 수정구 양지동 548,37.4563924422725,127.162387407662,,,,,경기 성남시 수정구 산성대로 503
834쭈꾸미 산본점,음식점,경기도 군포시 산본동 1136-1 202호,37.3599282250687,126.931162036712,,,,,경기 군포시 산본로323번길 16-29
834쭈꾸미 선부점,음식점,경기도 안산시 단원구 선부동 1086,37.3393495336738,126.815808863728,,,,,경기 안산시 단원구 달미로 64
85로스터스,음식점,경기도 김포시 구래동 6892-3,37.6388985019448,126.627371491803,,,,,경기 김포시 김포한강9로12번길 7-20
88로타리집 민락2지구점,음식점,경기도 의정부시 민락동 804 88로타리집 민락2지구점,37.7446146272008,127.098088649313,,,,,경기 의정부시 오목로205번길 1
88스지,음식점,경기도 성남시 중원구 성남동 3414,37.432052202079,127.132225864696,,,,,경기 성남시 중원구 성남대로1140번길 26
88스지 야탑점,음식점,경기도 성남시 분당구 야탑동 373-10,37.4115268306859,127.131349044348,,,,,경기 성남시 분당구 야탑로111번길 22
902탭하우스,음식점,경기도 부천시 중동 1114 상가 9동 108호,37.4966002604012,126.778515228077,,,,,경기 부천시 원미구 신흥로 140
91brick,음식점,경기도 화성시 오산동 921-62,37.1840045050044,127.10476961616,,,,,경기 화성시 동탄대로14길 6-40
9292양꼬치,음식점,경기도 안산시 단원구 초지동 802 파크상가동 205호,37.3243652364811,126.807279713775,,,,,경기 안산시 단원구 화랑로 159
966루프탑 진접,음식점,경기도 남양주시 진접읍 금곡리 966,37.7163516569277,127.187828645021,,,,,경기 남양주시 진접읍 해밀예당1로 79-4
98퍼센트,음식점,경기도 안양시 동안구 호계동 1047-8,37.3911018507535,126.9552971821,,,,,경기 안양시 동안구 평촌대로 221
ABC카페,음식점,경기도 가평군 청평면 상천리 1156-4,37.762401653822,127.440455612991,,,,,경기 가평군 청평면 경춘로 1151
Bake29s,음식점,경기 김포시 고촌읍 태리 219-1 나무휴식2층,37.6009147764127,126.749315955611,,,,,경기 김포시 고촌읍 태리로 121
BARN110,음식점,경기 고양시 일산동구 정발산동 1334-5,37.6666338649734,126.78338583221,,,,,경기 고양시 일산동구 율천로7번길 7-7
BAVORITE,음식점,경기도 수원시 팔달구 인계동 1171,37.2757202991906,127.038988043227,,,,,경기 수원시 팔달구 중부대로220번길 10
BD788,음식점,경기도 성남시 분당구 야탑동 36-2,37.4046447741328,127.159933163977,,,,,경기 성남시 분당구 판교로 788
BHC치킨,음식점,경기도 고양시 일산동구 중산동 1700,37.6808317988907,126.78331712129,,,,,경기 고양시 일산동구 하늘마을로 92
BHC치킨 구리수택점,음식점,경기도 구리시 수택동 438-58,37.593564850541,127.139110434372,,,,,경기 구리시 원수택로 13
BHC치킨 금정점,음식점,경기도 군포시 금정동 719-6,37.3608653173688,126.937366108382,,,,,경기 군포시 번영로557번길 6
BHC치킨 덕은점,음식점,경기도 고양시 덕양구 덕은동 574-4,37.57945294670219,126.87061381259554,,,,,경기 고양시 덕양구 으뜸로 130
BHC치킨 범계점,음식점,경기도 안양시 동안구 호계동 1047-8,37.3911018507535,126.9552971821,,,,,경기 안양시 동안구 평촌대로 221
BHC치킨 성대푸르지오점,음식점,경기도 수원시 장안구 천천동 367-5,37.2890102950229,126.978850649968,,,,,경기 수원시 장안구 일월로66번길 24
BHC치킨 용인보정점,음식점,경기도 용인시 기흥구 보정동 1262,37.3198498784407,127.109659395585,,,,,경기 용인시 기흥구 죽현로 8-20
brekkie,음식점,경기도 의왕시 학의동 1095,37.3734944362361,127.008451425532,,,,,경기 의왕시 백운호수로4길 2
BREWSHOP,음식점,경기도 고양시 일산동구 마두동 840-5,37.6648504988918,126.785077953313,,,,,경기 고양시 일산동구 일산로330번길 12-5
CAFE 8794,음식점,경기도 파주시 문산읍 운천리 56-90,37.8806850158037,126.773854242015,,,,,경기 파주시 문산읍 통일로2010번길 36
cafe G&T,음식점,경기도 고양시 일산서구 대화동 2297-1,37.6707452972725,126.748260151419,,,,,경기 고양시 일산서구 호수로856번길 8-4
Cafe1253,음식점,경기도 가평군 가평읍 읍내리 867-5,37.8321790426162,127.505589482936,,,,,경기 가평군 가평읍 석봉로191번길 40
Chai797 Plus 롯데타임빌라스점,음식점,경기도 의왕시 학의동 1039 롯데타임빌라스,37.3761828224125,127.009665213542,,,,,경기 의왕시 바라산로 1
Chai797 스타필드 수원점,음식점,경기도 수원시 장안구 정자동 111-14 스타필드 수원점 7층,37.2874824071362,126.99083737274,,,,,경기 수원시 장안구 수성로 175
Check Plate,음식점,경기도 하남시 망월동 1140,37.5633819525564,127.196794494115,,,,,경기 하남시 미사강변한강로 290
coffee2more,음식점,경기도 구리시 수택동 479-17,37.5943995006428,127.146650876845,,,,,경기 구리시 검배로84번길 24
dinner is not over,음식점,경기도 수원시 팔달구 북수동 357-5,37.2827040923208,127.016719130576,,,,,경기 수원시 팔달구 정조로 836
DMZ장단콩두부마을,음식점,경기도 파주시 탄현면 성동리 279,37.7861335161133,126.689655680231,,,,,경기 파주시 탄현면 평화로 902
EFG COFFEE,음식점,경기도 부천시 중동 1140-3,37.5015962976071,126.776060515596,,,,,경기 부천시 원미구 신흥로 201
flos,음식점,경기도 하남시 덕풍동 51-1,37.5541677345257,127.208809871188,,,,,경기 하남시 월호로 56
Forest for Rest,음식점,경기도 김포시 장기동 2031,37.6404812266116,126.677553856335,,,,,경기 김포시 김포한강2로 41
GHGM 카페,음식점,경기도 용인시 수지구 동천동 550-13,37.3391819071976,127.072958402658,,,,,경기 용인시 수지구 동천로 287
h50,음식점,경기도 남양주시 다산동 6141,37.6158769604305,127.152729606893,,,,,경기 남양주시 다산순환로 50
h541 현대백화점판교점,음식점,경기도 성남시 분당구 백현동 541 현대백화점 9층,37.3926536571583,127.112037135835,,,,,경기 성남시 분당구 판교역로146번길 20
hamishe coffee,음식점,경기도 화성시 영천동 675-5,37.2044739796559,127.108967987812,,,,,경기 화성시 동탄순환대로29길 62
HEY DOUGH,음식점,경기도 안양시 동안구 관양동 1474-19,37.4041741538429,126.972428774712,,,,,경기 안양시 동안구 관악대로 450
KFC,음식점,경기도 성남시 분당구 야탑동 366-3,37.4111518688757,127.129842462359,,,,,경기 성남시 분당구 성남대로916번길 7
KFC 구리돌다리,음식점,경기도 구리시 인창동 280-8,37.6007912600717,127.139860413883,,,,,경기 구리시 경춘로 221
KFC 부천역점,음식점,경기도 부천시 심곡본동 316-2 부천역사 지하 1층,37.4840786999305,126.782485629171,,,,,경기 부천시 원미구 부천로 지하 1-1
KFC 수원역광장점,음식점,경기도 수원시 팔달구 매산로1가 30-1,37.2677750181784,127.001851213812,,,,,경기 수원시 팔달구 향교로 5
KFC 철산역점,음식점,경기도 광명시 철산동 245-5,37.4766900099881,126.868688261073,,,,,경기 광명시 철산로 25
KFC 평택점,음식점,경기도 평택시 평택동 65-7,36.9932866445687,127.086854447212,,,,,경기 평택시 평택1로 13
KFC 화정점,음식점,경기도 고양시 덕양구 화정동 970-5,37.6335317957643,126.831461249564,,,,,경기 고양시 덕양구 화신로272번길 57
KKO pati,음식점,경기도 시흥시 장곡동 857 1층,37.3823990905727,126.780718557932,,,,,경기 시흥시 인선길 128
KOOPJA,음식점,경기도 파주시 문산읍 문산리 6-28,37.8581187385394,126.785030846257,,,,,경기 파주시 문산읍 문향로67번길 2
k헤밍웨이 카페 분당점,음식점,경기도 성남시 분당구 금곡동 444-148,37.3489840116904,127.102506195001,,,,,경기 성남시 분당구 대왕판교로34번길 21
LA아리랑,음식점,경기도 부천시 원미구 심곡동 138-5,37.4855533140257,126.786600973179,,,,,경기 부천시 원미구 부일로 507
leaf sound,음식점,경기도 하남시 신장동 616,37.5455517487259,127.223680396222,,,,,경기 하남시 미사대로 750
MISODA,음식점,경기도 고양시 일산동구 정발산동 702-6,37.6665291812235,126.773416043116,,,,,경기 고양시 일산동구 무궁화로93번길 6-2
MLMC,음식점,경기도 수원시 장안구 천천동 524-1,37.2969642479956,126.981817148699,,,,,경기 수원시 장안구 덕영대로535번길 28
OR COFFEE,음식점,경기도 파주시 야당동 220-14,37.714524506025,126.764279698759,,,,,경기 파주시 송학1길 126
PAAM,음식점,경기도 군포시 산본동 1139-3,37.3591541265579,126.93096306268,,,,,경기 군포시 산본로323번길 26-18
PAUN COFFEE,음식점,경기도 파주시 동패동 1822,37.715564282521,126.740333111152,,,,,경기 파주시 와석순환로192번길 20
PER,음식점,경기도 김포시 장기동 1901-2,37.6472627116787,126.670440838126,,,,,경기 김포시 김포한강1로97번길 22
Pizzazip,음식점,경기도 평택시 평택동 316,36.9885867748671,127.088921442565,,,,,경기 평택시 평택로 17
Poke all day 포케&샐러드 광명아브뉴프랑점,음식점,경기도 광명시 일직동 513 광명아브뉴프랑 2층,37.4164926758093,126.880603576297,,,,,경기 광명시 양지로 16
Poke all day 포케&샐러드 범계점,음식점,경기도 안양시 동안구 호계동 1047-8 303호,37.3911018507535,126.9552971821,,,,,경기 안양시 동안구 평촌대로 221
Poke all day 포케&샐러드 분당야탑점,음식점,경기도 성남시 분당구 야탑동 355-1,37.4111733398211,127.126829627289,,,,,경기 성남시 분당구 야탑로75번길 15
Poke all day 포케&샐러드 수원행궁점,음식점,경기도 수원시 팔달구 북수동 339-1,37.2838286282634,127.016440736179,,,,,경기 수원시 팔달구 정조로 848-1
Poke all day 포케&샐러드 판교점,음식점,경기도 성남시 분당구 백현동 534,37.3954596217643,127.112129738248,,,,,경기 성남시 분당구 분당내곡로 131
Poke all day 포케&샐러드 하남미사점,음식점,경기도 하남시 망월동 1010-8,37.5710933691307,127.181976370968,,,,,경기 하남시 미사강변북로30번길 13
red brick coffee house,음식점,경기도 수원시 팔달구 장안동 110-2,37.2855401764985,127.010730542167,,,,,경기 수원시 팔달구 화서문로31번길 9-8
S pot,음식점,경기도 수원시 영통구 원천동 29-2,37.2785294219172,127.044735159718,,,,,경기 수원시 영통구 월드컵로193번길 15
SOFA,음식점,경기도 광명시 일직동 512,37.4191056057563,126.881296778405,,,,,경기 광명시 양지로 11
STAY SEE,음식점,경기도 파주시 동패동 1100-2 강남면옥2층,37.7093574340972,126.704668639982,,,,,경기 파주시 교하로 677-20
Tailor.Button,음식점,경기도 시흥시 배곧동 294-3,37.3573019988803,126.70857018546,,,,,경기 시흥시 서울대학로 59-20
Tennote,음식점,경기도 성남시 수정구 창곡동 538-8,37.4680419228987,127.137581485524,,,,,경기 성남시 수정구 위례서일로1길 21-10
Thai About,음식점,경기도 부천시 원미구 심곡동 408-5,37.4882151281314,126.780292936535,,,,,경기 부천시 원미구 신흥로52번길 55-1
THE BIG BITE,음식점,경기도 평택시 팽성읍 안정리 108-63,36.96358050973,127.04439570538,,,,,경기 평택시 팽성읍 안정순환로 187
The쌍송,음식점,경기도 남양주시 조안면 송촌리 98-1 1층,37.5713736289193,127.323752308237,,,,,경기 남양주시 조안면 북한강로 585
UFO,음식점,경기도 부천시 상동 538-5 B-STAY 부천호텔 1층,37.5060526892212,126.757193457537,,,,,경기 부천시 원미구 길주로 131
가나안 장어마을,음식점,경기도 고양시 일산동구 풍동 591-16,37.672188261945,126.792020122931,,,,,경기 고양시 일산동구 애니골길 54
가나안국수,음식점,경기도 고양시 덕양구 행주내동 102-6,37.6007720219963,126.827861725259,,,,,경기 고양시 덕양구 행주로15번길 16
가나안덕,음식점,경기도 의왕시 학의동 434,37.3846198237426,127.010831251857,,,,,경기 의왕시 학현로 170-13
가나안덕,음식점,경기도 광명시 노온사동 4,37.4531069064942,126.855080433676,,,,,경기 광명시 밤일로 83
가나안덕,음식점,경기도 광주시 태전동 71-6,37.3790109937775,127.223935785,,,,,경기 광주시 태성로 130-39
가나안덕,음식점,경기도 하남시 춘궁동 533,37.5211206796668,127.182568390691,,,,,경기 하남시 서하남로390번길 14
가나안덕 일산본점,음식점,경기도 고양시 일산동구 풍동 614-4,37.6730187602074,126.792620834937,,,,,경기 고양시 일산동구 애니골길 62
가나안덕 통일동산점,음식점,경기도 파주시 탄현면 법흥리 752-6,37.7869475573616,126.690624391029,,,,,경기 파주시 탄현면 새오리로 8
가드너스,음식점,경기도 파주시 탄현면 법흥리 1652-116,37.7896143370707,126.696106493921,,,,,경기 파주시 탄현면 헤이리마을길 59-52
가드니아 제빵소 본점,음식점,경기도 구리시 사노동 산15-11,37.63787807394713,127.14448018523393,,,,,경기 구리시 동구릉로460번길 114
가든갤러리,음식점,경기도 남양주시 수석동 143,37.5879029212705,127.174030130144,,,,,경기 남양주시 강변북로632번길 57-28
가람,음식점,경기도 광주시 남종면 분원리 431-3,37.4957457841726,127.298978524318,,,,,경기 광주시 남종면 산수로 1633-20
가로수피자 동탄본점,음식점,경기도 화성시 반송동 41-1 정일프라자 1층,37.2093531915678,127.061810326763,,,,,경기 화성시 동탄지성로 126
가마골,음식점,경기도 평택시 비전동 550,36.9976425597323,127.08941539058,,,,,경기 평택시 중앙1로 59
가마솥 닭한마리 다산법조타운점,음식점,경기도 남양주시 다산동 6166-2,37.6138313882333,127.166623988928,,,,,경기 남양주시 다산중앙로82번안길 85-7
가마솥 회관,음식점,경기도 과천시 갈현동 13-8,37.4161250276834,126.984353328121,,,,,경기 과천시 과천대로 161
가마솥백암순대,음식점,경기도 성남시 중원구 중앙동 134,37.4433490559516,127.155595575263,,,,,경기 성남시 중원구 산성대로350번길 7
가마솥왕족발,음식점,경기도 용인시 기흥구 중동 831-1,37.276553078942,127.152477737478,,,,,경기 용인시 기흥구 동백중앙로 267
가마치통닭 용인동천점,음식점,경기도 용인시 수지구 동천동 185-14 가마치통닭 동천점,37.3403298289055,127.101431613193,,,,,경기 용인시 수지구 신수로783번길 12
가미감자탕,음식점,경기도 화성시 병점동 406-1,37.2050592338138,127.037811329342,,,,,경기 화성시 병점2로 6
가보정,음식점,경기도 수원시 팔달구 인계동 958-1,37.2741969668076,127.028704819996,,,,,경기 수원시 팔달구 장다리로 282
가보족발,음식점,경기도 고양시 일산서구 대화동 2254-4,37.6732083774152,126.750459014763,,,,,경기 고양시 일산서구 호수로856번길 74-12
가비가배,음식점,경기도 포천시 영북면 산정리 430,38.0747274972974,127.320378623054,,,,,경기 포천시 영북면 산정호수로 849-130
가비당,음식점,경기 오산시 수청동 629-13,37.1686425948746,127.067761748641,,,,,경기 오산시 내삼미로80번길 19-1
가빈,음식점,경기도 가평군 상면 상동리 111-4,37.7930096572164,127.321753986225,,,,,경기 가평군 상면 비룡로 1959
가야,음식점,경기도 성남시 수정구 단대동 산164-7,37.4619523572581,127.155522326814,,,,,경기 성남시 수정구 수정로 458
가야밀면돼지국밥,음식점,경기도 고양시 일산서구 대화동 2298-10,37.6708230640521,126.748646178917,,,,,경기 고양시 일산서구 호수로856번길 8-9
가오리와방패연,음식점,경기도 용인시 기흥구 하갈동 233,37.256262312542,127.098001316115,,,,,경기 용인시 기흥구 하갈로 98
가온밀면&돼지국밥 일산점,음식점,경기도 고양시 일산서구 대화동 2307-12,37.6687741804405,126.749719665066,,,,,경기 고양시 일산서구 킨텍스로 255
가유카페 인계본점,음식점,경기도 수원시 팔달구 인계동 1044-2 1층 가유카페,37.2633201240919,127.030199387261,,,,,경기 수원시 팔달구 권광로175번길 31-12
가을숲다람쥐,음식점,경기도 남양주시 화도읍 마석우리 305-6,37.6540342813815,127.30518296139,,,,,경기 남양주시 화도읍 마석로17번안길 1-6
가장맛있는족발 아양점,음식점,경기도 안성시 석정동 382-4,37.0103169478882,127.256805282207,,,,,경기 안성시 아양2로 87
가장맛있는족발 야탑2호점,음식점,경기도 성남시 분당구 야탑동 366-13,37.411297397733,127.130239076363,,,,,경기 성남시 분당구 야탑로105번길 17
가족나들이,음식점,경기도 남양주시 다산동 3523-9,37.6138535565092,127.157096124576,,,,,경기 남양주시 미금로 124
가쯔레쯔,음식점,경기도 고양시 일산동구 마두동 800,37.6531977819799,126.778081540055,,,,,경기 고양시 일산동구 강석로 141
가천린포크 구이구이센터 김포점,음식점,경기도 김포시 풍무동 92-84,37.6128568792811,126.717436906063,,,,,경기 김포시 장릉로 66
가츠잇,음식점,경기도 고양시 일산동구 정발산동 1273-6,37.6697716837927,126.785742707898,,,,,경기 고양시 일산동구 경의로 459-112
가치,음식점,경기도 구리시 수택동 377-46,37.5980730413705,127.137964707402,,,,,경기 구리시 안골로57번길 14-11
가평 애견동반 카페 아웃팅,음식점,경기도 가평군 상면 행현리 369-1,37.7652843454696,127.363637503749,,,,,경기 가평군 상면 수목원로 135
가평김밥,음식점,경기도 가평군 가평읍 읍내리 615-2,37.8333898432883,127.509806913028,,,,,경기 가평군 가평읍 석봉로 206
가평달맞이빵,음식점,경기도 가평군 상면 행현리 331-4,37.7666027846393,127.364229700839,,,,,경기 가평군 상면 수목원로 123
가평돼지국밥,음식점,경기도 가평군 가평읍 대곡리 109-3,37.8192298791637,127.514005320672,,,,,경기 가평군 가평읍 호반로 2613
가평카페109,음식점,경기도 가평군 상면 행현리 222-3,37.7748202059164,127.360173453372,,,,,경기 가평군 상면 축령로 109
가평칼국수,음식점,경기도 가평군 가평읍 읍내리 329-14,37.8277033656137,127.512168102809,,,,,경기 가평군 가평읍 보납로6번길 39
가현산생고기,음식점,경기도 김포시 운양동 1414-6,37.6470214135175,126.681389400483,,,,,경기 김포시 김포한강11로140번길 23-7
가혜리,음식점,경기도 김포시 대곶면 신안리 236,37.6511232843396,126.538998028885,,,,,경기 김포시 대곶면 덕포진로103번길 84
간이역분식,음식점,경기도 파주시 금촌동 50-3,37.7641241626853,126.77541908636,,,,,경기 파주시 아동로 5
간코 현대프리미엄아울렛SPACE1점,음식점,경기도 남양주시 다산동 6141,37.6158769604305,127.152729606893,,,,,경기 남양주시 다산순환로 50
갈릭레몬,음식점,경기도 안양시 동안구 관양동 1693-12,37.4066441226105,126.970204917434,,,,,경기 안양시 동안구 동편로183번길 12
갈릴리농원,음식점,경기도 파주시 탄현면 낙하리 4-1,37.8357492535971,126.745547305778,,,,,경기 파주시 탄현면 방촌로 1196
갈릴리농원 청미안,음식점,경기도 파주시 탄현면 낙하리 96-1,37.8356127219839,126.744489706871,,,,,경기 파주시 탄현면 방촌로 1185
갈매울감자탕 호매실점,음식점,경기도 수원시 권선구 금곡동 1125,37.2735408129179,126.955505018176,,,,,경기 수원시 권선구 금곡로196번길 76
갈비1987,음식점,경기도 포천시 이동면 장암리 242-4,38.0321289043863,127.366184250849,,,,,경기 포천시 이동면 화동로 2065-1
갈비꽃 이천안흥점,음식점,경기도 이천시 안흥동 211-1,37.2752791461855,127.45787207858,,,,,경기 이천시 구만리로 226
갈비도락,음식점,경기도 하남시 덕풍동 26-20,37.554854843797,127.20916081162,,,,,경기 하남시 미사대로 584
갈비도락 서오릉점,음식점,경기도 고양시 덕양구 용두동 432-499 2층,37.6276011082024,126.895010087667,,,,,경기 고양시 덕양구 서오릉로 414
갈비도락 탄현점,음식점,경기도 고양시 일산서구 탄현동 1655,37.7021901325969,126.767698412603,,,,,경기 고양시 일산서구 탄현로 120
갈비명가 궁 본점,음식점,경기도 수원시 팔달구 매교동 168-1,37.265311965339,127.015160293399,,,,,경기 수원시 팔달구 정조로 633
갈비한짝,음식점,경기도 이천시 중리동 462-5,37.2773097406424,127.448449968918,,,,,경기 이천시 중리천로 106
갈삼집,음식점,경기도 수원시 영통구 영통동 974-1,37.2466701027157,127.05946802252,,,,,경기 수원시 영통구 영통로214번길 41
갈풍집,음식점,경기도 수원시 영통구 이의동 1266-7,37.2980710728182,127.045859031543,,,,,경기 수원시 영통구 대학1로8번길 83
감골오리,음식점,경기도 광주시 신현동 724-3,37.360274884662,127.147447046962,,,,,경기 광주시 신현로 4
감나무집,음식점,경기도 남양주시 조안면 능내리 3-2,37.5175972783258,127.302995212015,,,,,경기 남양주시 조안면 다산로747번길 45
감래등,음식점,경기도 고양시 일산서구 대화동 2300-6,37.6715501947363,126.7483277089,,,,,경기 고양시 일산서구 호수로856번길 21
감미옥,음식점,경기도 성남시 분당구 야탑동 537-7,37.4088085600006,127.122871066578,,,,,경기 성남시 분당구 탄천로 181
감성돼지1985 다산점,음식점,경기도 남양주시 다산동 6219-3,37.6015893282447,127.172803762348,,,,,경기 남양주시 다산지금로 124-46
감성식탁,음식점,경기도 여주시 상동 452,37.2890146206678,127.64448245687,,,,,경기 여주시 칠산길 39
감성오름 부천시청도,음식점,경기도 부천시 중동 1158-9,37.5032315309566,126.764207651007,,,,,경기 부천시 원미구 석천로178번길 23
감성타코 판교점,음식점,경기도 성남시 분당구 삼평동 740 판교아브뉴프랑,37.3972839323499,127.113533189402,,,,,경기 성남시 분당구 동판교로177번길 25
감악산 복칼국수,음식점,경기도 파주시 적성면 구읍리 162-8,37.9565262156764,126.927069106119,,,,,경기 파주시 적성면 감악산로 1234
감자옹심이,음식점,경기도 남양주시 진건읍 진관리 605-17,37.6532042700956,127.154418815832,,,,,경기 남양주시 진건읍 진관로501번길 14
감치래,음식점,경기도 용인시 수지구 동천동 119-201,37.34656441892521,127.09252187673982,,,,,경기 용인시 수지구 고기로 104
감탄대패,음식점,경기도 남양주시 호평동 645-1,37.6557748345908,127.245444172563,,,,,경기 남양주시 호평로 48-1
감탄떡볶이,음식점,경기도 구리시 수택동 874,37.5872916588578,127.138759660626,,,,,경기 구리시 장자대로 74
감포회플러스,음식점,경기도 성남시 수정구 시흥동 246-28,37.4163736128426,127.102021964833,,,,,경기 성남시 수정구 대왕판교로 850
갑인 스시카츠,음식점,경기도 김포시 사우동 928,37.6193810127239,126.719403274205,,,,,경기 김포시 사우중로 52
갑짬뽕 처인구점,음식점,경기도 용인시 처인구 포곡읍 마성리 292 1층,37.2753860223093,127.194327799798,,,,,경기 용인시 처인구 포곡읍 성산로 447
갓덴 익스프레스 위례점,음식점,경기도 하남시 학암동 660 4층,37.4800373955299,127.148398503595,,,,,경기 하남시 위례대로 200
갓덴스시,음식점,경기도 하남시 신장동 616 스타필드하남 지하1층,37.5455517487259,127.223680396222,,,,,경기 하남시 미사대로 750
갓덴스시 의정부 신세계 백화점,음식점,경기도 의정부시 의정부동 168-54 신세계백화점 2층,37.7373291941264,127.046356098041,,,,,경기 의정부시 시민로 지하 100
갓덴익스프레스 스타필드 하남점,음식점,경기도 하남시 신장동 616 스타필드 하남점 3F,37.5455517487259,127.223680396222,,,,,경기 하남시 미사대로 750
갓잇 부천신중동점,음식점,경기도 부천시 원미구 중동 1109 위브더스테이트상가3동 101호,37.5000955489454,126.777567505214,,,,,경기 부천시 원미구 신흥로 178
갓잇 아브뉴프랑광교점,음식점,경기 수원시 영통구 이의동 1332 1층 B119호,37.2906667925637,127.050518820725,,,,,경기 수원시 영통구 센트럴타운로 85
갓잇 위례점,음식점,경기도 성남시 수정구 창곡동 525-2,37.4690759612378,127.148491231725,,,,,경기 성남시 수정구 위례순환로4길 8
갓잇 의정부민락점,음식점,경기도 의정부시 민락동 818,37.7473661681284,127.09636012506,,,,,경기 의정부시 오목로225번길 68
갓지은솥밥,음식점,경기도 남양주시 화도읍 차산리 144-4,37.6335035451334,127.301748277308,,,,,경기 남양주시 화도읍 수레로 1064
갓지은솥밥,음식점,경기도 양주시 고암동 488,37.8204908182202,127.068828576704,,,,,경기 양주시 회천남로 303
강강술래 늘봄농원점,음식점,경기도 고양시 덕양구 대자동 75-7,37.6875690129963,126.901172505375,,,,,경기 고양시 덕양구 호국로 1526-3
강건너빼리,음식점,경기도 안성시 금광면 금광리 417,36.9909332491949,127.336409218979,,,,,경기 안성시 금광면 가협1길 121-54
강경불고기 별내직영점,음식점,경기도 남양주시 별내동 717-2,37.6468685618272,127.107902287544,,,,,경기 남양주시 불암산로 31
강경불고기 일산식사점,음식점,경기도 고양시 일산동구 식사동 817-2 가동,37.6745711717232,126.806088621295,,,,,경기 고양시 일산동구 위시티로 3-6
강경불고기 포천송우점,음식점,경기도 포천시 소흘읍 송우리 575-13,37.8341191429266,127.134154900029,,,,,경기 포천시 소흘읍 송우로 154
강경불고기 화성융건릉점,음식점,경기도 화성시 안녕동 186-27,37.2062963629613,126.990615025559,,,,,경기 화성시 효행로 524
강계 봉진막국수 본점,음식점,경기도 여주시 대신면 천서리 419-2,37.4032858081245,127.548945464502,,,,,경기 여주시 대신면 천서리길 22
강나루,음식점,경기도 김포시 고촌읍 전호리 565-3 김포현대아울렛근처,37.5910345742563,126.783826941319,,,,,경기 김포시 고촌읍 김포대로 177-16
강남교자 수원롯데몰,음식점,경기도 수원시 권선구 서둔동 381롯데몰수원점 3층,37.2641349680731,126.997095921282,,,,,경기 수원시 권선구 세화로 134
강남동태찜,음식점,경기도 안산시 상록구 이동 712-1,37.3073188983367,126.847941930718,,,,,경기 안산시 상록구 석호로 45
강남면옥,음식점,경기도 성남시 분당구 서현동 77-6,37.3843118671517,127.131170124303,,,,,경기 성남시 분당구 새마을로 5
강남면옥,음식점,경기도 광명시 하안동 362,37.4514546392861,126.865057771352,,,,,경기 광명시 범안로 868
강남면옥 화성점,음식점,경기도 화성시 능동 467-5,37.2121958113615,127.055080165299,,,,,경기 화성시 동탄지성로 194
강릉장칼 미금역점,음식점,경기도 성남시 분당구 구미동 9-1 1층 16호,37.3492883403771,127.108313642153,,,,,경기 성남시 분당구 성남대로 151
강릉짬뽕순두부,음식점,경기도 시흥시 정왕동 2042-18,37.3408091811851,126.6890052382,,,,,경기 시흥시 오이도로 245
강릉짬뽕순두부 면두랑,음식점,경기도 용인시 처인구 양지면 평창리 650-2,37.2146213245376,127.320506664267,,,,,경기 용인시 처인구 양지면 좌찬로 213
강릉해변 메밀막국수 파주점,음식점,경기도 파주시 문발동 247-7,37.7227355832551,126.699536496532,,,,,경기 파주시 문발들길 81
강릉해변막국수,음식점,경기도 김포시 풍무동 661-22,37.6066042493225,126.717301556688,,,,,경기 김포시 승가로 45
강릉해변메밀막국수,음식점,경기도 수원시 권선구 구운동 759,37.2869796896448,126.9679195158,,,,,경기 수원시 권선구 수인로 344-3
강릉해변메밀막국수 고양점,음식점,경기도 파주시 광탄면 마장리 47-7,37.7736211133652,126.888506120624,,,,,경기 파주시 광탄면 보광로 852
강마을 다람쥐 팔당점,음식점,경기도 광주시 남종면 삼성리 299-14,37.4928480720319,127.282877379084,,,,,경기 광주시 남종면 태허정로 556
강마을다람쥐 덕소점,음식점,경기도 남양주시 와부읍 도곡리 505,37.5689541996336,127.22694230644,,,,,경기 남양주시 와부읍 경강로 754
강민주의 들밥 김포점,음식점,경기도 김포시 감정동 566,37.6204010488862,126.697956717254,,,,,경기 김포시 검단로 910
강민주의 들밥 본점,음식점,경기도 이천시 마장면 이평리 371-3,37.2214491703307,127.368001729283,,,,,경기 이천시 마장면 지산로22번길 17
강민주의들밥,음식점,경기도 이천시 마장면 장암리 325,37.2791694783275,127.400025314972,,,,,경기 이천시 마장면 서이천로 648
강변손두부,음식점,경기도 하남시 미사동 538-8,37.5762677522628,127.203773281405,,,,,경기 하남시 미사동로 105-1
강순자옛맛김치찌개 원흥역점,음식점,경기도 고양시 덕양구 원흥동 628,37.6494363926449,126.873869535644,,,,,경기 고양시 덕양구 권율대로 668
강쉐프 제빵소,음식점,경기도 김포시 마산동 650-7,37.6363234728263,126.643964216226,,,,,경기 김포시 김포한강8로162번길 10
강씨네 아천냉면&왕돈까스,음식점,경기도 남양주시 일패동 49 1층전체,37.6287047870092,127.192163919113,,,,,경기 남양주시 경춘로 797-1
강우정육식당 하남미사역 본점,음식점,경기도 하남시 망월동 1111 신성프라자 1층 103호,37.5615408893308,127.191793780059,,,,,경기 하남시 미사강변중앙로170번길 10
강원농산 착한샤브,음식점,경기도 과천시 별양동 1-17 과천타워 B111호,37.4269668422479,126.99199821444,,,,,경기 과천시 별양상가1로 10
강원도 막국수,음식점,경기도 용인시 수지구 동천동 87-15,37.3473205143132,127.089301774655,,,,,경기 용인시 수지구 고기로129번길 6
강원도막국수,음식점,경기도 수원시 팔달구 고등동 300-14,37.2700238069389,127.003260578295,,,,,경기 수원시 팔달구 갓매산로 70
강원막국수,음식점,경기도 김포시 고촌읍 전호리 3-12,37.6038382219307,126.792383261976,,,,,경기 김포시 고촌읍 전호로 68
강원한방토종삼계탕,음식점,경기도 부천시 원미구 상동 459-1,37.4894566483521,126.756409876942,,,,,경기 부천시 원미구 부일로237번길 23
강적들숯불닭갈비 수원본점,음식점,경기도 수원시 팔달구 인계동 1120-4,37.2637977710075,127.034161102316,,,,,경기 수원시 팔달구 효원로291번길 49-8
개군양평해장국 과천본점,음식점,경기도 과천시 과천동 370-1,37.454454289615,127.0009381874,,,,,경기 과천시 뒷골로 22-11
개군흡갈비,음식점,경기도 양평군 개군면 하자포리 213-4,37.4279854678068,127.537938837162,,,,,경기 양평군 개군면 개군로 466
개미김밥,음식점,경기도 안산시 상록구 본오동 874-10,37.3019118180359,126.865139084406,,,,,경기 안산시 상록구 용신로 387
개미분식,음식점,경기도 가평군 청평면 청평리 465-12,37.7377842405017,127.41928366178,,,,,경기 가평군 청평면 청평중앙로 41-1
개미촌,음식점,경기도 광주시 남한산성면 검복리 94-1,37.4671750622529,127.206467277244,,,,,경기 광주시 남한산성면 남한산성로 512
개성상황버섯삼계탕 안성직영점,음식점,경기도 안성시 계동 82-2,36.9888885430638,127.269568740502,,,,,경기 안성시 안성맞춤대로 838
개성손만두,음식점,경기도 수원시 팔달구 우만동 518-1,37.286539945305,127.033833184852,,,,,경기 수원시 팔달구 월드컵로 319
개성손만두,음식점,경기도 성남시 분당구 야탑동 527-3,37.4057237948473,127.129817056259,,,,,경기 성남시 분당구 판교로 503
개성손만두 요리전문점,음식점,경기도 광명시 소하동 1337,37.4479654941954,126.885490356823,,,,,경기 광명시 소하로109번길 24
개성손만두 파주점,음식점,경기도 파주시 서패동 345,37.7148751409509,126.699491686779,,,,,경기 파주시 돌곶이길 8-18
개성손만두요리전문점 고양점,음식점,경기도 고양시 덕양구 성사동 291-17,37.6484779787788,126.858129987968,,,,,경기 고양시 덕양구 고양대로 1585
개성손만두요리전문점 별내점,음식점,경기도 남양주시 별내동 931-2,37.6578997767466,127.125276343287,,,,,경기 남양주시 순화궁로 349
개성전통삼계탕,음식점,경기도 성남시 분당구 수내동 22-3 다운타운,37.3768366278685,127.111386420693,,,,,경기 성남시 분당구 백현로 97
개성집,음식점,경기도 시흥시 군자동 110,37.362152900533,126.807920695219,,,,,경기 시흥시 시흥대로 248-20
개화식당,음식점,경기도 평택시 통복동 85-17,36.9956596771542,127.085195773293,,,,,경기 평택시 통복시장로6번길 2
갠지스,음식점,경기도 수원시 영통구 이의동 1306-4,37.2945360973404,127.052838048989,,,,,경기 수원시 영통구 센트럴파크로127번길 66
갠지스 보정점,음식점,경기도 용인시 기흥구 보정동 1193-2,37.3211647731145,127.109251314327,,,,,경기 용인시 기흥구 죽전로15번길 7-15
갤러리 우화각,음식점,경기도 성남시 수정구 심곡동 385-1,37.4510199829429,127.099951988612,,,,,경기 성남시 수정구 심곡로50번길 3
갤러리카페 봄,음식점,경기 과천시 갈현동 354-3,37.4160071478,126.982861786412,,,,,경기 과천시 가일로 15-3
갯마을세꼬시,음식점,경기도 고양시 일산서구 주엽동 138,37.6723925632405,126.754721230228,,,,,경기 고양시 일산서구 중앙로 1493
갯벌스타일,음식점,경기도 수원시 영통구 영통동 974-2,37.2468264827058,127.059907602353,,,,,경기 수원시 영통구 영통로218번길 48
갯벌의조개 미사역점,음식점,경기도 하남시 망월동 1096 104,37.56490438485208,127.19068716647506,,,,,경기 하남시 미사강변중앙로204번길 22
거궁,음식점,경기도 이천시 신둔면 수남리 1,37.2999470013969,127.405772732399,,,,,경기 이천시 신둔면 서이천로 945
거궁 하남점,음식점,경기도 하남시 망월동 1155 라파르코 4층,37.5635300991701,127.199731705622,,,,,경기 하남시 미사대로 456
거창흑염소삼계탕,음식점,경기도 양주시 만송동 296-5,37.7933811454529,127.088882703363,,,,,경기 양주시 송랑로89번길 8
건강밥상 심마니 광교점,음식점,경기도 수원시 영통구 이의동 1336-1,37.2872002610454,127.057921569017,,,,,경기 수원시 영통구 광교중앙로 145
건업리보리밥,음식점,경기도 광주시 곤지암읍 건업리 335-4,37.3873523862526,127.406474913372,,,,,경기 광주시 곤지암읍 광여로 841
건하당,음식점,경기도 안양시 동안구 호계동 1047-2 3층,37.3907183095632,126.954183289373,,,,,경기 안양시 동안구 평촌대로223번길 27
걸구쟁이네,음식점,경기도 여주시 강천면 간매리 496-5,37.2645111901009,127.718958420097,,,,,경기 여주시 강천면 강문로 707
검단산흑염소,음식점,경기도 하남시 창우동 375-10,37.5325191790727,127.228754422693,,,,,경기 하남시 검단산로218번길 41-8
게이트나인 현대백화점판교점,음식점,경기도 성남시 분당구 백현동 541 현대백화점 9층,37.3926536571583,127.112037135835,,,,,경기 성남시 분당구 판교역로146번길 20
겐로쿠우동,음식점,경기도 고양시 일산동구 장항동 868,37.6547762126622,126.772641723565,,,,,경기 고양시 일산동구 정발산로 24
겸손돈가스,음식점,경기도 김포시 구래동 6882-11,37.6438898962088,126.624038567936,,,,,경기 김포시 김포한강9로75번길 22
경기순대국뼈마루감자탕,음식점,경기도 안산시 단원구 고잔동 708-2,37.3101153169513,126.829036473956,,,,,경기 안산시 단원구 광덕대로 151
경남아구찜,음식점,경기도 고양시 덕양구 지축동 595-1,37.6600066145878,126.920475016443,,,,,경기 고양시 덕양구 일영로 148
경복궁 동탄점,음식점,경기도 화성시 능동 976-2,37.1990735994665,127.057227218683,,,,,경기 화성시 10용사로 358
경복궁 들깨삼계탕 군포점,음식점,경기도 군포시 당동 872,37.3461933799952,126.942426572016,,,,,경기 군포시 군포로 444
경복궁개성손만두 다산점,음식점,경기도 남양주시 다산동 608-7,37.6033231678446,127.159576368922,,,,,경기 남양주시 가운로 31
경복궁삼계탕 별내점,음식점,경기도 남양주시 별내동 75-11,37.6562749217521,127.130371363425,,,,,경기 남양주시 송산로 156-1
경성,음식점,경기도 김포시 운양동 19-10,37.6480737671576,126.701403859167,,,,,경기 김포시 걸포로192번길 21
경성고기꾼 구리점,음식점,경기도 구리시 수택동 382-16 1층,37.5993448707626,127.139123346715,,,,,경기 구리시 안골로63번길 42-15
경성꽈배기 평택역점,음식점,경기도 평택시 평택동 43-8,36.9924509803606,127.088076923033,,,,,경기 평택시 평택2로 12
경성면옥 동탄직영점,음식점,경기도 화성시 영천동 793-2,37.2089607206697,127.09374488495,,,,,경기 화성시 동탄기흥로520번가길 23
경성빵공장 남한산성점,음식점,경기도 광주시 남한산성면 산성리 132,37.4759062585347,127.190669283123,,,,,경기 광주시 남한산성면 남한산성로 714
경성함바그 AK&기흥점,음식점,경기도 용인시 기흥구 구갈동 234-3,,,,,,,
경아식당 다산점,음식점,경기도 남양주시 다산동 6087-1,37.6232673051106,127.152382129037,,,,,경기 남양주시 다산중앙로123번길 7-34
경안당,음식점,경기 수원시 팔달구 장안동 124,37.285517798132,127.01200808613,,,,,경기 수원시 팔달구 화서문로31번길 8-15
경양카츠 안성점,음식점,경기도 안성시 옥산동 594-1,37.0070767843261,127.257666930368,,,,,경기 안성시 아양1로 77-31
경양카츠 용인보정점,음식점,경기도 용인시 기흥구 보정동 1187-11,37.321373811815,127.109544726817,,,,,경기 용인시 기흥구 죽전로15번길 7-12
경원식당 의정부역전점,음식점,경기도 의정부시 의정부동 498,37.7367167556617,127.043896034496,,,,,경기 의정부시 신흥로232번길 8
경희대집,음식점,경기도 용인시 기흥구 하갈동 산91-2,37.2414313400585,127.092584806823,,,,,경기 용인시 기흥구 하갈동 산 91-2
계단라멘,음식점,경기도 고양시 일산동구 정발산동 1341-6,37.6668891299811,126.783935819861,,,,,경기 고양시 일산동구 율천로7번길 10
계동 남원추어탕,음식점,경기도 안성시 계동 169-5,36.9857230724177,127.268601922972,,,,,경기 안성시 안성맞춤대로 804
계동돼지,음식점,경기도 수원시 팔달구 인계동 1041-1,37.2651511459824,127.030495377876,,,,,경기 수원시 팔달구 인계로124번길 49
계림원,음식점,경기도 수원시 권선구 권선동 1014-5,37.2605308073927,127.030393522992,,,,,경기 수원시 권선구 효원로266번길 25
계림원 야당역점,음식점,경기도 파주시 야당동 1054,37.7104428736302,126.759834770417,,,,,경기 파주시 경의로 1042
계림정갈비탕,음식점,경기도 파주시 금릉동 437-4,37.7518756662186,126.778578284141,,,,,경기 파주시 쇠재안길 35
계미굴,음식점,경기도 수원시 팔달구 신풍동 21,37.2855173143229,127.014699291126,,,,,경기 수원시 팔달구 화서문로 60
계수가든,음식점,경기도 시흥시 계수동 78-1,37.4589682196752,126.812114876562,,,,,경기 시흥시 범안로266번길 11
계절곳간,음식점,경기도 수원시 팔달구 북수동 311-6,37.2822003759293,127.017585263857,,,,,경기 수원시 팔달구 창룡대로7번길 5
계정횟집,음식점,경기도 양평군 양동면 계정리 744-3,37.4689675287341,127.774578377161,,,,,경기 양평군 양동면 양서북로 666-13
계진상 수원인계본점,음식점,경기도 수원시 팔달구 인계동 1039-5,37.2661958196854,127.032175836343,,,,,경기 수원시 팔달구 인계로138번길 22
계진상 안양점,음식점,경기도 안양시 만안구 안양동 674-152,37.3984347867009,126.9238492979,,,,,경기 안양시 만안구 장내로 149
계탄언니 범계직영점,음식점,경기도 안양시 동안구 호계동 1047-8 2층,37.3911018507535,126.9552971821,,,,,경기 안양시 동안구 평촌대로 221
계화원,음식점,경기도 가평군 상면 행현리 536-3,37.7542867357585,127.360800356913,,,,,경기 가평군 상면 수목원로 276
고공 분당점,음식점,경기도 성남시 분당구 정자동 42-7,37.3716689530444,127.113874585607,,,,,경기 성남시 분당구 백현로156번길 16
고구려짬뽕10101 철산점,음식점,경기 광명시 철산동 434,37.4744506883794,126.869625528292,,,,,경기 광명시 철산로30번길 24
고굽장인 보라점,음식점,경기 용인시 기흥구 보라동 578-5,37.2548246179018,127.110862505009,,,,,경기 용인시 기흥구 한보라2로 5-11
고굽진 과천본점,음식점,경기도 과천시 중앙동 40-10,37.4283218945802,126.990925082899,,,,,경기 과천시 중앙로 129
고기구워먹는마당,음식점,경기도 용인시 처인구 양지면 남곡리 524-8,37.2256084540341,127.286891564827,,,,,경기 용인시 처인구 양지면 용곡로75번길 5
고기굽는형제 과천디테크타워점,음식점,경기도 과천시 갈현동 554,37.4139297171912,126.977274462975,,,,,경기 과천시 과천대로7길 33
고기는 한우다,음식점,경기도 고양시 일산동구 풍동 573-1,37.671058898103,126.791720861015,,,,,경기 고양시 일산동구 애니골길 38
고기리금잔디,음식점,경기도 용인시 수지구 고기동 478-9,37.36341460136,127.051814920226,,,,,경기 용인시 수지구 고기로 553-17
고기리막국수,음식점,경기도 용인시 수지구 고기동 593-4,37.3598545274559,127.04004608009,,,,,경기 용인시 수지구 이종무로 157
고기마당,음식점,경기도 수원시 팔달구 매산로1가 57-11,37.2667310597336,127.002482756868,,,,,경기 수원시 팔달구 매산로 2-11
고기싸롱 수원금곡점,음식점,경기도 수원시 권선구 금곡동 1114,37.2748517438664,126.953644854327,,,,,경기 수원시 권선구 금곡로 213
고기원칙 용인역북점,음식점,경기도 용인시 처인구 역북동 759 101호,37.2318572961317,127.187907094892,,,,,경기 용인시 처인구 명지로60번길 8-12
고기원칙 은계점,음식점,경기도 시흥시 은행동 646-9,37.4371975534105,126.803395826954,,,,,경기 시흥시 은계번영길 21
고기장터 행신점,음식점,경기도 고양시 덕양구 행신동 762-2 110,37.6135274486309,126.834502618795,,,,,경기 고양시 덕양구 충장로 8
고기카페,음식점,경기도 파주시 동패동 22-5,37.7056948333199,126.746531693016,,,,,경기 파주시 미래로 306
고깃집,음식점,경기도 부천시 원미구 심곡동 386-6,37.4849048900789,126.780518927046,,,,,경기 부천시 원미구 부천로3번길 41
고능생선구이시골밥상,음식점,경기도 연천군 전곡읍 고능리 103-1,38.0022874456581,127.045838348463,,,,,경기 연천군 전곡읍 양연로 1284
고당,음식점,경기도 광주시 쌍령동 143-12,37.4016130252947,127.26802269729,,,,,경기 광주시 경충대로1481번길 30-1
고도,음식점,경기도 화성시 반송동 87-5 아이팰리스 104호,37.2064573508184,127.074136054106,,,,,경기 화성시 동탄중심상가2길 30
고도 수원점,음식점,경기도 수원시 팔달구 인계동 1120-7,37.2634524623031,127.034262633276,,,,,경기 수원시 팔달구 효원로291번길 49-3
고동경양 분당수내점,음식점,경기도 성남시 분당구 수내동 20-2,37.37761164665,127.112667802783,,,,,경기 성남시 분당구 백현로101번길 17
고등어명품이되다,음식점,경기도 평택시 죽백동 464-11,37.0162822844773,127.114896945879,,,,,경기 평택시 만세로 1678
고래다,음식점,경기도 수원시 장안구 조원동 725-7,37.3038743002956,127.014945373144,,,,,경기 수원시 장안구 조원로112번길 35
고르목,음식점,경기도 군포시 산본동 248-5,37.3704792275447,126.942795360592,,,,,경기 군포시 군포로735번길 15-3
고릴라,음식점,경기도 과천시 중앙동 40-5,37.4289952629298,126.991438847046,,,,,경기 과천시 새술막길 38
고망고 AK플라자 광명점,음식점,경기도 광명시 일직동 512-3 지하2층,37.4186752766706,126.882647641062,,,,,경기 광명시 양지로 17
고매옥,음식점,경기도 용인시 기흥구 고매동 481-1,37.221114056065,127.103711215759,,,,,경기 용인시 기흥구 원고매로2번길 3
고메스퀘어 배곧직영점,음식점,경기도 시흥시 배곧동 230,37.3666012473886,126.727723162842,,,,,경기 시흥시 서울대학로264번길 26-32
고모리691,음식점,경기도 포천시 소흘읍 고모리 691-1,37.7965498302257,127.160806997807,,,,,경기 포천시 소흘읍 고모루성길 267
고모리능이백숙,음식점,경기도 포천시 소흘읍 고모리 190,37.7933115956102,127.165366019937,,,,,경기 포천시 소흘읍 죽엽산로 457-4
고미고김밥,음식점,경기도 고양시 덕양구 삼송동 291,37.6525622218669,126.896613116843,,,,,경기 고양시 덕양구 동송로 70
고반식당 광교월드스퀘어점,음식점,경기도 수원시 영통구 이의동 1331 월드스퀘어 Gate4,37.2919159834203,127.04838150919,,,,,경기 수원시 영통구 센트럴타운로 107
고반식당 광명소하점,음식점,경기도 광명시 소하동 1343-5,37.446479308825,126.883134577217,,,,,경기 광명시 소하로92번길 5
고반식당 광명아브뉴프랑점,음식점,경기도 광명시 일직동 513,37.4164926758093,126.880603576297,,,,,경기 광명시 양지로 16
고반식당 구리갈매점,음식점,경기도 구리시 갈매동 601-1,37.6328689875227,127.117331385564,,,,,경기 구리시 갈매중앙로 89-8
고반식당 망포역점,음식점,경기도 수원시 영통구 영통동 976-6,37.2462681045432,127.05846696042,,,,,경기 수원시 영통구 덕영대로 1531
고반식당 용인보정점,음식점,경기도 용인시 기흥구 보정동 1191-11,37.3210244334525,127.110661371671,,,,,경기 용인시 기흥구 죽전로15번길 4-9
고반식당 파주야당점,음식점,경기도 파주시 야당동 1074-1,37.7157573331731,126.760183498346,,,,,경기 파주시 경의로 1102
고베 하우스 철판요리,음식점,경기도 안양시 동안구 관양동 1605-1,37.3927411596352,126.961128841438,,,,,경기 안양시 동안구 관평로176번길 10
고베규카츠 수원인계점,음식점,경기도 수원시 팔달구 인계동 1118-12 2층,37.2640589368293,127.034937293913,,,,,경기 수원시 팔달구 인계로166번길 51
고베맨숀,음식점,경기도 수원시 영통구 이의동 1262-1,37.299332550243,127.045792124327,,,,,경기 수원시 영통구 대학1로58번길 6
고봉민김밥인,음식점,경기도 부천시 옥길동 726-3,37.4675474292368,126.822167243959,,,,,경기 부천시 소사구 옥길로 117
고봉민김밥인,음식점,경기도 안양시 동안구 비산동 1101-2,37.3965121703858,126.948945726601,,,,,경기 안양시 동안구 달안로 61
고봉민김밥인,음식점,경기도 화성시 진안동 914-7,37.2154072980628,127.043955184868,,,,,경기 화성시 효행로 1073
고봉민김밥인 안양 박달점,음식점,경기도 안양시 만안구 박달동 128-5,37.4020121701275,126.903449565152,,,,,경기 안양시 만안구 박달로 460
고봉산시래기,음식점,경기도 고양시 일산동구 중산동 4,37.6848398633487,126.792627380108,,,,,경기 고양시 일산동구 성석로 60
고블린,음식점,경기도 이천시 신둔면 수남리 10-10,37.2982777347241,127.401471123748,,,,,경기 이천시 신둔면 서이천로 901
고산떡갈비,음식점,경기도 의정부시 의정부동 202-15,37.7422780852613,127.047817903506,,,,,경기 의정부시 평화로562번길 13
고산떡갈비,음식점,경기도 의정부시 신곡동 763-1,37.750345258315,127.071653621492,,,,,경기 의정부시 장곡로 620
고삼묵집,음식점,경기도 안성시 고삼면 가유리 194,37.0869228921196,127.257799858196,,,,,경기 안성시 고삼면 무수개울말길 21
고성막국수,음식점,경기도 남양주시 퇴계원읍 퇴계원리 264-15,37.6522862325535,127.143375914551,,,,,경기 남양주시 퇴계원읍 퇴계원공원1길 28
고수닭갈비,음식점,경기도 수원시 영통구 이의동 1332,37.2906667925637,127.050518820725,,,,,경기 수원시 영통구 센트럴타운로 85
고수닭갈비 AK&기흥점,음식점,경기도 용인시 기흥구 구갈동 234-3,37.2744792782033,127.116615367132,,,,,경기 용인시 기흥구 기흥역로 63
고수찜닭,음식점,경기도 용인시 수지구 죽전동 1339-10,37.3244511847469,127.12526912113,,,,,경기 용인시 수지구 죽전로168번길 19
고스락 손수제비 본점,음식점,경기도 수원시 영통구 하동 983-2,37.292644625366,127.068040619267,,,,,경기 수원시 영통구 광교중앙로 256
고씨네국수,음식점,경기도 성남시 수정구 상적동 348-1,37.4268328621154,127.068922333405,,,,,경기 성남시 수정구 옛골로26번길 3
고씨네칼국수,음식점,경기도 김포시 마산동 666-9,37.6348502321192,126.643560784728,,,,,경기 김포시 김포한강8로148번길 8-29
고씨주방,음식점,경기도 수원시 영통구 영통동 1036-7,37.253065174961,127.077670590386,,,,,경기 수원시 영통구 청명남로50번길 24
고양이부엌,음식점,경기 성남시 분당구 정자동 8-3 월드프라자,37.3715564693532,127.106264290305,,,,,경기 성남시 분당구 정자일로 240
고양이부엌 동탄점,음식점,경기도 화성시 반송동 93-10,37.2028907548104,127.071589947254,,,,,경기 화성시 동탄반석로 160
고엔스시,음식점,경기도 성남시 분당구 구미동 192,37.3353555417378,127.109774462644,,,,,경기 성남시 분당구 성남대로2번길 6
고요로스터리카페,음식점,경기도 부천시 원미구 중동 1123 1층 110호,37.4964376820511,126.776200765126,,,,,경기 부천시 원미구 부흥로303번길 36
고진사,음식점,경기도 용인시 수지구 풍덕천동 709-6,37.3251349426107,127.096566846013,,,,,경기 용인시 수지구 풍덕천로147번길 11
고집통문어칼국수 별내별가람역점,음식점,경기도 남양주시 별내동 2177,37.6663244797065,127.121494017212,,,,,경기 남양주시 순화궁로 450-31
고창복의낙지세상 광명점,음식점,경기도 광명시 하안동 881,37.4534211841575,126.86568567771,,,,,경기 광명시 범안로 893
고철상,음식점,경기도 용인시 기흥구 상하동 465-13,37.2743627727115,127.13936803098,,,,,경기 용인시 기흥구 어정로 87-1
고철상 김량장직영점,음식점,경기도 용인시 처인구 김량장동 337-16,37.2331351642563,127.200912733346,,,,,경기 용인시 처인구 중부대로 1409
고칸,음식점,경기도 수원시 팔달구 화서동 685-5,37.285756349719,126.985958777715,,,,,경기 수원시 팔달구 화산로 12
고쿠텐,음식점,경기도 성남시 분당구 정자동 155-2,37.3637189454404,127.106308663751,,,,,경기 성남시 분당구 정자로 13
고쿠텐 일산웨스턴돔점,음식점,경기 고양시 일산동구 장항동 868 웨스턴돔a동 235,37.6547762126622,126.772641723565,,,,,경기 고양시 일산동구 정발산로 24
고파 의정부역점,음식점,경기도 의정부시 의정부동 442-2,37.7388732348839,127.04411502222,,,,,경기 의정부시 흥선로154번길 51
고품달 김포점,음식점,경기도 김포시 양촌읍 석모리 924,37.6506020539951,126.649967134709,,,,,경기 김포시 양촌읍 석모로5번길 27
고피자 하남미사점,음식점,경기도 하남시 망월동 1081,37.5668192381484,127.190427182069,,,,,경기 하남시 아리수로 570
고향길장터순대,음식점,경기도 안산시 단원구 고잔동 682-2,37.3148340497577,126.822621591903,,,,,경기 안산시 단원구 다리간로 8
고향김밥,음식점,경기도 구리시 수택동 404-14,37.5999980494917,127.139842622374,,,,,경기 구리시 경춘로 218-5
고향마을,음식점,경기도 부천시 범박동 211-5,37.4723294984385,126.814121270905,,,,,경기 부천시 소사구 양지로 102
고향밥상,음식점,경기도 포천시 소흘읍 이곡리 220-14,37.7759656301339,127.151301348372,,,,,경기 포천시 소흘읍 광릉수목원로 832
고향손칼국수,음식점,경기도 연천군 연천읍 현가리 31-12,38.1116611820553,127.075523560776,,,,,경기 연천군 연천읍 연천로 390
고향손칼국수,음식점,경기도 광주시 쌍령동 187-4,37.4003866758187,127.272934469999,,,,,경기 광주시 경충대로 1462
고향손칼국수,음식점,경기도 용인시 수지구 죽전동 1188-4,37.3318919778943,127.127227801481,,,,,경기 용인시 수지구 현암로 159
고향엄마손생바지락칼국수 성남시청직영점,음식점,경기도 성남시 중원구 여수동 317,37.4173062714093,127.12576318537,,,,,경기 성남시 중원구 성남대로997번길 51-13
고향옥얼큰순대국,음식점,경기도 고양시 덕양구 벽제동 243-11,37.6987681186068,126.902872790538,,,,,경기 고양시 덕양구 호국로 1654
고향옥얼큰순대국 의정부장암점,음식점,경기도 의정부시 장암동 179-3 1층,37.7014970466726,127.055578531165,,,,,경기 의정부시 동일로 134
고향옥얼큰순대국 풍무점,음식점,경기도 김포시 풍무동 190-1,37.6073910419388,126.72618860849697,,,,,경기 김포시 풍무2로 10
고향집,음식점,경기도 파주시 탄현면 성동리 206-3,37.7878447853709,126.688490327098,,,,,경기 파주시 탄현면 새오리로 30
고향집,음식점,경기도 양평군 용문면 덕촌리 144-3,37.5226313502643,127.599313206052,,,,,경기 양평군 용문면 용문산로 291
고향촌 전통순대국 신중동본점,음식점,경기도 부천시 원미구 중동 1137,37.5016642627032,126.775553773968,,,,,경기 부천시 원미구 소향로253번길 25
고향칼국수,음식점,경기도 고양시 덕양구 삼송동 27-34,37.6537985887971,126.894519924302,,,,,경기 고양시 덕양구 삼송로 187
고혼,음식점,경기도 수원시 팔달구 매교동 150-3,37.2693260236973,127.017087211726,,,,,경기 수원시 팔달구 정조로 681
곡주,음식점,경기도 부천시 상동 412-2,37.4896118746046,126.753275422555,,,,,경기 부천시 원미구 부일로205번길 26
곤돈,음식점,경기 안양시 만안구 안양동 873-174 1층,37.4007583189233,126.917763531044,,,,,경기 안양시 만안구 안양로329번길 27
곤드레밥집,음식점,경기도 수원시 팔달구 인계동 1132-8,37.2593352061041,127.031795050891,,,,,경기 수원시 팔달구 권광로134번길 12
곤드레밥집,음식점,경기도 화성시 반송동 76-3,37.1993433629758,127.06225306042,,,,,경기 화성시 10용사로 404
곤드레밥집 여월점,음식점,경기도 부천시 여월동 74-3,37.514980321172,126.797356736307,,,,,경기 부천시 오정구 성골로 39
곤드레찜드레,음식점,경기 용인시 처인구 역북동 582-16,37.2332188127244,127.188960066228,,,,,경기 용인시 처인구 명지로 31
곤드레향기 동탄본점,음식점,경기도 화성시 중동 162-1,37.2043287951378,127.139494071641,,,,,경기 화성시 풀무골로106번길 8
곤봉식객,음식점,경기도 시흥시 대야동 556-4,37.4400640700812,126.792708323462,,,,,경기 시흥시 대은로 13
곤이네숯불구이,음식점,경기도 평택시 서정동 843-13,37.0658563806698,127.060775050144,,,,,경기 평택시 서정로 247
곤지암소머리국밥,음식점,경기도 수원시 장안구 파장동 575,37.3099973450155,126.99221942823,,,,,경기 수원시 장안구 경수대로 1099
곤트란 쉐리에,음식점,경기도 성남시 분당구 정자동 166-3,37.3618670387447,127.106538475293,,,,,경기 성남시 분당구 정자일로 132
곤트란쉐리에 경기광주점,음식점,경기 광주시 경안동 23,37.4102652977551,127.259469898702,,,,,경기 광주시 경안로 10
곧,음식점,경기도 화성시 목동 455-12,37.1813888979683,127.125307933916,,,,,경기 화성시 왕배산3길 6
골드기사식당,음식점,경기도 용인시 수지구 성복동 33-1,37.3107267803308,127.080955427915,,,,,경기 용인시 수지구 성복2로 17
골드핸즈,음식점,경기도 고양시 일산동구 중산동 12-2 104호,37.6828152727127,126.790838086293,,,,,경기 고양시 일산동구 성석로 30
골든카츠 고촌점,음식점,경기도 김포시 고촌읍 신곡리 1291 104호,37.6024056239403,126.771684270178,,,,,경기 김포시 고촌읍 은행영사정로23번길 23
골든트리,음식점,경기도 가평군 가평읍 금대리 128-10,37.7554444163911,127.539124985232,,,,,경기 가평군 가평읍 북한강변로 326-124
골든플레이버,음식점,경기도 부천시 상동 411-2 금강플라자 303호,37.4898867603259,126.752839070084,,,,,경기 부천시 원미구 상일로94번길 37
골디스,음식점,경기도 수원시 팔달구 장안동 89-8,37.2866481708382,127.012684657517,,,,,경기 수원시 팔달구 신풍로63번길 20
골로소,음식점,경기도 수원시 팔달구 장안동 93-1,37.2865111868729,127.012925735388,,,,,경기 수원시 팔달구 신풍로63번길 11-2
골목냉면 평촌점,음식점,경기도 안양시 동안구 평촌동 138-4,37.387936211243,126.973236235864,,,,,경기 안양시 동안구 흥안대로 376-3
골목분식,음식점,경기도 남양주시 진건읍 용정리 786-15,37.6566406512652,127.179948568085,,,,,경기 남양주시 진건읍 사릉로용정1길 2
골목식당,음식점,경기도 의정부시 의정부동 439-15,37.7392440939496,127.044540916363,,,,,경기 의정부시 신흥로258번길 21
골목안채,음식점,경기도 남양주시 다산동 6174-12,37.6134833871186,127.16626881838,,,,,경기 남양주시 다산중앙로82번안길 131-32
골목족발,음식점,경기도 성남시 분당구 야탑동 373-2,37.4113693538602,127.13149199781,,,,,경기 성남시 분당구 야탑로111번길 12-11
골목집,음식점,경기도 수원시 팔달구 장안동 143-3,37.2855764290456,127.013898988469,,,,,경기 수원시 팔달구 화서문로 53-1
골목집,음식점,경기도 성남시 분당구 금곡동 161,37.350754335562,127.108290014952,,,,,경기 성남시 분당구 성남대로 165
골목집소머리국밥,음식점,경기도 광주시 곤지암읍 곤지암리 442-14,37.3503388678647,127.339888041001,,,,,경기 광주시 곤지암읍 경충대로 621
골목추어탕,음식점,경기도 안양시 만안구 안양동 714-113,37.3951208008346,126.917494927447,,,,,경기 안양시 만안구 삼덕로 77
곰김밥,음식점,경기도 김포시 마산동 672-3 105호,37.6363839225427,126.639157822118,,,,,경기 김포시 김포한강8로 173-59
곰작골나주곰탕 여주점,음식점,경기도 여주시 가남읍 태평리 268-7,37.2136852764265,127.541500586672,,,,,경기 여주시 가남읍 경충대로 1410
곰터먹촌,음식점,경기도 포천시 내촌면 내리 273-5,37.7941795174435,127.230047011445,,,,,경기 포천시 내촌면 내촌로 169
곱네 소곱창 본점,음식점,경기도 시흥시 대야동 693,37.4404766434995,126.7898505508,,,,,경기 시흥시 수인로3312번길 16
곱분이곱창 용인수지점,음식점,경기도 용인시 수지구 상현동 66-2 헤르메스상가 1층 104호,37.3095181250719,127.085824543175,,,,,경기 용인시 수지구 만현로 82-4
곱분이곱창 원흥역점,음식점,경기도 고양시 덕양구 원흥동 631-1,37.6491593432638,126.875398288165,,,,,경기 고양시 덕양구 원흥4로 9
곱창시막창동,음식점,경기도 안산시 단원구 고잔동 727-2,37.313290840511,126.832636357413,,,,,경기 안산시 단원구 광덕동로 99
공가네한우국밥,음식점,경기도 하남시 덕풍동 26-12,37.5554913561605,127.208419947894,,,,,경기 하남시 미사대로 572
공간상점,음식점,경기도 수원시 팔달구 장안동 91-9,37.2863238752491,127.011931080173,,,,,경기 수원시 팔달구 화서문로41번길 26
공감플랫폼,음식점,경기도 광주시 추자동 285-3,37.3604792763115,127.225307735028,,,,,경기 광주시 오포로 761
공개정원,음식점,경기도 부천시 원미구 심곡동 353-5,37.4889194500413,126.782242508515,,,,,경기 부천시 원미구 장말로362번길 31
공덕갈비,음식점,경기도 가평군 상면 임초리 45-1,37.7719334392801,127.380611359964,,,,,경기 가평군 상면 청군로 610
공도동춘옥,음식점,경기도 구리시 인창동 67-8,37.6154390489774,127.137516206523,,,,,경기 구리시 동구릉로 185
공릉닭한마리 민락2지구점,음식점,경기도 의정부시 민락동 821,37.7470616841327,127.099879852163,,,,,경기 의정부시 오목로 235
공릉동 원조멸치국수 별내점,음식점,경기도 남양주시 별내동 839-7,37.666554347503,127.116646877027,,,,,경기 남양주시 덕송2로6번길 29
공릉동 원조멸치국수 정자점,음식점,경기도 성남시 분당구 정자동 127-6 한솔프라자,37.361917019794,127.114474716927,,,,,경기 성남시 분당구 내정로17번길 2
공릉동닭한마리 의정부점,음식점,경기도 의정부시 의정부동 188-18,37.7427003284559,127.048359936375,,,,,경기 의정부시 호국로1298번길 19
공릉동닭한마리 퇴계원점,음식점,경기도 남양주시 퇴계원읍 퇴계원리 220-1 2층 201호,37.6497370125133,127.142168842163,,,,,경기 남양주시 퇴계원읍 퇴계원로36번길 7
공만치킨 다산점,음식점,경기도 남양주시 다산동 6087-1,37.6232673051106,127.152382129037,,,,,경기 남양주시 다산중앙로123번길 7-34
공원 스크립트,음식점,경기도 용인시 수지구 고기동 232,37.3593549711497,127.048758321421,,,,,경기 용인시 수지구 이종무로 80
공이이사,음식점,경기도 김포시 걸포동 1573-11,37.6327545735293,126.708179644039,,,,,경기 김포시 걸포로10번길 26
공차,음식점,경기도 성남시 수정구 창곡동 509,37.4734723225874,127.142735871718,,,,,경기 성남시 수정구 위례광장로 300
공차,음식점,경기도 광명시 철산동 382,37.475988840642,126.869009315804,,,,,경기 광명시 철산로 24
공차 AK플라자수원점,음식점,경기도 수원시 팔달구 매산로1가 18 지하 1층,37.2661226120945,126.999816122792,,,,,경기 수원시 팔달구 덕영대로 924
공차 NC평촌범계점,음식점,경기도 안양시 동안구 호계동 1039-3,37.3891820400727,126.951191879296,,,,,경기 안양시 동안구 동안로 119
공차 가평휴게소서울방향점,음식점,경기도 가평군 설악면 미사리 145-3 가평휴게소서울방향점,37.7031510801047,127.545050605699,,,,,경기 가평군 설악면 미사리로 544
공차 분당서울대학교병원점,음식점,경기도 성남시 분당구 구미동 300,37.349786822389,127.124231209576,,,,,경기 성남시 분당구 구미로173번길 82
공차 서현점,음식점,경기도 성남시 분당구 서현동 261-5,37.386049343382,127.121699993285,,,,,경기 성남시 분당구 황새울로335번길 5
공차 용인동백점,음식점,경기도 용인시 기흥구 중동 832-1,37.2775250051726,127.152776584007,,,,,경기 용인시 기흥구 동백5로 21-11
공차 원마운트점,음식점,경기도 고양시 일산서구 대화동 2606,37.6643781827399,126.754418696658,,,,,경기 고양시 일산서구 한류월드로 300
공차 일산백마점,음식점,경기도 고양시 일산동구 마두동 751-1,37.6569764135437,126.788181902709,,,,,경기 고양시 일산동구 일산로 235
공차 일산주엽역점,음식점,경기도 고양시 일산서구 주엽동 109,37.6700473156475,126.760507374229,,,,,경기 고양시 일산서구 중앙로 1437
공차 하남점,음식점,경기도 하남시 신장동 616,37.5455517487259,127.223680396222,,,,,경기 하남시 미사대로 750
공차 회룡역점,음식점,경기도 의정부시 호원동 51-1,37.7248224299307,127.046660009307,,,,,경기 의정부시 외미로 99
과림매운탕,음식점,경기도 시흥시 과림동 208-16,37.4520238977178,126.829309506714,,,,,경기 시흥시 과림저수지길 60
과실원,음식점,경기도 구리시 수택동 414-12 2층,37.5991721503593,127.140719814851,,,,,경기 구리시 안골로97번길 43
곽만근셰프 대단한한우국밥,음식점,경기도 남양주시 화도읍 차산리 159-1 1층,37.634539241354,127.30370812564,,,,,경기 남양주시 화도읍 수레로 1088
곽지원 빵공방,음식점,경기도 양평군 양서면 양수리 647-17,37.5442313587883,127.31695122689,,,,,경기 양평군 양서면 두물머리길8번길 28
관악관,음식점,경기도 안양시 동안구 비산동 1027,37.4033331930956,126.948994295825,,,,,경기 안양시 동안구 평촌대로 367
관촌순두부,음식점,경기도 이천시 사음동 192-1,37.2945327531598,127.418515819828,,,,,경기 이천시 경충대로 2934
광교동태전문점,음식점,경기도 수원시 영통구 하동 989,37.2914949849188,127.066466122532,,,,,경기 수원시 영통구 광교중앙로248번길 7-2
광교산도토리국수,음식점,경기도 용인시 수지구 신봉동 559-1,37.3329020580853,127.056724553569,,,,,경기 용인시 수지구 신봉1로 302-1
광교연탄불고기,음식점,경기도 수원시 영통구 이의동 1261-15,37.2995400571265,127.045092959648,,,,,경기 수원시 영통구 대학1로50번길 7
광릉돌솥밥,음식점,경기도 남양주시 진접읍 팔야리 732-6,37.749605297057,127.20869573296,,,,,경기 남양주시 진접읍 금강로1845번길 1
광릉불고기 별내점,음식점,경기도 남양주시 별내면 광전리 234-2,37.6951291628928,127.127581829563,,,,,경기 남양주시 별내면 송산로 619-1
광릉불고기 월곶점,음식점,경기도 시흥시 월곶동 487-4,37.3824474358085,126.761651428947,,,,,경기 시흥시 군자로10번길 2
광명 아리랑,음식점,경기도 광명시 하안동 236,37.4552390251705,126.877072117609,,,,,경기 광명시 하안동 236
광명교동짬뽕,음식점,경기도 광명시 일직동 506,37.420676489798,126.889817784903,,,,,경기 광명시 일직로 77
광명대창집 김포장기점,음식점,경기도 김포시 장기동 2026-5 라베니체마치에비뉴3 1층 120호,37.6391622105391,126.679048202639,,,,,경기 김포시 김포한강2로23번길 74
광명서서갈비,음식점,경기도 광명시 광명동 150-4,37.478922706481,126.857338781468,,,,,경기 광명시 광이로 3-5
광사돈229,음식점,경기도 양주시 광사동 229,37.7961359057928,127.077143067137,,,,,경기 양주시 부흥로 1937-12
광수네,음식점,경기도 고양시 일산동구 백석동 1261,37.6455924035949,126.789985039725,,,,,경기 고양시 일산동구 백석로86번길 66-1
광연,음식점,경기도 고양시 일산동구 정발산동 1352-15,37.6693359347788,126.785326621117,,,,,경기 고양시 일산동구 일산로372번길 58-1
광주리들밥,음식점,경기도 용인시 처인구 양지면 양지리 138-63,37.2292713007303,127.291243649488,,,,,경기 용인시 처인구 양지면 남평로 63
광주옥,음식점,경기도 성남시 분당구 구미동 189-1,37.3377188089139,127.110982869407,,,,,경기 성남시 분당구 구미로 16
광화문 미진 갤러리아 광교점,음식점,경기도 수원시 영통구 하동 871-1 갤러리아 광교,37.2853038048351,127.057263357371,,,,,경기 수원시 영통구 광교중앙로 124
광화문미진 스타필드고양점,음식점,경기도 고양시 덕양구 동산동 370 3층,37.6470540753526,126.894691272743,,,,,경기 고양시 덕양구 고양대로 1955
광화문미진 일산점,음식점,경기도 고양시 일산동구 장항동 863,37.6567313343336,126.770637359208,,,,,경기 고양시 일산동구 정발산로 19
광희문 인덕원본점,음식점,경기도 안양시 동안구 관양동 1511-7,37.39975158783,126.97805045581,,,,,경기 안양시 동안구 흥안대로514번길 14
광희정 범계역점,음식점,경기도 안양시 동안구 호계동 1046-6,37.390306072152,126.952985861662,,,,,경기 안양시 동안구 평촌대로223번길 49
괴흐엉관,음식점,경기도 파주시 금촌동 319-37,37.7625190743671,126.773665671472,,,,,경기 파주시 금정24길 16-9
교감막국수,음식점,경기도 남양주시 와부읍 월문리 1252-19,37.5947420783994,127.226116888682,,,,,경기 남양주시 와부읍 수레로 162
교대이층집,음식점,경기도 성남시 분당구 서현동 269-6,37.3839158331546,127.121327313122,,,,,경기 성남시 분당구 분당로53번길 9
교동면옥,음식점,경기도 용인시 기흥구 마북동 171-2,37.3024781210383,127.121988398199,,,,,경기 용인시 기흥구 마북로 135
교동짬뽕,음식점,경기도 용인시 처인구 김량장동 336-10,37.2331427427697,127.200162015164,,,,,경기 용인시 처인구 중부대로 1403
교동짬뽕,음식점,경기도 화성시 병점동 351-2,37.2074318973736,127.035124308773,,,,,경기 화성시 경기대로 1027
교동짬뽕 수지점,음식점,경기도 용인시 수지구 풍덕천동 1082-12,37.3210826057426,127.094936024024,,,,,경기 용인시 수지구 문정로7번길 16
교동짬뽕 일산점,음식점,경기도 고양시 일산서구 덕이동 1045-16,37.6965720688352,126.738584487352,,,,,경기 고양시 일산서구 덕이로 213
교산가마솥밥한상,음식점,경기도 하남시 춘궁동 446-1,37.5200135131268,127.187524067383,,,,,경기 하남시 서하남로418번길 37-35
교외선,음식점,경기도 양주시 장흥면 삼상리 415,37.6928784088083,126.926202671027,,,,,경기 양주시 장흥면 일영로 545-14
교외선우리집,음식점,경기도 고양시 덕양구 대장동 69-2,37.6411569524654,126.820966545494,,,,,경기 고양시 덕양구 대장길 78-34
교촌치킨,음식점,경기도 광주 태전동 261-14,37.3910640899056,127.230158145919,,,,,경기 광주시 태봉로 26
